"#property","latitude","longitude","address","alternativeName","city","name","corporateRepresentative","establisher","openingDate","telephone　number","medicalSubjects","note","numberOfBeds","pref","prefCode"
"jp.takamatsu.smartcity.medical.Hospital.1","34.319621","134.110708","香川県高松市新田町乙８番地","病院","高松市","独立行政法人国立病院機構高松医療センター","理事長　新木　一弘","独立行政法人国立病院機構","1947/4/1","087-841-2146","内科、脳神経内科、呼吸器内科、消化器内科、循環器内科、小児神経内科、小児科、外科、整形外科、皮膚科、泌尿器科、リハビリ科、麻酔科、歯科","","232","香川県","372013"
"jp.takamatsu.smartcity.medical.Hospital.2","34.30674","134.030365","香川県高松市田村町１１１４番地","病院","高松市","かがわ総合リハビリテーション病院　","香川県知事","香川県","1986/4/1","087-867-6008","内科、循環器内科、小児科、整形外科、脳神経外科、皮膚科、泌尿器科、眼科、耳鼻咽喉科、リハビリ科、歯科、児童精神科","","184","香川県","372013"
"jp.takamatsu.smartcity.medical.Hospital.3","34.340801","134.044464","香川県高松市番町四丁目１番３号","病院","高松市","高松赤十字病院","社長　清家　篤","日本赤十字社","1907/6/30","087-831-7101","内科、精神科、神経内科、呼吸器内科、消化器内科、消化器・肝臓内科、循環器内科、内分泌・代謝内科、感染症内科、腎臓内科、脳神経内科、血液内科、腫瘍内科、小児科、整形外科、脳神経外科、消化器外科、胸部・乳腺外科、心臓血管外科、小児外科、膠原病・リウマチ科、脳卒中外科、腎臓外科（臓器移植）、皮膚科、形成外科、泌尿器科、産婦人科、眼科、耳鼻咽喉科、リハビリ科、放射線科、病理診断科、麻酔科、歯科口腔外科、救急科、分娩実施、透析実施","","463","香川県","372013"
"jp.takamatsu.smartcity.medical.Hospital.4","34.295549","134.058338","香川県高松市多肥上町１３３１番地１","病院","高松市","社会福祉法人恩賜財団済生会支部香川県済生会病院","支部長　一井　眞比古","社会福祉法人恩賜財団済生会支部香川県済生会","2004/4/1","087-868-1551","内科、消化器内科、循環器内科、糖尿病内科、腎臓内科、人工透析内科、内視鏡内科、小児科、外科、整形外科、消化器外科、内視鏡外科、皮膚科、泌尿器科、眼科、リハビリ科、放射線科、麻酔科","","198","香川県","372013"
"jp.takamatsu.smartcity.medical.Hospital.5","34.328696","134.050367","香川県高松市栗林町三丁目５番９号","病院","高松市","独立行政法人地域医療機能推進機構りつりん病院","理事長　山本　修一","独立行政法人地域医療機能推進機構","1950/12/26","087-862-3171","内科、呼吸器内科、循環器内科、小児科、外科、整形外科、脳神経外科、皮膚科、泌尿器科、婦人科、眼科、耳鼻咽喉科、リハビリ科、放射線科、麻酔科、歯科口腔外科","","199","香川県","372013"
"jp.takamatsu.smartcity.medical.Hospital.6","34.339875","134.045563","香川県高松市天神前４番１８号","病院","高松市","国家公務員共済組合連合会高松病院","理事長　松元　崇","国家公務員共済組合連合会","1952/4/14","087-861-3261","内科、呼吸器内科、消化器内科、循環器内科、腎臓内科、内分泌・代謝内科、脳神経内科、アレルギー科、リウマチ科、外科、脳神経外科、呼吸器外科、消化器外科、泌尿器科、婦人科、眼科、リハビリ科、放射線科、麻酔科","","179","香川県","372013"
"jp.takamatsu.smartcity.medical.Hospital.7","34.315735","134.043564","香川県高松市上天神町３３６番地","病院","高松市","一般財団法人大西精神衛生研究所附属大西病院","理事長　吉田　穂束","一般財団法人大西精神衛生研究所","1950/12/20","087-866-1792","精神科","","374","香川県","372013"
"jp.takamatsu.smartcity.medical.Hospital.8","34.339993","134.045273","香川県高松市天神前５番５号","病院","高松市","一般財団法人三宅医学研究所附属三宅リハビリテーション病院","理事長　三宅　信一郎","一般財団法人三宅医学研究所","2004/8/1","087-831-2101","内科、脳神経内科、リウマチ科、整形外科、脳神経外科、リハビリ科、放射線科","","61","香川県","372013"
"jp.takamatsu.smartcity.medical.Hospital.9","34.320523","134.038914","香川県高松市東ハゼ町８２４番地","病院","高松市","医療法人和光会前田病院","理事長　前田　雅彦","医療法人和光会","1966/12/13","087-865-7111","内科、消化器内科、肛門内科、ペインクリニック内科、外科、整形外科、消化器外科、肛門外科、リハビリ科、麻酔科","","96","香川県","372013"
"jp.takamatsu.smartcity.medical.Hospital.10","34.33271","134.002186","香川県高松市鬼無町藤井４３５番地１","病院","高松市","医療法人財団博仁会キナシ大林病院","理事長　川上　由佳","医療法人財団博仁会","2005/5/1","087-881-3631","内科、心療内科、精神科、神経内科、呼吸器内科科、消化器内科、循環器内科、糖尿病内科、腎臓内科、人工透析内科、血液内科、外科、整形外科、形成外科、脳神経外科、消化器外科、乳腺・内分泌外科、泌尿器科、眼科、リハビリ科、放射線科、放射線診断科、麻酔科、皮膚科、透析実施","","254","香川県","372013"
"jp.takamatsu.smartcity.medical.Hospital.11","34.321035","134.080172","香川県高松市木太町３８３６番地７","病院","高松市","医療法人社団三恵会木太三宅病院","理事長　三宅　泰二郎","医療法人社団三恵会","2000/9/1","087-867-3131","内科、消化器内科、循環器内科、外科、整形外科、消化器外科、心臓血管外科、肛門外科、リハビリ科、","","31","香川県","372013"
"jp.takamatsu.smartcity.medical.Hospital.12","34.291262","134.03246","香川県高松市三名町３７８番地１","病院","高松市","医療法人社団新進会おさか脳神経外科病院","理事長　苧坂　邦彦","医療法人社団新進会","1984/10/1","087-886-3300","内科、脳神経内科、循環器内科、外科、整形外科、脳神経外科、リハビリ科、放射線科、麻酔科","","69","香川県","372013"
"jp.takamatsu.smartcity.medical.Hospital.13","34.338977","134.104172","香川県高松市屋島西町１９３７番地１","病院","高松市","医療法人社団百石病院","理事長　江口　隆夫","医療法人社団百石病院","1984/11/1","087-843-6121","内科、循環器内科、外科、整形外科、脳神経外科、胃腸外科、小児外科、泌尿器科、肛門外科、リハビリ科、麻酔科","","87","香川県","372013"
"jp.takamatsu.smartcity.medical.Hospital.14","34.342143","134.045402","香川県高松市番町一丁目１０番３号","病院","高松市","医療法人社団康生会高松大林病院","理事長　大林　直嗣","医療法人社団康生会","1995/4/1","087-862-1231","内科、循環器内科、リハビリ科、放射線科","","49","香川県","372013"
"jp.takamatsu.smartcity.medical.Hospital.15","34.32859","134.105524","香川県高松市新田町甲４７４番地３","病院","高松市","医療法人社団啓友会久米川病院","理事長　吉澤　潔","医療法人社団啓友会","1995/4/1","087-844-3111","呼吸器内科、消化器内科、循環器内科、糖尿病内科、リウマチ科、整形外科、脳神経外科、呼吸器外科、消化器外科、乳腺・内分泌外科、循環器外科、皮膚科、泌尿器科、リハビリ科","","49","香川県","372013"
"jp.takamatsu.smartcity.medical.Hospital.16","34.334214","134.061087","香川県高松市観光町５８８番地８","病院","高松市","医療法人社団和広会伊達病院","理事長　伊達　学","医療法人社団和広会","1997/9/17","087-831-1701","内科、外科、整形外科、リハビリ科、放射線科、乳腺外科","","50","香川県","372013"
"jp.takamatsu.smartcity.medical.Hospital.17","34.322403","134.064403","香川県高松市松縄町３５番地３","病院","高松市","医療法人社団研宣会広瀬病院","理事長　廣瀬　友彦","医療法人社団研宣会","1996/1/1","087-867-9911","リウマチ科、外科、整形外科、リハビリ科","","43","香川県","372013"
"jp.takamatsu.smartcity.medical.Hospital.18","34.348362","134.014858","香川県高松市郷東町５８０番地","病院","高松市","医療法人社団玉藻会馬場病院","理事長　馬場　信二","医療法人社団玉藻会","1997/4/1","087-881-4375","内科、心療内科、精神科","","407","香川県","372013"
"jp.takamatsu.smartcity.medical.Hospital.19","34.344057","134.055098","香川県高松市塩屋町１番地４","病院","高松市","医療法人社団雙和会クワヤ病院","理事長　石濱　英暢","医療法人社団雙和会","1997/4/1","087-851-5208","内科、心療内科、精神科、呼吸器科、胃腸内科、循環器科、糖尿病内科、ペインクリニック内科、リウマチ科、整形外科、皮膚科、美容皮膚科、泌尿器科、リハビリ科、放射線科、麻酔科","","73","香川県","372013"
"jp.takamatsu.smartcity.medical.Hospital.20","34.340911","134.052016","香川県高松市瓦町一丁目１２番地４５","病院","高松市","医療法人社団弘徳会マオカ病院","理事長　満岡　弘巳","医療法人社団弘徳会","2003/4/1","087-862-8888","内科、リウマチ科、整形外科、リハビリ科、麻酔科","","58","香川県","372013"
"jp.takamatsu.smartcity.medical.Hospital.21","34.331441","134.046829","香川県高松市栗林町一丁目４番１号","病院","高松市","香川医療生活協同組合高松平和病院","理事長　北原　孝夫","香川医療生活協同組合","1984/10/1","087-833-8113","内科、呼吸器科、消化器科、循環器科、緩和ケア内科、アレルギー科、リウマチ科、小児科、整形外科、乳腺外科、リハビリ科、救急科、病理診断科","","123","香川県","372013"
"jp.takamatsu.smartcity.medical.Hospital.22","34.343719","134.045431","香川県高松市番町一丁目４番１３号","病院","高松市","整形外科吉峰病院","","吉峰　公博","1993/6/1","087-851-8775","内科、消化器内科、脳神経内科、リウマチ科、外科、整形外科、皮膚科、リハビリ科","","54","香川県","372013"
"jp.takamatsu.smartcity.medical.Hospital.23","34.171485","134.080528","香川県高松市塩江町安原上東９９番地１","病院","高松市","高松市民病院塩江分院","高松市長","高松市","2005/9/26","087-893-0031","内科、外科、整形外科、脳神経外科、皮膚科、リハビリ科、歯科","","87","香川県","372013"
"jp.takamatsu.smartcity.medical.Hospital.24","34.291538","133.95823","香川県高松市国分寺町新名５００番地１","病院","高松市","医療法人社団有史会高畠病院","理事長　高畠　渉","医療法人社団有史会","1998/12/18","087-874-3131","内科、神経内科、胃腸内科、循環器内科、外科、整形外科、肛門科、眼科、リハビリ科","","98","香川県","372013"
"jp.takamatsu.smartcity.medical.Hospital.25","34.407704","134.107814","香川県高松市庵治町６０３４番地１","病院","高松市","国立療養所大島青松園","厚生労働大臣","厚生労働省","1941/7/1","087-871-3131","内科、外科、整形外科、形成外科、皮膚科、眼科、耳鼻咽喉科、歯科","","100","香川県","372013"
"jp.takamatsu.smartcity.medical.Hospital.26","34.236976","134.021769","香川県高松市香南町由佐１１３番地１","病院","高松市","医療法人社団以和貴会いわき病院","理事長　渡邊　朋之","医療法人社団以和貴会","1974/4/1","087-879-3533","内科、心療内科、小児神経内科、精神科、神経科、神経内科、呼吸器科、消化器科、リハビリ科、麻酔科、歯科","","226","香川県","372013"
"jp.takamatsu.smartcity.medical.Hospital.27","34.331623","134.151581","香川県高松市牟礼町原８８３番地１","病院","高松市","医療法人社団光風会三光病院","理事長　海野　順","医療法人社団光風会","1982/11/1","087-845-3301","内科、精神科、心療内科、児童精神科、老年精神科","","320","香川県","372013"
"jp.takamatsu.smartcity.medical.Hospital.28","34.266491","134.034178","香川県高松市香川町浅野２７２番地","病院","高松市","医療法人社団仁樹会オサカ病院","理事長　森川　穎二","医療法人社団仁樹会","1994/4/1","087-889-0703","内科、循環器内科、外科、整形外科、形成外科、皮膚科、泌尿器科、リハビリ科、放射線科、麻酔科","","52","香川県","372013"
"jp.takamatsu.smartcity.medical.Hospital.29","34.323272","134.085667","香川県高松市木太町４６６４番地","病院","高松市","高松協同病院","理事長　北原　孝夫","香川医療生活協同組合","2010/1/1","087-833-2330","内科、整形外科、リハビリ科","","85","香川県","372013"
"jp.takamatsu.smartcity.medical.Hospital.30","34.348813","134.062552","香川県高松市朝日町一丁目２番１号","病院","高松市","香川県立中央病院","香川県知事","香川県","2014/3/1","087-811-3333","内科、呼吸器内科、消化器内科、循環器内科、糖尿病内科、腎臓内科、脳神経内科、血液内科、緩和ケア内科、肝臓内科、腫瘍内科、小児科、外科、整形外科、形成外科、脳神経外科、頭頚部外科、呼吸器外科、消化器外科、乳腺・内分泌外科、心臓血管外科、皮膚科、泌尿器科、産婦人科、眼科、耳鼻咽喉科、リハビリ科、放射線科、病理診断科、救急科、麻酔科、歯科、歯科口腔外科、分娩実施、透析実施","","533","香川県","372013"
"jp.takamatsu.smartcity.medical.Hospital.31","34.343432","134.090538","香川県高松市屋島西町２１０５番地１７","病院","高松市","香川県厚生農業協同組合連合会　屋島総合病院","代表理事理事長　田宮　隆","香川県厚生農業協同組合連合会","2016/11/1","087-841-9141","内科、呼吸器内科、消化器内科、循環器内科、糖尿病内科、透析科、小児アレルギー科、小児科、外科、整形外科、形成外科、脳神経外科、消化器外科、乳腺外科、皮膚科、泌尿器科、肛門外科、産婦人科、眼科、耳鼻咽喉科、リハビリ科、放射線科、麻酔科、歯科、分娩実施、透析実施","","279","香川県","372013"
"jp.takamatsu.smartcity.medical.Hospital.32","34.282689","134.040477","香川県高松市仏生山町甲８４７番地１","病院","高松市","高松市立みんなの病院","高松市長","高松市","2018/9/1","087-813-7171","内科、精神科、呼吸器内科、消化器内科、循環器内科、糖尿病内科、脳神経内科、小児科、外科、整形外科、形成外科、脳神経外科、脳血管外科、呼吸器外科、皮膚科、泌尿器科、産科、婦人科、眼科、耳鼻咽喉科、リハビリ科、放射線科、救急科、病理診断科、臨床検査科、麻酔科、歯科口腔外科、分娩実施、透析実施","","305","香川県","372013"
"jp.takamatsu.smartcity.medical.Hospital.33","34.280338","134.060004","香川県高松市三谷町１６８０番地１","病院","高松市","医療法人社団清澄会　ミタニ病院","理事長　藤田　麻里子","医療法人社団清澄会","2019/1/1","087-864-8778","内科、呼吸器内科、消化器内科、循環器内科、腎臓内科、泌尿器科、透析実施","","85","香川県","372013"
"jp.takamatsu.smartcity.medical.Hospital.34","34.314331","134.082888","香川県高松市元山町１２３１番地１３","有床診療所","高松市","安西内科医院","","安西　芳朗","1975/4/1","087-866-4170","内科、呼吸器内科、消化器内科、循環器内科、放射線科","","11","香川県","372013"
"jp.takamatsu.smartcity.medical.Hospital.35","34.305356","134.060269","香川県高松市多肥下町１５２４番地１４","有床診療所","高松市","医療法人安藤レディースクリニック","理事長　安藤　雅章","医療法人安藤レディースクリニック","2003/11/1","087-815-2833","産婦人科","","3","香川県","372013"
"jp.takamatsu.smartcity.medical.Hospital.36","34.256135","134.028203","香川県高松市香川町大野４５９番地５","有床診療所","高松市","医療法人社団健愛会あきやまクリニック","理事長　秋山　和己","医療法人社団健愛会","2006/1/1","087-815-8588","内科、泌尿器科、腎臓内科、呼吸器内科、糖尿病内科、人工透析内科","","3","香川県","372013"
"jp.takamatsu.smartcity.medical.Hospital.37","34.341829","134.133093","香川県高松市牟礼町牟礼１００６番地３","有床診療所","高松市","医療法人社団慈愛会阿部内科眼科医院","理事長　阿部　博","医療法人社団慈愛会","1994/10/1","087-845-1335","内科、糖尿病内科、眼科","","19（休床中）","香川県","372013"
"jp.takamatsu.smartcity.medical.Hospital.38","34.333635","134.046727","香川県高松市藤塚町一丁目１１番１号","有床診療所","高松市","医療法人社団少将井いがわ医院","理事長　井川　和彦","医療法人社団少将井いがわ医院","2012/4/1","087-861-4306","内科、整形外科、形成外科、皮膚科、眼科、耳鼻咽喉科、リハビリ科、歯科","","19","香川県","372013"
"jp.takamatsu.smartcity.medical.Hospital.39","34.337156","134.046337","香川県高松市中央町１番２８号（及び１番２４号）","有床診療所","高松市","医療法人社団大塚整形外科医院","理事長　大塚　和俊","医療法人社団大塚整形外科医院","1990/2/1","087-834-7611","リウマチ科、整形外科、リハビリ科","","15","香川県","372013"
"jp.takamatsu.smartcity.medical.Hospital.40","34.269595","134.025423","香川県高松市香川町大野１０９２番地１","有床診療所","高松市","医療法人社団大嶋整形外科医院","理事長　大嶋　照久","医療法人社団大嶋整形外科医院","1997/3/1","087-885-3611","リウマチ科、整形外科、リハビリ科","","19","香川県","372013"
"jp.takamatsu.smartcity.medical.Hospital.41","34.343473","134.06574","香川県高松市福岡町二丁目２４番２６号","有床診療所","高松市","太田クリニック","理事長　太田　憲吾","医療法人社団らく楽会","2014/8/4","087-851-1238","内科、外科、泌尿器科、リハビリ科","","19","香川県","372013"
"jp.takamatsu.smartcity.medical.Hospital.42","34.34026","134.114965","香川県高松市高松町２３６５番地","有床診療所","高松市","医療法人社団海部医院","理事長　海部　久美子","医療法人社団海部医院","1990/2/1","087-843-3666","内科、腎臓内科、循環器内科、皮膚科、泌尿器科、透析実施","","19","香川県","372013"
"jp.takamatsu.smartcity.medical.Hospital.43","34.289706","134.051792","香川県高松市多肥上町７１８番地１","有床診療所","高松市","医療法人かしむら内科医院","理事長　佐藤　多美子","医療法人かしむら内科医院","2006/9/1","087-889-7760","内科、消化器内科、リハビリ科","","19","香川県","372013"
"jp.takamatsu.smartcity.medical.Hospital.44","34.343076","134.043878","香川県高松市番町二丁目４番１６号","有床診療所","高松市","五番丁医院","","河野　良太","2014/4/1","087-822-3331","内科、外科、整形外科、リハビリ科","","19","香川県","372013"
"jp.takamatsu.smartcity.medical.Hospital.45","34.304149","134.01524","香川県高松市成合町７２６番地１","有床診療所","高松市","医療法人社団泰平会佐藤クリニック","理事長　佐藤　剛平","医療法人社団泰平会","2000/2/1","087-885-0105","内科、外科、整形外科、肛門科、循環器外科、リハビリテーション科、放射線科","","19","香川県","372013"
"jp.takamatsu.smartcity.medical.Hospital.46","34.301277","134.050935","香川県高松市太田下町３０１７番地３","有床診療所","高松市","サンフラワーマタニティークリニック","","柳原　敏宏","2011/7/1","087-868-4103","産科、婦人科","","19","香川県","372013"
"jp.takamatsu.smartcity.medical.Hospital.47","34.311636","134.040077","香川県高松市上天神町５１２番地１","有床診療所","高松市","医療法人社団緑会ザイタックスクリニック","理事長　樋端　敏生","医療法人社団緑会","2015/11/1","087-867-1177","内科、人工透析内科、泌尿器科（人口透析）、放射線診療科","","19","香川県","372013"
"jp.takamatsu.smartcity.medical.Hospital.48","34.317761","134.046412","香川県高松市三条町４８２番地１","有床診療所","高松市","三条整形外科スポーツクリニック","理事長　宮武　正弘","医療法人弘仁会","2011/9/1","087-867-2270","リウマチ科、整形外科、リハビリ科","","19","香川県","372013"
"jp.takamatsu.smartcity.medical.Hospital.49","34.244093","134.086803","香川県高松市西植田町１５４０番地","有床診療所","高松市","四宮医院","","四宮　陽一","1985/9/18","087-849-0201","内科、小児科、脳神経外科、放射線科","","19","香川県","372013"
"jp.takamatsu.smartcity.medical.Hospital.50","34.342476","134.130789","香川県高松市牟礼町牟礼９８６番地１","有床診療所","高松市","医療法人社団渋谷整形外科医院","理事長　渋谷　整","医療法人社団渋谷整形外科医院","2000/11/1","087-845-9339","リウマチ科、外科、整形外科、リハビリ科","","19","香川県","372013"
"jp.takamatsu.smartcity.medical.Hospital.51","34.255634","134.035124","香川県高松市香川町浅野１０２６番地５","有床診療所","高松市","杉上産婦人科医院","","杉上　彰","1981/5/1","087-879-6969","内科、産科、婦人科、麻酔科","","19","香川県","372013"
"jp.takamatsu.smartcity.medical.Hospital.52","34.336735","134.052758","香川県高松市観光通一丁目６番地１","有床診療所","高松市","医療法人社団菅原眼科医院","理事長　樋端　みどり","医療法人社団菅原眼科医院","2022/4/6","087-831-7561","眼科","","3","香川県","372013"
"jp.takamatsu.smartcity.medical.Hospital.53","34.340975","134.045256","香川県高松市番町一丁目１０番１６号","有床診療所","高松市","一般財団法人三宅医学研究所附属セントラルパーククリニック","理事長　三宅　信一郎","一般財団法人三宅医学研究所","1998/4/30","087-863-4560","内科、外科、整形外科、婦人科、リハビリ科、放射線科、マンモ","","5","香川県","372013"
"jp.takamatsu.smartcity.medical.Hospital.54","34.275891","134.103456","香川県高松市十川西町３６８番地１","有床診療所","高松市","医療法人社団恵生会いきなり内科ハートクリニック","理事長　入江　恵子","医療法人社団恵生会","2005/5/1","087-848-1166","内科、消化器内科、循環器内科、リハビリテーション科、脳神経外科","","15","香川県","372013"
"jp.takamatsu.smartcity.medical.Hospital.55","34.342783","134.042292","香川県高松市番町三丁目３番１号","有床診療所","高松市","多田羅内科クリニック","理事長　多田羅　治","医療法人福生会","1992/12/1","087-861-3730","内科、呼吸器内科、消化器内科、循環器内科、肝臓内科、外科","","18","香川県","372013"
"jp.takamatsu.smartcity.medical.Hospital.56","34.321858","134.063855","香川県高松市松縄町４１番地５","有床診療所","高松市","医療法人社団田原内科医院","理事長　田原　律哉","医療法人社団田原内科医院","1993/3/1","087-867-1766","呼吸器内科、消化器内科、循環器内科、糖尿病・内分泌内科、リハビリ科","","19","香川県","372013"
"jp.takamatsu.smartcity.medical.Hospital.57","34.328995","134.069574","香川県高松市木太町１９８６番地","有床診療所","高松市","医療法人社団高畠医院","理事長　高畠　良智","医療法人社団高畠医院","1996/1/1","087-862-3410","内科、リウマチ科、整形外科、皮膚科、泌尿器科、リハビリ科","","19","香川県","372013"
"jp.takamatsu.smartcity.medical.Hospital.58","34.265782","134.028461","香川県高松市香川町大野９９７番地３","有床診療所","高松市","医療法人社団谷本内科医院","理事長　谷本　佳貞","医療法人社団谷本内科医院","1999/2/1","087-885-8500","内科、循環器内科、人工透析内科、糖尿病内科、泌尿器科、リハビリ科","","19","香川県","372013"
"jp.takamatsu.smartcity.medical.Hospital.59","34.317173","134.092732","香川県高松市春日町１４８番地１","有床診療所","高松市","医療法人社団立心会高松ハートクリニック","理事長　雪入　一志","医療法人社団立心会高松ハートクリニック","2012/3/2","087-814-5111","内科、循環器内科","","6","香川県","372013"
"jp.takamatsu.smartcity.medical.Hospital.60","34.297067","134.055251","香川県高松市多肥下町字山道３６５番地９","有床診療所","高松市","医療法人社団一歩一景会たけべ乳腺外科クリニック","理事長　武部　晃司","医療法人社団一歩一景会","2015/5/1","087-867-0205","乳腺外科","","15","香川県","372013"
"jp.takamatsu.smartcity.medical.Hospital.61","34.301104","134.018773","香川県高松市成合町１３５７番地","有床診療所","高松市","なりあい医院","理事長　村上　良一","学校法人村上学園","2007/12/1","087-885-7700","胃腸内科、外科、リハビリ科","","19（休床中）","香川県","372013"
"jp.takamatsu.smartcity.medical.Hospital.62","34.28202","134.023515","香川県高松市寺井町１３８５番地１０","有床診療所","高松市","医療法人社団仁泉会西岡医院","理事長　西岡　敦子","医療法人社団仁泉会","1995/3/1","087-885-2021","内科、リウマチ科、小児科、整形外科、リハビリ科","","19","香川県","372013"
"jp.takamatsu.smartcity.medical.Hospital.63","34.26683","134.025532","香川県高松市香川町大野１３２５番地１","有床診療所","高松市","医療法人社団西原眼科医院","理事長　西原　聡一朗","医療法人社団西原眼科医院","1998/4/1","087-885-5511","眼科","","4","香川県","372013"
"jp.takamatsu.smartcity.medical.Hospital.64","34.335501","134.050983","香川県高松市東田町４番地８","有床診療所","高松市","沼本産婦人科医院","","沼本　篤男","2016/9/1","087-831-7062","産婦人科","","2","香川県","372013"
"jp.takamatsu.smartcity.medical.Hospital.65","34.339364","134.010601","香川県高松市鶴市町２０２６番地１","有床診療所","高松市","医療法人社団伸萌会花房外科医院","理事長　花房　伸","医療法人社団伸萌会","1993/4/1","087-881-0066","胃腸科、外科、こう門科、リハビリ科","","19（休床中）","香川県","372013"
"jp.takamatsu.smartcity.medical.Hospital.66","34.326512","134.04976","香川県高松市花ノ宮町一丁目５番３０号","有床診療所","高松市","医療法人社団はらだ産婦人科医院","理事長　原田　美禰子","医療法人社団はらだ産婦人科医院","1995/6/1","087-837-1611","産婦人科","","2","香川県","372013"
"jp.takamatsu.smartcity.medical.Hospital.67","34.297606","134.078552","香川県高松市六条町７９５番地６","有床診療所","高松市","医療法人社団ひまわり会はまもと医院","理事長　濱本　龍七郎","医療法人社団ひまわり会","2002/3/1","087-864-6666","内科、呼吸器内科、胃腸内科、循環器内科、人工透析内科、糖尿病内科、腎臓内科、老年内科、アレルギー疾患内科、リハビリ科","","19","香川県","372013"
"jp.takamatsu.smartcity.medical.Hospital.68","34.305593","134.037044","香川県高松市田村町１２７７番地","有床診療所","高松市","医療法人社団藤井外科胃腸科・整形外科","理事長　谷野　裕子","医療法人社団藤井外科胃腸科・整形外科","2001/4/1","087-867-1222","内科、胃腸科、外科、整形外科、リウマチ科、リハビリテーション科","","18","香川県","372013"
"jp.takamatsu.smartcity.medical.Hospital.69","34.276377","134.082341","香川県高松市川島本町４３１番地５","有床診療所","高松市","医療法人社団三好内科医院","理事長　三好　康夫","医療法人社団三好内科医院","1993/4/1","087-848-2288","内科、消化器内科、循環器内科、泌尿器科、リハビリテーション科","","19","香川県","372013"
"jp.takamatsu.smartcity.medical.Hospital.70","34.284165","134.114729","香川県高松市亀田町２２６番地１","無床診療所","高松市","医療法人社団つくし会三好外科胃腸科医院","理事長　三好　恵一","医療法人社団つくし会","2002/4/1","087-847-8888","胃腸内科、循環器内科、外科、整形外科、こう門外科、リハビリ科","","","香川県","372013"
"jp.takamatsu.smartcity.medical.Hospital.71","34.34007","134.052279","香川県高松市瓦町二丁目３番地５","有床診療所","高松市","森産婦人科医院","","森　信博","2022/11/24","087-831-5513","産科・婦人科","","19","香川県","372013"
"jp.takamatsu.smartcity.medical.Hospital.72","34.33794","134.0541","香川県高松市塩上町一丁目４番１０号","有床診療所","高松市","医療法人社団隆朗会やまもと医院","理事長　山本　良隆","医療法人社団隆朗会","2021/4/16","087-837-0707","内科、心療内科、精神科","","1","香川県","372013"
"jp.takamatsu.smartcity.medical.Hospital.73","34.292832","134.000091","香川県高松市円座町３７５番地１","有床診療所","高松市","医療法人よつばウイメンズクリニック","理事長　片山　富博","医療法人よつばウイメンズクリニック","2013/9/1","087-885-4103","産婦人科","","17","香川県","372013"
"jp.takamatsu.smartcity.medical.Hospital.74","34.28196","134.0475","香川県高松市仏生山町甲４６０番地８","有床診療所","高松市","医療法人社団わき外科・内科クリニック","理事長　脇　正志","医療法人社団わき外科クリニック","1992/1/1","087-888-5123","内科、呼吸器内科、胃腸内科、外科、皮膚科、泌尿器科、肛門外科","","15","香川県","372013"
"jp.takamatsu.smartcity.medical.Hospital.75","34.317122","134.053266","香川県高松市伏石町１３１６番地３","無床診療所","高松市","医療法人社団荒木内科医院","理事長　荒木　久之","医療法人社団荒木内科医院","1995/6/1","087-867-7041","内科","","","香川県","372013"
"jp.takamatsu.smartcity.medical.Hospital.76","34.347323","134.087915","香川県高松市屋島西町２４９０番地１９","無床診療所","高松市","浅野皮膚科医院","","浅野　隆司","1999/5/12","087-843-2332","皮膚科","","","香川県","372013"
"jp.takamatsu.smartcity.medical.Hospital.77","34.306023","134.043222","香川県高松市太田下町１８７２番地２","無床診療所","高松市","医療法人社団修美会綾田内科消化器科クリニック","理事長　綾田　喜一郎","医療法人社団修美会","2002/11/1","087-864-5111","内科、消化器内科、循環器内科、アレルギー科","","","香川県","372013"
"jp.takamatsu.smartcity.medical.Hospital.78","34.286707","133.962649","香川県高松市国分寺町福家甲３１７４番地４","無床診療所","高松市","医療法人社団雲井会綾こどもクリニック","理事長　綾　直文","医療法人社団雲井会","2003/4/1","087-875-2220","小児科、アレルギー科","","","香川県","372013"
"jp.takamatsu.smartcity.medical.Hospital.79","34.380964","134.127817","香川県高松市庵治町６１９番地","無床診療所","高松市","医療法人社団庵治整形外科・内科医院","理事長　林　春樹","医療法人社団庵治整形外科・内科医院","1950/12/26","087-871-3801","内科、リウマチ科、整形外科、リハビリ科","","","香川県","372013"
"jp.takamatsu.smartcity.medical.Hospital.80","34.271968","134.026198","香川県高松市香川町大野２４５２番地２","無床診療所","高松市","医療法人社団阿河耳鼻咽喉科医院","理事長　阿河　邦治","医療法人社団阿河耳鼻咽喉科医院","1997/2/1","087-885-3387","耳鼻咽喉科","","","香川県","372013"
"jp.takamatsu.smartcity.medical.Hospital.81","34.297317","134.040245","香川県高松市太田上町４２０番地１","無床診療所","高松市","あおば内科クリニック","","辻上　幸司","2008/5/21","087-816-1122","内科、消化器内科","","","香川県","372013"
"jp.takamatsu.smartcity.medical.Hospital.82","34.294085","134.078976","香川県高松市六条町６０５番地５","無床診療所","高松市","医療法人社団裕心会あきた小児科クリニック","理事長　秋田　裕司","医療法人社団裕心会","2009/6/1","087-868-6000","小児循環器内科、アレルギー科、小児科、","","","香川県","372013"
"jp.takamatsu.smartcity.medical.Hospital.83","34.33438","134.048071","香川県高松市藤塚町一丁目４番１１号","無床診療所","高松市","医療法人社団阿部内科クリニック","理事長　阿部　美ゆき","医療法人社団阿部内科クリニック","2010/12/15","087-837-3131","内科、心療内科、精神科、整形外科","","","香川県","372013"
"jp.takamatsu.smartcity.medical.Hospital.84","34.238607","134.020981","香川県高松市香南町由佐２１０番地１","無床診療所","高松市","医療法人社団雄翔会綾田医院","理事長　綾田　潔","医療法人社団雄翔会","2010/8/1","087-879-2008","内科、消化器内科、循環器内科","","","香川県","372013"
"jp.takamatsu.smartcity.medical.Hospital.85","34.310955","134.079466","香川県高松市木太町４３２６番地１","無床診療所","高松市","あまの内科クリニック","","天野　克也","2012/10/17","087-868-3363","内科、循環器内科、糖尿病内科","","","香川県","372013"
"jp.takamatsu.smartcity.medical.Hospital.86","34.298627","134.05965","香川県高松市多肥下町５１７番地１０","無床診療所","高松市","あんどう発達クリニック","","安藤　美智子","2012/10/1","087-867-0234","精神科、小児神経内科、小児科","","","香川県","372013"
"jp.takamatsu.smartcity.medical.Hospital.87","34.335289","134.065965","香川県高松市観光町字川下５３８番地２","無床診療所","高松市","あさひクリニック","理事長　西口　潤","医療法人社団愛和会","2015/8/1","087-831-0280","内科、泌尿器科、産婦人科、小児科","","","香川県","372013"
"jp.takamatsu.smartcity.medical.Hospital.88","34.284703","134.097643","香川県高松市小村町２５６番地１３","無床診療所","高松市","ありとも内科クリニック","理事長　有友　雄一","医療法人ありとも内科クリニック","2018/10/1","087-887-4103","内科、消化器内科","","","香川県","372013"
"jp.takamatsu.smartcity.medical.Hospital.89","34.344861","134.007931","香川県高松市香西東町４３３番地１","無床診療所","高松市","美術館診療所","理事長　瀬尾　憲正","医療法人社団なつめ会","2020/2/1","087-881-2776","内科、循環器内科、呼吸器内科、糖尿病内科、泌尿器科、脳神経外科、リハビリ科、産婦人科、耳鼻咽喉科","","","香川県","372013"
"jp.takamatsu.smartcity.medical.Hospital.90","34.29279","134.09037","香川県高松市下田井町３７２番地１","無床診療所","高松市","あらい乳腺クリニック","","新井　貴士","2022/9/1","087-802-2234","乳腺内科、甲状腺内科","","","香川県","372013"
"jp.takamatsu.smartcity.medical.Hospital.91","34.346580","134.047628","香川県高松市兵庫町８番地１","無床診療所","高松市","ＡＮＤ美容外科高松院","代表理事　安原　美千子","一般社団法人地生会","2023/12/3","087-802-5540","美容外科","","","香川県","372013"
"jp.takamatsu.smartcity.medical.Hospital.92","34.332188","134.049654","香川県高松市栗林町二丁目４−１１　アオイ第一ビル","無床診療所","高松市","あおぞら診療所","","稲毛　達朗","2024/4/17","050-5482-3432","内科、緩和ケア内科、泌尿器科","","","香川県","372013"
"jp.takamatsu.smartcity.medical.Hospital.93","34.341387","134.066824","香川県高松市松福町二丁目１０番１０号","無床診療所","高松市","岩部医院（休止中）","","岩部　道孝","1983/4/1","087-821-6203","内科、呼吸器科、小児科","","","香川県","372013"
"jp.takamatsu.smartcity.medical.Hospital.94","34.284976","134.00328","香川県高松市円座町１２９番地７","無床診療所","高松市","稲井皮膚科クリニック","","稲井　優","1991/4/12","087-885-3356","皮膚科","","","香川県","372013"
"jp.takamatsu.smartcity.medical.Hospital.95","34.333245","134.075437","香川県高松市木太町３２３８番地７","無床診療所","高松市","医療法人社団いとうクリニック","理事長　伊藤　輝一","医療法人社団いとうクリニック","1996/1/1","087-835-5011","内科、脳神経外科、リハビリ科、麻酔科","","","香川県","372013"
"jp.takamatsu.smartcity.medical.Hospital.96","34.334503","134.111781","香川県高松市高松町１６８９番地４","無床診療所","高松市","医療法人社団いずみ内科医院","理事長　和泉　英彦","医療法人社団いずみ内科医院","1996/9/1","087-843-1115","内科、消化器内科、循環器内科、糖尿病・代謝内科","","","香川県","372013"
"jp.takamatsu.smartcity.medical.Hospital.97","34.27874","134.078318","香川県高松市三谷町９０番地１","無床診療所","高松市","医療法人社団イズミ医院","理事長　泉　佳成","医療法人社団イズミ医院","2000/4/1","087-840-1777","内科、神経内科、循環器内科、脳卒中内科、リハビリ科","","","香川県","372013"
"jp.takamatsu.smartcity.medical.Hospital.98","34.348627","134.088751","香川県高松市屋島西町２４９０番地１","無床診療所","高松市","医療法人社団観照会かがみハーモニークリニック","理事長　鏡原　康介","医療法人社団観照会","2003/5/1","087-802-4711","内科、循環器内科、リハビリテーション科","","","香川県","372013"
"jp.takamatsu.smartcity.medical.Hospital.99","34.33584","134.051005","香川県高松市塩上町９番地１５","無床診療所","高松市","いしばし内科医院","","石橋　忠明","2005/3/10","087-831-7487","内科、胃腸科、循環器科","","","香川県","372013"
"jp.takamatsu.smartcity.medical.Hospital.100","34.343274","134.124576","香川県高松市牟礼町牟礼２１２８番地１０","無床診療所","高松市","岩藤内科医院","","岩藤　孫六","1987/3/1","087-845-3337","内科、呼吸器科、消化器科、循環器科","","","香川県","372013"
"jp.takamatsu.smartcity.medical.Hospital.101","34.32274","134.061291","香川県高松市松縄町４８番地２","無床診療所","高松市","医療法人社団石川内科胃腸科医院","理事長　石川　喜久","医療法人社団石川内科胃腸科医院","2007/3/1","087-867-1000","内科、胃腸科、外科","","","香川県","372013"
"jp.takamatsu.smartcity.medical.Hospital.102","34.329596","134.056597","香川県高松市楠上町二丁目３番１５号　アルファメディカルモール２階","無床診療所","高松市","医療法人社団いとうわんぱくクリニック","理事長　伊藤　利幸","医療法人社団いとうわんぱくクリニック","2012/4/1","087-812-1089","アレルギー科、小児科","","","香川県","372013"
"jp.takamatsu.smartcity.medical.Hospital.103","34.325345","134.101964","香川県高松市新田町甲６５８番地７","無床診療所","高松市","いまいこどもファミリークリニック","理事長　今井　正","医療法人社団いまいこどもファミリークリニック","2012/9/1","087-813-8048","血液内科、小児科","","","香川県","372013"
"jp.takamatsu.smartcity.medical.Hospital.104","34.318824","134.080904","香川県高松市木太町４０２３番地５","無床診療所","高松市","石井耳鼻咽喉科医院","","石井　玄吾","2013/1/1","087-866-7220","耳鼻咽喉科","","","香川県","372013"
"jp.takamatsu.smartcity.medical.Hospital.105","34.337943","134.051027","香川県高松市常磐町二丁目３番地６","無床診療所","高松市","磯島クリニック","理事長　磯島　玄","医療法人社団玄正会","2013/3/1","087-862-5177","内科、心療内科、精神科、リハビリ科","","","香川県","372013"
"jp.takamatsu.smartcity.medical.Hospital.106","34.29079","134.01913","香川県高松市一宮町字荒１５３０番地１","無床診療所","高松市","いなもと耳鼻咽喉科","","稲本　隆平","2020/9/1","087-880-3341","耳鼻咽喉科、小児耳鼻咽喉科","","","香川県","372013"
"jp.takamatsu.smartcity.medical.Hospital.107","34.298773","134.058505","香川県高松市多肥下町４６８番地３","無床診療所","高松市","医療法人社団恵生会生成脳神経クリニック","理事長　入江　恵子","医療法人社団恵生会","2022/5/2","087-813-5511","内科、消化器内科、脳神経外科、リハビリテーション科","","","香川県","372013"
"jp.takamatsu.smartcity.medical.Hospital.108","34.340432","134.110896","香川県高松市高松町３００６番地７","無床診療所","高松市","印藤内科クリニック","","神原　圭","2022/5/1","087-816-1800","内科、消化器内科、内視鏡内科、肛門外科、外科","","","香川県","372013"
"jp.takamatsu.smartcity.medical.Hospital.109","34.347041","134.050850","香川県高松市内町２番１号","無床診療所","高松市","医療法人社団恵生会いきなりキッズクリニック","理事長　入江　恵子","医療法人社団恵生会","2024/2/13","087-813-6220","内科、小児科、小児外科、脳神経外科","","","香川県","372013"
"jp.takamatsu.smartcity.medical.Hospital.110","34.316021","134.068903","香川県高松市木太町５０３４−１０","無床診療所","高松市","いない皮ふ科形成外科クリニック","","稲井　雅光","2024/6/3","087-865-0079","形成外科、皮膚科、美容皮膚科","","","香川県","372013"
"jp.takamatsu.smartcity.medical.Hospital.111","34.345004","134.03901","香川県高松市扇町二丁目１番７号","無床診療所","高松市","医療法人社団内田眼科クリニック","理事長　内田　雅仁","医療法人社団内田眼科クリニック","2004/3/1","087-823-3443","眼科","","","香川県","372013"
"jp.takamatsu.smartcity.medical.Hospital.112","34.329596","134.056597","香川県高松市楠上町二丁目３番１５号","無床診療所","高松市","医療法人社団うえむら耳鼻咽喉科","理事長　植村　哲也","医療法人社団うえむら耳鼻咽喉科","2014/10/1","087-831-8733","耳鼻咽喉科","","","香川県","372013"
"jp.takamatsu.smartcity.medical.Hospital.113","34.297178","133.996081","香川県高松市檀紙町６８番地１","無床診療所","高松市","医療法人社団牛山クリニック","理事長　牛山　貴文","医療法人社団牛山クリニック","2015/11/1","087-886-0119","内科、消化器内科、外科、美容皮膚科、リハビリ科","","","香川県","372013"
"jp.takamatsu.smartcity.medical.Hospital.114","34.300353","134.090144","香川県高松市六条町１９８番地１","無床診療所","高松市","江藤内科クリニック","","江藤　内詞","2008/1/28","087-847-6840","内科","","","香川県","372013"
"jp.takamatsu.smartcity.medical.Hospital.115","34.334151","134.063818","香川県高松市観光町６４９番地８","無床診療所","高松市","えないメンタルクリニック","","繒内　利啓","2010/4/5","087-813-1613","心療内科、精神科","","","香川県","372013"
"jp.takamatsu.smartcity.medical.Hospital.116","34.34235","134.04941","香川県高松市丸亀町７番地１６　丸亀町グリーン２階","無床診療所","高松市","エミナルクリニック高松院","理事長　小池　仁","医療法人エミフル","2022/2/1","087-899-2541","美容皮膚科","","","香川県","372013"
"jp.takamatsu.smartcity.medical.Hospital.117","34.337788","134.107955","香川県高松市高松町２５０７番地４","無床診療所","高松市","大内クリニック　内科・脳神経内科・眼科","","大内　晣","1973/5/1","087-843-1662","内科、眼科、脳神経内科、消化器内科","","","香川県","372013"
"jp.takamatsu.smartcity.medical.Hospital.118","34.323601","134.047559","香川県高松市花ノ宮町二丁目１２番１号","無床診療所","高松市","医療法人社団おだ整形外科医院","理事長　織田　静信","医療法人社団おだ整形外科医院","1991/5/1","087-866-7166","リウマチ科、整形外科、リハビリ科","","","香川県","372013"
"jp.takamatsu.smartcity.medical.Hospital.119","34.340321","134.061531","香川県高松市松島町一丁目８番１８号","無床診療所","高松市","医療法人社団大西整形外科クリニック","理事長　大西　啓一","医療法人社団大西整形外科クリニック","1994/4/1","087-862-8288","外科、整形外科、リハビリ科","","","香川県","372013"
"jp.takamatsu.smartcity.medical.Hospital.120","34.340327","134.045005","香川県高松市天神前５番６号４Ｆ","無床診療所","高松市","大野ペインクリニック","","大野　健次","2004/12/1","087-836-9870","麻酔科","","","香川県","372013"
"jp.takamatsu.smartcity.medical.Hospital.121","34.321688","134.037504","香川県高松市西ハゼ町８番地１","無床診療所","高松市","おか整形・リハビリクリニック","理事長　岡　史朗","医療法人社団おか整形・リハビリクリニック","2007/4/1","087-814-8555","整形外科、リハビリ科","","","香川県","372013"
"jp.takamatsu.smartcity.medical.Hospital.122","34.240969","134.036572","香川県高松市香川町川東上１８６４番地３","無床診療所","高松市","おか内科クリニック","","岡　隆彦","2007/5/15","087-879-1600","内科、呼吸器内科、消化器内科、糖尿病内科","","","香川県","372013"
"jp.takamatsu.smartcity.medical.Hospital.123","34.301985","134.059658","香川県高松市多肥下町１５４３番地１","無床診療所","高松市","医療法人社団おはら整形外科クリニック","理事長　小原　健夫","医療法人社団おはら整形外科クリニック","2007/10/2","087-865-2398","リウマチ科、外科、整形外科、胃腸外科、肛門外科、リハビリ科","","","香川県","372013"
"jp.takamatsu.smartcity.medical.Hospital.124","34.304616","134.015275","香川県高松市成合町７２８番地７","無床診療所","高松市","大饗内科消化器科医院","","大饗　由之","2008/5/1","087-885-1233","内科、心療内科、精神科、消化器内科","","","香川県","372013"
"jp.takamatsu.smartcity.medical.Hospital.125","34.347349","134.088162","香川県高松市屋島西町２４９０番地１８","無床診療所","高松市","医療法人社団空会大西内科クリニック","理事長　大西　隆行","医療法人社団空会","2010/10/1","087-818-0765","内科、消化器内科、アレルギー科","","","香川県","372013"
"jp.takamatsu.smartcity.medical.Hospital.126","34.300231","134.098316","香川県高松市東山崎町４６６番地３","無床診療所","高松市","おおくぼ小児科","理事長　大久保　賢介","医療法人社団おおくぼ小児科","2013/9/1","087-847-2500","アレルギー科、小児科、新生児内科","","","香川県","372013"
"jp.takamatsu.smartcity.medical.Hospital.127","34.334055","134.06328","香川県高松市観光町６４９番地８","無床診療所","高松市","オリーブ高松メディカルクリニック","理事長　福井　敏樹","医療法人社団如水会","2015/7/1","087-839-9620","内科、婦人科、放射線科、マンモ","","","香川県","372013"
"jp.takamatsu.smartcity.medical.Hospital.128","34.31095","134.043991","香川県高松市三条町１０９番地１","無床診療所","高松市","医療法人社団大橋内科胃腸科","理事長　大橋　英司","医療法人社団大橋内科胃腸科","2007/3/1","087-866-0084","内科、胃腸科","","","香川県","372013"
"jp.takamatsu.smartcity.medical.Hospital.129","34.33972","134.051104","香川県高松市瓦町二丁目７番地２０","無床診療所","高松市","川原耳鼻咽喉科医院","","川原　孝文","1987/10/13","087-834-4731","耳鼻咽喉科","","","香川県","372013"
"jp.takamatsu.smartcity.medical.Hospital.130","34.352004","134.01877","香川県高松市郷東町５８７番地１","無床診療所","高松市","公益財団法人香川県総合健診協会","会長　久米川　啓","公益財団法人香川県総合健診協会","1993/4/1","087-881-4867","内科、婦人科、放射線科","","","香川県","372013"
"jp.takamatsu.smartcity.medical.Hospital.131","34.322052","134.04643","香川県高松市上之町一丁目３番１１号","無床診療所","高松市","かわにし眼科医院","","河西　庸二郎","2000/7/3","087-815-0588","眼科","","","香川県","372013"
"jp.takamatsu.smartcity.medical.Hospital.132","34.301088","134.059488","香川県高松市多肥下町１５４８番地２０","無床診療所","高松市","加藤眼科クリニック","","加藤　俊彦","2002/5/19","087-868-0707","眼科","","","香川県","372013"
"jp.takamatsu.smartcity.medical.Hospital.133","34.337024","134.100301","香川県高松市屋島西町１９６８番地７","無床診療所","高松市","医療法人社団かねたけ耳鼻咽喉科医院","理事長　兼竹　博之","医療法人社団かねたけ耳鼻咽喉科医院","2002/7/1","087-841-8733","アレルギー科、耳鼻咽喉科","","","香川県","372013"
"jp.takamatsu.smartcity.medical.Hospital.134","34.341859","134.038664","香川県高松市番町四丁目８番２５号","無床診療所","高松市","形見医院","","形見　智彦","2004/5/1","087-831-5965","内科、循環器科、小児科","","","香川県","372013"
"jp.takamatsu.smartcity.medical.Hospital.135","34.287059","134.001371","香川県高松市中間町４０番地１","無床診療所","高松市","医療法人社団菅循環器科内科クリニック","理事長　菅　敬彦","医療法人社団菅循環器科内科クリニック","2004/8/1","087-885-5100","内科、消化器内科、循環器内科","","","香川県","372013"
"jp.takamatsu.smartcity.medical.Hospital.136","34.305202","134.052186","香川県高松市太田下町３００７番地４","無床診療所","高松市","医療法人社団弘雅会亀井内科呼吸器科医院","理事長　亀井　雅","医療法人社団弘雅会","2005/4/1","087-866-5001","内科、呼吸器科、アレルギー科","","","香川県","372013"
"jp.takamatsu.smartcity.medical.Hospital.137","34.271796","134.025875","香川県高松市香川町大野２４５３番地１","無床診療所","高松市","医療法人社団かとう皮フ科クリニック","理事長　和泉　麻衣子","医療法人社団かとう皮フ科クリニック","2004/10/1","087-864-7227","皮膚科","","","香川県","372013"
"jp.takamatsu.smartcity.medical.Hospital.138","34.316839","134.059596","香川県高松市松縄町１１１７番地１６","無床診療所","高松市","医療法人社団川地クリニック","理事長　川地　康司","医療法人社団川地クリニック","2006/6/1","087-815-2110","内科、呼吸器科、アレルギー科","","","香川県","372013"
"jp.takamatsu.smartcity.medical.Hospital.139","34.286533","134.047861","香川県高松市出作町４３１番地５","無床診療所","高松市","医療法人社団川ばた整形・リハビリクリニック","理事長　川溿　靖人","医療法人社団川ばた整形・リハビリクリニック","2007/5/1","087-889-7770","整形外科、リハビリ科","","","香川県","372013"
"jp.takamatsu.smartcity.medical.Hospital.140","34.349023","134.001413","香川県高松市香西本町１１４番地１０","無床診療所","高松市","医療法人社団勝賀かつが整形外科クリニック","理事長　西山　徹","医療法人社団勝賀","2007/8/1","087-832-8877","形成外科、美容外科、皮膚科、美容皮膚科、小児皮膚科","","","香川県","372013"
"jp.takamatsu.smartcity.medical.Hospital.141","34.301775","134.056617","香川県高松市多肥下町１５５６番地１５","無床診療所","高松市","医療法人かど小児科クリニック","理事長　角　勇二","医療法人かど小児科クリニック","2010/9/1","087-868-1200","小児科","","","香川県","372013"
"jp.takamatsu.smartcity.medical.Hospital.142","34.309109","134.056716","香川県高松市伏石町２８３０番地３","無床診療所","高松市","医療法人社団仁優会武岡皮膚科クリニック高松院","理事長　武岡　伸太郎","医療法人社団仁優会","2024/11/8","087-802-8660","形成外科、美容外科、皮膚科、美容皮膚科、小児皮膚科","","","香川県","372013"
"jp.takamatsu.smartcity.medical.Hospital.143","34.284409","134.097651","香川県高松市小村町２５６番地２","無床診療所","高松市","医療法人社団つばさ楓の森整形外科","理事長　森　健","医療法人社団つばさ","2012/9/1","087-887-9888","整形外科、リハビリ科","","","香川県","372013"
"jp.takamatsu.smartcity.medical.Hospital.144","34.346373","134.094066","香川県高松市屋島西町１３４７番地１０","無床診療所","高松市","医療法人社団一耀会かがわ整形外科クリニック","理事長　香川　好男","医療法人社団一耀会かがわ整形外科クリニック","2014/4/1","087-887-9876","整形外科、リハビリ科","","","香川県","372013"
"jp.takamatsu.smartcity.medical.Hospital.145","34.337938","134.04662","香川県高松市天神前１０番２８号","無床診療所","高松市","加藤眼科医院","理事長　岸本　直子","医療法人社団正眼会","2014/10/1","087-831-3893","眼科","","","香川県","372013"
"jp.takamatsu.smartcity.medical.Hospital.146","34.342665","134.038787","香川県高松市番町三丁目１９番１５号","無床診療所","高松市","医療法人社団啓里会かわさきレディースクリニック","理事長　川崎　香里","医療法人社団啓里会","2017/3/27","087-802-5525","産婦人科","","","香川県","372013"
"jp.takamatsu.smartcity.medical.Hospital.147","34.330966","134.058553","香川県高松市楠上町一丁目５番３１号","無床診療所","高松市","医療法人社団かとう整形外科","理事長　加藤　善之","医療法人社団かとう整形外科","2018/4/1","087-833-5545","リウマチ科、整形外科、リハビリ科","","","香川県","372013"
"jp.takamatsu.smartcity.medical.Hospital.148","34.34016","134.04625","香川県高松市天神前１番２２号","無床診療所","高松市","加藤医院","","加藤　秀樹","2019/7/11","087-862-6614","耳鼻咽喉科、気管食道外科","","","香川県","372013"
"jp.takamatsu.smartcity.medical.Hospital.149","34.342404","134.047568","香川県高松市番町一丁目７番１１号","無床診療所","高松市","河西医院","","河西　敏晴","2020/2/1","087-851-2666","リウマチ科、整形外科、リハビリ科","","","香川県","372013"
"jp.takamatsu.smartcity.medical.Hospital.150","34.338564","134.139462","香川県高松市牟礼町牟礼２２番地１","無床診療所","高松市","加地医院","理事長　加地　英輔","医療法人社団加地医院","2021/10/1","087-845-9713","内科、消化器内科","","","香川県","372013"
"jp.takamatsu.smartcity.medical.Hospital.151","34.29525","134.113659","香川県高松市前田東町８００番地１","無床診療所","高松市","木村医院","理事長　木村　公一","医療法人社団慈風会","2025/4/1","087-847-6002","内科、循環器科、小児科","","","香川県","372013"
"jp.takamatsu.smartcity.medical.Hospital.152","34.306848","134.090881","香川県高松市東山崎町１６５番地８","無床診療所","高松市","協和医院","","三好　賢一","1997/8/1","087-847-6073","内科、外科","","","香川県","372013"
"jp.takamatsu.smartcity.medical.Hospital.153","34.297317","134.040245","香川県高松市太田上町４２０番地１","無床診療所","高松市","キッズメディカルまなべ","","真鍋　正博","2007/6/1","087-869-4155","小児科","","","香川県","372013"
"jp.takamatsu.smartcity.medical.Hospital.154","34.346379","134.047092","香川県高松市兵庫町８番地２　アルファステイツ兵庫町１０２","無床診療所","高松市","北島眼科","","北島　仁","2007/10/4","087-816-6614","眼科","","","香川県","372013"
"jp.takamatsu.smartcity.medical.Hospital.155","34.312186","134.073211","香川県高松市木太町５５１番地１","無床診療所","高松市","医療法人社団重陽会高松中央インタークリニック","理事長　小林　伸也","医療法人社団重陽会高松中央インタークリニック","2012/5/1","087-869-2200","内科、消化器内科、内視鏡内科","","","香川県","372013"
"jp.takamatsu.smartcity.medical.Hospital.156","34.352462","134.046611","香川県高松市サンポート２番１号　サンポートビジネススクエア９Ｆ","無床診療所","高松市","医療法人社団美人会共立美容外科高松院","理事長　久次米　秋人","医療法人社団美人会","2015/1/1","087-823-7710","形成外科、美容外科","","","香川県","372013"
"jp.takamatsu.smartcity.medical.Hospital.157","34.32924","134.149796","香川県高松市牟礼町原１１９２番地２","無床診療所","高松市","きむら内科呼吸器内科クリニック","理事長　木村　公一","医療法人社団きむら内科呼吸器内科クリニック","2023/10/1","087-802-1580","内科、呼吸器内科","","","香川県","372013"
"jp.takamatsu.smartcity.medical.Hospital.158","34.269917","134.035192","香川県高松市香川町浅野１３７番地１","無床診療所","高松市","医療法人社団三心会くにしげ内科小児科医院","理事長　国重 英治","医療法人社団三心会","2000/3/1","087-889-6600","内科、呼吸器科、消化器科、小児科","","","香川県","372013"
"jp.takamatsu.smartcity.medical.Hospital.159","34.319807","134.073329","香川県高松市木太町１３３５番地４","無床診療所","高松市","医療法人社団くろべクリニック","理事長　黒部　亜古","医療法人社団くろべクリニック","2009/6/1","087-867-2267","産婦人科","","","香川県","372013"
"jp.takamatsu.smartcity.medical.Hospital.160","34.339117","134.052478","香川県高松市常磐町一丁目３番地１　コトデン瓦町ビル９階","無床診療所","高松市","医療法人ＪＵＮＯ ＣＬＩＮＩＱＵＥ Ｊ 形成外科","理事長　逢坂　順子","医療法人ＪＵＮＯ","2009/5/1","087-831-1403","形成外科、美容外科、美容皮膚科","","","香川県","372013"
"jp.takamatsu.smartcity.medical.Hospital.161","34.323061","134.073043","香川県高松市木太町１６０８番地５","無床診療所","高松市","楠の森眼科医院","理事長　山内　一司","医療法人社団一心会","2015/10/1","087-802-1211","眼科","","","香川県","372013"
"jp.takamatsu.smartcity.medical.Hospital.162","34.298068","134.059837","香川県高松市多肥下町５２７番地１","無床診療所","高松市","Clinicaみやむら","","宮村　卓","2016/4/1","087-868-3860","形成外科、美容皮膚科","","","香川県","372013"
"jp.takamatsu.smartcity.medical.Hospital.163","34.297886","133.955672","香川県高松市国分寺町国分字野間１３７番地１","無床診療所","高松市","医療法人社団くろだ耳鼻咽喉科医院","理事長　黒田　若奈","医療法人社団くろだ耳鼻咽喉科医院","2022/4/1","087-874-4133","アレルギー科、耳鼻咽喉科","","","香川県","372013"
"jp.takamatsu.smartcity.medical.Hospital.164","34.323378","134.058502","香川県高松市今里町４番地６","無床診療所","高松市","こんスキンケアクリニック","","権　成基","1998/6/24","087-869-7800","形成外科、皮膚科","","","香川県","372013"
"jp.takamatsu.smartcity.medical.Hospital.165","34.351363","134.089682","香川県高松市屋島西町２４８５番地６","無床診療所","高松市","医療法人社団小林内科小児科医院","理事長　小林　美子","医療法人社団小林内科小児科医院","2002/11/1","087-843-3315","内科、呼吸器科、胃腸科、アレルギー科、小児科","","","香川県","372013"
"jp.takamatsu.smartcity.medical.Hospital.166","34.213775","134.032017","香川県高松市香川町安原下第３号１６２番地","無床診療所","高松市","小谷医院","","堀川　知","1995/10/22","087-879-7005","内科、消化器科、外科","","","香川県","372013"
"jp.takamatsu.smartcity.medical.Hospital.167","34.293344","133.961953","香川県高松市国分寺町福家字下福家甲３８１２番地１　イオンタウン国分寺メディカルモール","無床診療所","高松市","こくぶ脳外科・内科クリニック","理事長　政田　哲也","医療法人社団こくぶりた","2011/3/3","087-875-2255","内科、脳神経外科","","","香川県","372013"
"jp.takamatsu.smartcity.medical.Hospital.168","34.329596","134.056597","香川県高松市楠上町二丁目３番１５号　アルファメディカルモール２Ｆ","無床診療所","高松市","医療法人社団裕和会こじまクリニック","理事長　小島　章裕","医療法人社団裕和会","2012/9/1","087-813-1122","内科、循環器内科","","","香川県","372013"
"jp.takamatsu.smartcity.medical.Hospital.169","34.282428","134.042408","香川県高松市仏生山町甲８１６番地５","無床診療所","高松市","仏生山駅前こだまクリニック","","児玉　浩昭","2015/10/26","087-814-4262","内科、リウマチ科、整形外科、形成外科、リハビリ科、放射線科","","","香川県","372013"
"jp.takamatsu.smartcity.medical.Hospital.170","34.348836","134.049127","香川県高松市寿町一丁目４番３号","無床診療所","高松市","五色台クリニック","理事長　佐藤　仁","医療法人社団五色会","2018/12/1","087-822-2311","心療内科、精神科、児童精神科","","","香川県","372013"
"jp.takamatsu.smartcity.medical.Hospital.171","34.305806","133.999901","香川県高松市檀紙町１５３１番地１","無床診療所","高松市","医療法人社団博永会香西内科医院","理事長　香西　勝人","医療法人社団博永会","2019/1/1","087-886-5510","内科","","","香川県","372013"
"jp.takamatsu.smartcity.medical.Hospital.172","34.34168","134.03179","香川県高松市昭和町二丁目１６番７号","無床診療所","高松市","心のケアクリニック","","榎本　百合子","2021/5/10","087-861-7100","心療内科、精神科","","","香川県","372013"
"jp.takamatsu.smartcity.medical.Hospital.173","34.284385","134.050839","香川県高松市出作町２０５番地１","無床診療所","高松市","こうの呼吸器クリニック","","河野　洋二","2022/10/26","087-889-0111","内科、呼吸器内科、アレルギー科","","","香川県","372013"
"jp.takamatsu.smartcity.medical.Hospital.174","34.302582","134.096665","香川県高松市東山崎町５４３番地５","無床診療所","高松市","河野内科医院","","河野　裕子","2023/10/1","087-847-8150","内科、美容皮膚科","","","香川県","372013"
"jp.takamatsu.smartcity.medical.Hospital.175","34.343024","134.068795","香川県高松市福岡町四丁目２番１号","無床診療所","高松市","佐々木内科クリニック","","佐々木　一乗","1998/7/9","087-821-1236","内科、呼吸器科、循環器科","","","香川県","372013"
"jp.takamatsu.smartcity.medical.Hospital.176","34.293775","134.081538","香川県高松市六条町４８１番地１","無床診療所","高松市","さわ医院","","佐和　尚信","1999/12/1","087-868-5001","消化器内科、外科、整形外科、こう門科","","","香川県","372013"
"jp.takamatsu.smartcity.medical.Hospital.177","34.32837","134.04655","香川県高松市栗林町一丁目１３番８号","無床診療所","高松市","佐藤皮膚科泌尿器科性病科医院","","佐藤　稔","2002/3/25","087-862-1971","皮膚科、泌尿器科、性病科","","","香川県","372013"
"jp.takamatsu.smartcity.medical.Hospital.178","34.297317","134.040245","香川県高松市太田上町４２０番地１","無床診療所","高松市","坂口眼科医院","","坂口　恭久","2008/5/1","087-816-5151","眼科","","","香川県","372013"
"jp.takamatsu.smartcity.medical.Hospital.179","34.326284","134.09866","香川県高松市新田町甲２６０７番地４","無床診療所","高松市","医療法人社団誠心会さとう内科クリニック","理事長　佐藤　誠","医療法人社団誠心会","2010/6/1","087-816-3101","内科、糖尿病・代謝内科、内分泌内科","","","香川県","372013"
"jp.takamatsu.smartcity.medical.Hospital.180","34.320792","134.060326","香川県高松市松縄町１００５番地３","無床診療所","高松市","さんあいクリニック","","医療法人社団さんあいクリニック","2011/12/1","087-816-3192","心療内科、精神科、耳鼻咽喉科","","","香川県","372013"
"jp.takamatsu.smartcity.medical.Hospital.181","34.25578","134.034373","香川県高松市香川町浅野１０３０番地１","無床診療所","高松市","内科・消化器内科佐々木クリニック","理事長　佐々木　陽介","医療法人社団陽洸会","2012/5/20","087-840-5339","内科、消化器内科","","","香川県","372013"
"jp.takamatsu.smartcity.medical.Hospital.182","34.301625","134.06174","香川県高松市多肥下町１５４７番地８","無床診療所","高松市","ササキメディカルクリニック","","佐々木　寛","2013/12/3","087-814-3339","内科、外科、乳腺外科、リハビリ科","","","香川県","372013"
"jp.takamatsu.smartcity.medical.Hospital.183","34.338981","134.048333","香川県高松市亀井町１０番地１０−１Ｆ","無床診療所","高松市","榊原クリニック","","榊原　正知","2014/11/1","087-835-0977","内科、麻酔科","","","香川県","372013"
"jp.takamatsu.smartcity.medical.Hospital.184","34.33681","134.051805","香川県高松市観光通一丁目３番地４　レアーレ瓦町１階１０２号","無床診療所","高松市","さんごの海整形外科","理事長　清水　誠英","医療法人社団さんごの海","2016/9/1","087-831-3535","リウマチ科、整形外科、リハビリ科","","","香川県","372013"
"jp.takamatsu.smartcity.medical.Hospital.185","34.282122","134.046203","香川県高松市仏生山町甲４７１番地５","無床診療所","高松市","さくらの馬場クリニック","理事長　山本　修平","医療法人社団讃志会","2016/11/1","087-889-3555","内科、循環器内科、人工透析内科、腎臓内科、リウマチ科、透析実施","","","香川県","372013"
"jp.takamatsu.smartcity.medical.Hospital.186","34.352408","134.046631","香川県高松市サンポート２番１号　マリタイムプラザ２階","無床診療所","高松市","サンポート高松クリニック","","井垣　俊郎","2019/6/1","087-802-3100","内科、糖尿病内科","","","香川県","372013"
"jp.takamatsu.smartcity.medical.Hospital.187","34.29636","134.05782","香川県高松市多肥上町１２９７番地１","無床診療所","高松市","在宅診療敬二郎クリニック","理事長　西信　俊宏","医療法人社団慈風会","2020/5/18","087-864-3109","内科、外科、形成外科","","","香川県","372013"
"jp.takamatsu.smartcity.medical.Hospital.188","34.32377","134.04662","高松市花ノ宮町三丁目１４０３番地１０","無床診療所","高松市","医療法人社団さくら在宅クリニック","理事長　中野　淳","医療法人社団さくら在宅クリニック","2025/6/1","087-814-5008","内科、緩和ケア内科、外科","","","香川県","372013"
"jp.takamatsu.smartcity.medical.Hospital.189","34.340616","134.045012","香川県高松市天神前５番６号　高松メディカルモール２階","無床診療所","高松市","さんぜんクリニック","","小林　三善","2023/5/16","087-812-3006","内科、消化器内科、内視鏡内科","","","香川県","372013"
"jp.takamatsu.smartcity.medical.Hospital.190","34.336928","134.048041","香川県高松市中新町１１番地８","無床診療所","高松市","医療法人晴明会鷺岡クリニック（休止中）","市川　正浩","医療法人晴明会","2024/1/29","087-833-2631","内科、精神科、神経内科","","","香川県","372013"
"jp.takamatsu.smartcity.medical.Hospital.191","34.318099","134.046037","香川県高松市三条町５０４番地１","無床診療所","高松市","医療法人社団耕彩会三条山下内科医院","理事長　山下　和彦","医療法人社団耕彩会","1995/6/1","087-867-1201","内科、神経内科、循環器科","","","香川県","372013"
"jp.takamatsu.smartcity.medical.Hospital.192","34.330761","134.054991","香川県高松市楠上町一丁目９番３６号","無床診療所","高松市","塩見内科医院","","塩見　哲夫","1963/4/1","087-862-0403","内科","","","香川県","372013"
"jp.takamatsu.smartcity.medical.Hospital.193","34.283926","134.03455","香川県高松市一宮町９７番地７","無床診療所","高松市","医療法人社団しらかわ小児科医院","理事長　白川　佳代子","医療法人社団しらかわ小児科医院","1993/2/1","087-889-2107","小児科","","","香川県","372013"
"jp.takamatsu.smartcity.medical.Hospital.194","34.29587","133.960631","香川県高松市国分寺町新名４４０番地２３","無床診療所","高松市","白井内科医院","","白井　忠雄","1987/6/10","087-874-3711","内科、消化器科、循環器内科、小児科","","","香川県","372013"
"jp.takamatsu.smartcity.medical.Hospital.195","34.244025","134.000518","香川県高松市香南町池内５１７番地１５","無床診療所","高松市","医療法人社団しげなり内科医院","理事長　重成　憲裕","医療法人社団しげなり内科医院","1999/1/1","087-879-0366","内科、心療内科、精神科、神経科、神経内科、胃腸科","","","香川県","372013"
"jp.takamatsu.smartcity.medical.Hospital.196","34.327249","134.067015","香川県高松市上福岡町９２２番地１","無床診療所","高松市","しんまるクリニック","","新丸　昭子","2013/2/1","087-887-7612","内科","","","香川県","372013"
"jp.takamatsu.smartcity.medical.Hospital.197","34.344713","134.049992","香川県高松市丸亀町３番地１３　高松丸亀町参番街西館２階","無床診療所","高松市","湘南美容クリニック高松院","理事長　竹田　啓介","医療法人社団菜寿会","2017/7/18","050-5865-5801","美容外科、美容皮膚科","","","香川県","372013"
"jp.takamatsu.smartcity.medical.Hospital.198","34.321526","134.065331","香川県高松市松縄町３７番地７","無床診療所","高松市","医療法人社団白神眼科医院","理事長　村田　晶子","医療法人社団白神眼科医院","2017/9/1","087-866-3730","眼科","","","香川県","372013"
"jp.takamatsu.smartcity.medical.Hospital.199","34.343693","134.126662","香川県高松市牟礼町牟礼２０９４番地１","無床診療所","高松市","医療法人社団しぶやこどもクリニック","理事長　澁谷　幸彦","医療法人社団しぶやこどもクリニック","2018/4/13","087-845-6111","小児科","","","香川県","372013"
"jp.takamatsu.smartcity.medical.Hospital.200","34.310612","134.065068","香川県高松市木太町５０８０番地１２","無床診療所","高松市","しみずこどもクリニック","理事長　清水　真樹","医療法人しみずこどもクリニック","2022/11/1","087-802-3607","小児科","","","香川県","372013"
"jp.takamatsu.smartcity.medical.Hospital.201","34.345443","134.068956","香川県高松市福岡町三丁目１１番２７号","無床診療所","高松市","医療法人社団鈴木レディースクリニック","理事長　鈴木　恵子","医療法人社団鈴木レディースクリニック","2000/10/1","087-826-2288","産婦人科","","","香川県","372013"
"jp.takamatsu.smartcity.medical.Hospital.202","34.346259","134.090036","香川県高松市春日町１６５０−１","無床診療所","高松市","スカイメディカルクリニック","","關　杏奈","2024/4/1","087-813-7577","内科、消化器内科、内視鏡内科","","","香川県","372013"
"jp.takamatsu.smartcity.medical.Hospital.203","34.344663","134.038632","香川県高松市扇町二丁目２番１２号","無床診療所","高松市","医療法人社団瀬上皮フ科医院","理事長　瀬上　三實","医療法人社団瀬上皮フ科医院","2003/9/1","087-822-4790","皮膚科","","","香川県","372013"
"jp.takamatsu.smartcity.medical.Hospital.204","34.306634","134.009739","香川県高松市勅使町６２番地４","無床診療所","高松市","全人クリニック","","西山　尚志","2008/1/1","087-867-1717","内科、心療内科、精神科","","","香川県","372013"
"jp.takamatsu.smartcity.medical.Hospital.205","34.341804","134.066865","香川県高松市松福町二丁目１０番５号","無床診療所","高松市","医療法人社団せとうちクリニック","理事長　金藤　悟","医療法人社団せとうちクリニック","2011/4/1","087-811-5577","呼吸器内科、、胃腸内科、外科、リハビリ科","","","香川県","372013"
"jp.takamatsu.smartcity.medical.Hospital.206","34.298609","133.962914","香川県高松市国分寺町新居１３６２番地","無床診療所","高松市","誠心メンタルクリニック","","髙松　和夫","2023/7/20","087-813-7020","心療内科、精神科","","","香川県","372013"
"jp.takamatsu.smartcity.medical.Hospital.207","34.289885","134.027967","香川県高松市一宮町１１２５番地","無床診療所","高松市","医療法人社団高杉会そがべ整形外科","理事長　曽我部　輝久","医療法人社団高杉会","1993/2/1","087-886-2323","内科、外科、整形外科、リハビリ科、麻酔科","","","香川県","372013"
"jp.takamatsu.smartcity.medical.Hospital.208","34.279438","134.086507","香川県高松市川島本町２９８番地","無床診療所","高松市","医療法人社団そごうクリニック","理事長　十川　省三","医療法人社団そごうクリニック","2000/10/1","087-848-1155","消化器科、外科、整形外科、皮膚泌尿器科、リハビリ科","","","香川県","372013"
"jp.takamatsu.smartcity.medical.Hospital.209","34.317308","134.041556","香川県高松市三条町６０８番地１　ゆめタウン高松１階","無床診療所","高松市","高松つつじ眼科","理事長　髙橋　敦","医療法人社団瞳友会","2024/4/1","087-802-3527","眼科","","","香川県","372013"
"jp.takamatsu.smartcity.medical.Hospital.210","34.391199","134.052048","香川県高松市女木町１１２番地","無床診療所","高松市","高松市国民健康保険女木診療所","高松市長","高松市","1956/9/30","087-873-0103","内科、外科","","","香川県","372013"
"jp.takamatsu.smartcity.medical.Hospital.211","34.345779","134.035708","香川県高松市扇町一丁目２５番２５号","無床診療所","高松市","田渕医院","","田渕　保己","1991/11/1","087-821-3091","内科、外科、婦人科","","","香川県","372013"
"jp.takamatsu.smartcity.medical.Hospital.212","34.300654","134.076159","香川県高松市林町１２８１番地","無床診療所","高松市","医療法人社団育林会谷本医院","理事長　谷本　雅人","医療法人社団育林会","1992/5/1","087-867-1861","内科、小児科","","","香川県","372013"
"jp.takamatsu.smartcity.medical.Hospital.213","34.310511","134.046893","香川県高松市太田下町２３５５番地５","無床診療所","高松市","医療法人社団武田耳鼻咽喉科医院","理事長　武田　伸郎","医療法人社団武田耳鼻咽喉科医院","1993/6/1","087-865-2311","耳鼻咽喉科、気管食道内科","","","香川県","372013"
"jp.takamatsu.smartcity.medical.Hospital.214","34.30651","133.990193","香川県高松市御厩町４７６番地","無床診療所","高松市","医療法人社団博翔会高田整形外科医院","理事長　高田　博","医療法人社団博翔会","1993/11/1","087-886-8866","リウマチ科、整形外科、リハビリ科","","","香川県","372013"
"jp.takamatsu.smartcity.medical.Hospital.215","34.305268","133.997962","香川県高松市檀紙町１５９３番地１","無床診療所","高松市","医療法人社団高松脳神経外科・外科医院","理事長　竹内　伸二","医療法人社団高松脳神経外科・外科医院","1994/8/1","087-886-5588","外科、整形外科、脳神経外科、リハビリ科、放射線科","","","香川県","372013"
"jp.takamatsu.smartcity.medical.Hospital.216","34.303473","134.071877","香川県高松市林町１５８３番地１","無床診療所","高松市","医療法人社団瀧川整形外科医院","理事長　三木　信孝","医療法人社団瀧川整形外科医院","1995/4/1","087-867-2288","リウマチ科、整形外科、リハビリ科","","","香川県","372013"
"jp.takamatsu.smartcity.medical.Hospital.217","34.339515","134.06156","香川県高松市松島町一丁目１４番２３号","無床診療所","高松市","田坂耳鼻咽喉科医院","","田坂　周治","1996/9/4","087-861-8204","アレルギー科、耳鼻咽喉科、気管食道科","","","香川県","372013"
"jp.takamatsu.smartcity.medical.Hospital.218","34.285844","134.00036","香川県高松市中間町２３番地１","無床診療所","高松市","医療法人社団萌光会高塚クリニック整形外科耳鼻咽喉科","理事長　高塚　ま由","医療法人社団萌光会","1998/1/1","087-885-4880","リウマチ科、整形外科、耳鼻咽喉科、リハビリ科","","","香川県","372013"
"jp.takamatsu.smartcity.medical.Hospital.219","34.310063","134.049252","香川県高松市太田下町２４６２番地３","無床診療所","高松市","医療法人社団竹広小児科医院","理事長　竹広　晃","医療法人社団竹広小児科医院","1998/8/1","087-866-2461","小児科","","","香川県","372013"
"jp.takamatsu.smartcity.medical.Hospital.220","34.285143","134.00349","香川県高松市円座町１２９番地４","無床診療所","高松市","医療法人社団谷崎眼科医院","理事長　谷崎　勍","医療法人社団谷崎眼科医院","1999/3/1","087-885-5558","眼科","","","香川県","372013"
"jp.takamatsu.smartcity.medical.Hospital.221","34.32671","134.067686","香川県高松市木太町１８１３番地１","無床診療所","高松市","医療法人社団高畠小児科・アレルギー科医院","理事長　高畠　美人","医療法人社団高畠小児科・アレルギー科医院","2000/3/1","087-862-2032","アレルギー科、小児科","","","香川県","372013"
"jp.takamatsu.smartcity.medical.Hospital.222","34.297041","133.95818","香川県高松市国分寺町新居１３１０番地１","無床診療所","高松市","タカオ整形外科医院","","鷹尾　正和","2000/10/3","087-870-6700","整形外科、リハビリ科、麻酔科","","","香川県","372013"
"jp.takamatsu.smartcity.medical.Hospital.223","34.328134","134.159323","香川県高松市牟礼町原４３０番地","無床診療所","高松市","医療法人社団高本内科医院","理事長　高本　雅弘","医療法人社団高本内科医院","2001/11/1","087-845-8000","内科、胃腸科、循環器科","","","香川県","372013"
"jp.takamatsu.smartcity.medical.Hospital.224","34.384345","134.128185","香川県高松市庵治町６３８５番地１０４","無床診療所","高松市","田村内科クリニック","","田村　隆一","2002/12/16","087-871-1181","内科、消化器科、循環器科、糖尿病内科","","","香川県","372013"
"jp.takamatsu.smartcity.medical.Hospital.225","34.333795","134.049192","香川県高松市藤塚町一丁目８番１７号","無床診療所","高松市","医療法人社団内科高橋クリニック","理事長　高橋　道也","医療法人社団内科高橋クリニック","2006/6/1","087-831-7073","内科、消化器科、循環器科","","","香川県","372013"
"jp.takamatsu.smartcity.medical.Hospital.226","34.292981","134.057568","香川県高松市多肥上町１４６１番地","無床診療所","高松市","医療法人社団ポラリスたむら内科","理事長　髙津　瑶子","医療法人社団ポラリス","2011/5/1","087-888-3311","内科、循環器内科、糖尿病内科、腎臓内科","","","香川県","372013"
"jp.takamatsu.smartcity.medical.Hospital.227","34.321814","134.069137","香川県高松市木太町１１７４番地１","無床診療所","高松市","愛和会たかまつクリニック","理事長　立川　豊吏","医療法人財団愛和会","2013/5/15","087-813-5876","内科、心療内科、精神科","","","香川県","372013"
"jp.takamatsu.smartcity.medical.Hospital.228","34.344687","134.016858","香川県高松市郷東町１３４番地１　西高松メディカルビルイーア１階","無床診療所","高松市","竹田耳鼻咽喉科クリニック","理事長　竹田　雅聖","医療法人社団すずらん","2013/9/1","087-873-2033","アレルギー科、耳鼻咽喉科","","","香川県","372013"
"jp.takamatsu.smartcity.medical.Hospital.229","34.322432","134.090868","香川県高松市春日町４３８番地１","無床診療所","高松市","医療法人社団佳友会タウンクリニック高松東","理事長　友廣　敦文","医療法人社団佳友会","2012/9/1","087-818-0007","内科、消化器内科、循環器内科","","","香川県","372013"
"jp.takamatsu.smartcity.medical.Hospital.230","34.34488","134.046791","香川県高松市紺屋町４番地１０　鹿島紺屋町ビル１Ｆ","無床診療所","高松市","医療法人高松神経内科クリニック","理事長　山本　光利","医療法人高松神経内科クリニック","2013/10/1","087-873-2228","精神科、神経内科","","","香川県","372013"
"jp.takamatsu.smartcity.medical.Hospital.231","34.339291","134.059618","香川県高松市松島町一丁目１６番２０号","無床診療所","高松市","高松市夜間急病診療所","高松市長","高松市","2014/9/1","087-839-2299","内科、小児科","","","香川県","372013"
"jp.takamatsu.smartcity.medical.Hospital.232","34.338701","134.049205","香川県高松市香西本町１番地１　イオンモール高松１階","無床診療所","高松市","高松ひまわり眼科","理事長　松尾　眞二郎","医療法人しんあい会","2015/7/1","087-802-1703","眼科","","","香川県","372013"
"jp.takamatsu.smartcity.medical.Hospital.233","34.343613","134.040557","香川県高松市番町二丁目１０番６号","無床診療所","高松市","高松にれクリニック","理事長　秋山　賢次","医療法人讃楡会","2015/11/1","087-851-1117","内科、人工透析内科、糖尿病内科、腎臓内科、泌尿器科","","","香川県","372013"
"jp.takamatsu.smartcity.medical.Hospital.234","34.348764","134.064758","香川県高松市朝日町二丁目４８３番３２２号","無床診療所","高松市","高松画像診断クリニック","理事長　松本  義人","医療法人社団西高松脳外科・内科クリニック","2016/2/1","087-811-5588","内科、脳神経外科、整形外科、リハビリ科、放射線科、麻酔科","","","香川県","372013"
"jp.takamatsu.smartcity.medical.Hospital.235","34.339842","134.067058","香川県高松市福岡町四丁目２８番３０号","無床診療所","高松市","高松内視鏡診断クリニック","理事長　松本　義人","医療法人社団西高松脳外科・内科クリニック","2016/9/1","087-821-8877","内科、消化器内科、循環器内科、脳神経外科、放射線科","","","香川県","372013"
"jp.takamatsu.smartcity.medical.Hospital.236","34.344898","134.046407","香川県高松市紺屋町５番地３","無床診療所","高松市","高松紺屋町クリニック","理事長　佐用　義孝","医療法人ウェルネスサポート","2016/11/1","087-813-1018","内科、糖尿病内科、皮膚科、呼吸器内科","","","香川県","372013"
"jp.takamatsu.smartcity.medical.Hospital.237","34.34009","134.111119","香川県高松市高松町３００６番地２１","無床診療所","高松市","たつや耳鼻咽喉科","理事長　石田　京子","医療法人社団千和会","2017/1/1","087-843-8733","耳鼻咽喉科","","","香川県","372013"
"jp.takamatsu.smartcity.medical.Hospital.238","34.348842","134.04911","香川県高松市寿町一丁目４番３号　高松中央通りビル４階","無床診療所","高松市","医療法人社団清仁会玉藻クリニック","理事長　猪尾　昌之","医療法人社団清仁会","2018/12/1","087-811-7021","内科、リウマチ科","","","香川県","372013"
"jp.takamatsu.smartcity.medical.Hospital.239","34.2865","134.03531","香川県高松市三名町６５番地","無床診療所","高松市","高松南整形外科スポーツクリニック","","中溝　寛之","2019/11/1","087-889-4970","整形外科、リハビリ科","","","香川県","372013"
"jp.takamatsu.smartcity.medical.Hospital.240","34.345826","134.050269","香川県高松市丸亀町１番地１　丸亀町壱番街西館２階","無床診療所","高松市","医療法人社団RENATUS　PRAS　TANAKAクリニック形成外科・美容外科","理事長　田中　嘉雄","医療法人社団ＲＥＮＡＴＵＳ　ＰＲＡＳ","2020/11/22","087-823-1500","形成外科、美容外科","","","香川県","372013"
"jp.takamatsu.smartcity.medical.Hospital.242","34.422115","134.054774","香川県高松市男木町１９８８番地","無床診療所","高松市","高松市国民健康保険男木診療所","高松市長","高松市","2022/2/12","087-873-0003","内科、外科","","","香川県","372013"
"jp.takamatsu.smartcity.medical.Hospital.243","34.309851","134.049717","香川県高松市太田下町２４５７番地１","無床診療所","高松市","高松e眼科","","山地　英孝","2022/4/1","087-868-8855","眼科","","","香川県","372013"
"jp.takamatsu.smartcity.medical.Hospital.244","34.303303","134.081731","香川県高松市六条町１２２１番地１","無床診療所","高松市","たけうち日帰り外科","","竹内　聖","2023/1/11","087-813-7781","内科、外科、消化器外科、肛門外科、麻酔科","","","香川県","372013"
"jp.takamatsu.smartcity.medical.Hospital.245","34.338755","134.052556","香川県高松市常磐町一丁目３番地１　瓦町ＦＬＡＧ５階","無床診療所","高松市","医療法人社団イースト会高松イースト駅前クリニック","理事長　薄井　庸孝","医療法人社団イースト会","2023/4/12","087-863-1811","皮膚科、泌尿器科","","","香川県","372013"
"jp.takamatsu.smartcity.medical.Hospital.246","34.33935","134.05102","香川県高松市瓦町二丁目１２番地８　ＬＥＥＺＥＮビル５Ｆ","無床診療所","高松市","医療法人社団京仁会　ＡＢＣクリニック美容外科　高松院","理事長　小原　祟","医療法人社団京仁会","2023/10/1","0120-771-373","美容外科、泌尿器科","","","香川県","372013"
"jp.takamatsu.smartcity.medical.Hospital.247","34.316101","134.029726","香川県高松市田村町３３２番地４","無床診療所","高松市","田井メディカルクリニック","理事長　脇　正志","医療法人社団わき外科クリニック","2024/4/11","087-866-7311","呼吸器内科、胃腸内科、外科、皮膚科","","","香川県","372013"
"jp.takamatsu.smartcity.medical.Hospital.248","34.308037","134.065053","香川県高松市林町２５２８番地１","無床診療所","高松市","医療法人社団立心会中央高松ハートクリニック","理事長　雪入　一志","医療法人社団立心会","2024/4/1","087-802-5595","内科、循環器科","","","香川県","372013"
"jp.takamatsu.smartcity.medical.Hospital.249","34.265612","134.009854","香川県高松市川部町１４４３番地１","無床診療所","高松市","ツゲ医院","","柘植　司郎","1984/6/1","087-885-1432","内科、外科","","","香川県","372013"
"jp.takamatsu.smartcity.medical.Hospital.250","34.349649","134.026015","香川県高松市茜町１６番１２号","無床診療所","高松市","医療法人社団翼医院","理事長　小川　翼　","医療法人社団翼医院","1992/9/1","087-837-5800","内科、胃腸科、循環器科、肝臓内科","","","香川県","372013"
"jp.takamatsu.smartcity.medical.Hospital.251","34.302121","134.072932","香川県高松市林町１５０１番地１","無床診療所","高松市","医療法人社団仁和会辻クリニック","理事長　村上　景子（溝渕　景子）","医療法人社団仁和会","2010/10/1","087-867-2662","内科、循環器内科、血管外科","","","香川県","372013"
"jp.takamatsu.smartcity.medical.Hospital.252","34.34355","134.0493","香川県高松市鍛冶屋町１番地６","無床診療所","高松市","筒井皮ふ科医院","","井上　雅子","2017/4/20","087-821-6250","皮膚科・内科","","","香川県","372013"
"jp.takamatsu.smartcity.medical.Hospital.253","34.27821","134.027125","香川県高松市寺井町１０５３番地１８","無床診療所","高松市","寺井山内医院","","山内　康彦","1989/8/1","087-886-7888","内科、消化器内科、循環器内科、糖尿病内科、アレルギー科、","","","香川県","372013"
"jp.takamatsu.smartcity.medical.Hospital.254","34.334058","134.083463","香川県高松市木太町２８０８番地１","無床診療所","高松市","医療法人社団眞貴会徳野医院","理事長　徳野　眞之","医療法人社団眞貴会","1999/1/1","087-831-3700","整形外科、リハビリ科、麻酔科","","","香川県","372013"
"jp.takamatsu.smartcity.medical.Hospital.255","34.308747","134.057389","香川県高松市伏石町２１３１番地２","無床診療所","高松市","医療法人社団水明会とびうめ内科医院","理事長　飛梅　耕一","医療法人社団水明会","2000/5/1","087-866-1130","内科、呼吸器科、胃腸科","","","香川県","372013"
"jp.takamatsu.smartcity.medical.Hospital.256","34.34388","134.043248","香川県高松市番町二丁目６番１３号","無床診療所","高松市","医療法人社団とみおか内科クリニック","理事長　富岡　幸生","医療法人社団とみおか内科クリニック","2000/10/1","087-825-9121","内科","","","香川県","372013"
"jp.takamatsu.smartcity.medical.Hospital.257","34.344254","134.049983","香川県高松市丸亀町４番地１　パイロットビル４Ｆ","無床診療所","高松市","東京ノーストクリニック","","山本　英樹","2016/5/7","087-823-1134","形成外科、泌尿器科","","","香川県","372013"
"jp.takamatsu.smartcity.medical.Hospital.258","34.318163","134.051042","香川県高松市伏石町１３５２番地２","無床診療所","高松市","トビウメ小児科医院","","飛梅　元","2024/4/1","087-865-3111","小児科","","","香川県","372013"
"jp.takamatsu.smartcity.medical.Hospital.259","34.345123","134.049438","香川県高松市磨屋町１０番地７　ココマチ高松アルファメディカルモール　１Ｆ","無床診療所","高松市","とぎやまち内科・消化器内科","","田中　育太","2024/5/27","087-802-2871","内科、消化器内科、内視鏡内科、肝臓内科","","","香川県","372013"
"jp.takamatsu.smartcity.medical.Hospital.260","34.284639","134.006692","香川県高松市円座町１５９３番地","無床診療所","高松市","那須医院","","那須　義功","1996/12/25","087-885-1406","内科、小児科","","","香川県","372013"
"jp.takamatsu.smartcity.medical.Hospital.261","34.343543","134.003917","香川県高松市香西本町２５６番地１","無床診療所","高松市","医療法人社団中空医院","理事長　中空　達樹","医療法人社団中空医院","2003/10/1","087-881-1230","内科、人工透析内科、消化器内科、循環器内科","","","香川県","372013"
"jp.takamatsu.smartcity.medical.Hospital.262","34.29735","133.961064","香川県高松市国分寺町新居１２８８番地６","無床診療所","高松市","中川皮膚科医院","","中川　俊文","2000/8/1","087-870-6660","皮膚科","","","香川県","372013"
"jp.takamatsu.smartcity.medical.Hospital.263","34.320741","134.046591","香川県高松市飯田町３４３番地１","無床診療所","高松市","長尾医院","","吉田　聖子","2023/1/1","087-881-2901","形成外科、美容外科、皮膚科、美容皮膚科","","","香川県","372013"
"jp.takamatsu.smartcity.medical.Hospital.264","34.320578","133.998061","香川県高松市上之町二丁目８番３５号","無床診療所","高松市","長尾医院","理事長　長尾　建彦","医療法人建心会","2014/4/1","087-813-7412","内科、外科","","","香川県","372013"
"jp.takamatsu.smartcity.medical.Hospital.265","34.316291","134.027168","香川県高松市松並町５５９番地３","無床診療所","高松市","医療法人社団良済会西春日小児科医院","理事長　神内　仁","医療法人社団良済会","1990/7/1","087-867-7070","小児精神科、小児科","","","香川県","372013"
"jp.takamatsu.smartcity.medical.Hospital.266","34.334839","134.07845","香川県高松市木太町２５４３番地１３","無床診療所","高松市","新田リウマチ整形外科医院","","新田　雅英","1999/1/1","087-833-8757","リウマチ科、整形外科、リハビリ科","","","香川県","372013"
"jp.takamatsu.smartcity.medical.Hospital.267","34.341719","134.052761","香川県高松市瓦町一丁目４番地５","無床診療所","高松市","西川クリニック","理事長　西川　正史","医療法人恵愛会（社団）","2005/11/1","087-851-1027","外科、整形外科、リハビリ科","","","香川県","372013"
"jp.takamatsu.smartcity.medical.Hospital.268","34.344687","134.016858","香川県高松市郷東町１３４番地１　西高松メディカルビルイーア２階","無床診療所","高松市","西高松脳外科・内科クリニック","理事長　松本  義人","医療法人社団西高松脳外科・内科クリニック","2009/5/1","087-832-8811","内科、整形外科、脳神経外科、リハビリテーション科、放射線科","","","香川県","372013"
"jp.takamatsu.smartcity.medical.Hospital.269","34.344848","134.047637","香川県高松市紺屋町３番地１２","無床診療所","高松市","西風循環器科医院","","本間　菜々","2020/5/5","087-851-0880","内科、循環器内科","","","香川県","372013"
"jp.takamatsu.smartcity.medical.Hospital.270","34.344687","134.016858","香川県高松市郷東町字東新開１４８番地３","無床診療所","高松市","西高松キッズクリニック","理事長　杉峯　貴文","医療法人社団西高松社中","2023/11/1","087-881-8899","小児科","","","香川県","372013"
"jp.takamatsu.smartcity.medical.Hospital.271","34.342657","134.030864","香川県高松市昭和町二丁目１４番１３号","無床診療所","高松市","ぬもと内科医院","","沼本　明美","1997/1/1","087-861-0465","内科、呼吸器科","","","香川県","372013"
"jp.takamatsu.smartcity.medical.Hospital.272","34.288513","134.110526","香川県高松市前田東町１２１３番地２","無床診療所","高松市","野口内科医院","","野口　章男","1988/10/1","087-847-6555","内科、消化器内科","","","香川県","372013"
"jp.takamatsu.smartcity.medical.Hospital.273","34.337341","134.081398","香川県高松市木太町２６３１番地１","無床診療所","高松市","のざき内科循環器科クリニック","","野崎　士郎","2006/8/28","087-831-5581","内科、循環器科","","","香川県","372013"
"jp.takamatsu.smartcity.medical.Hospital.274","34.239799","134.032259","香川県高松市香川町川東上字漆原１８０２番地７","無床診療所","高松市","のむら内科循環器消化器クリニック","理事長　野村　昌弘","医療法人社団のむら内科循環器消化器クリニック","2011/4/1","087-816-8088","内科、消化器内科、循環器内科","","","香川県","372013"
"jp.takamatsu.smartcity.medical.Hospital.275","34.336405","134.058947","香川県高松市多賀町二丁目９番２０号","無床診療所","高松市","医療法人社団野田医院","理事長　野田　信一路","医療法人社団野田医院","2018/5/7","087-831-4275","内科、循環器内科、小児科、皮膚科","","","香川県","372013"
"jp.takamatsu.smartcity.medical.Hospital.276","34.338711","134.051599","香川県高松市常磐町一丁目４番地８　丸新ビル６Ｆ","無床診療所","高松市","原胃腸科医院","","原　敬","1978/5/1","087-861-4433","内科、胃腸科","","","香川県","372013"
"jp.takamatsu.smartcity.medical.Hospital.277","34.349081","134.002359","香川県高松市香西本町８９番地","無床診療所","高松市","医療法人社団はた医院","理事長　幡　英一","医療法人社団はた医院","1993/10/1","087-881-2262","内科、消化器科、小児科、リハビリ科","","","香川県","372013"
"jp.takamatsu.smartcity.medical.Hospital.278","34.342216","134.099019","香川県高松市屋島西町１７３６番地","無床診療所","高松市","医療法人社団はせ川内科循環器科医院","理事長　長谷川　浩一","医療法人社団はせ川内科循環器科医院","2003/1/1","087-841-1555","内科、循環器科","","","香川県","372013"
"jp.takamatsu.smartcity.medical.Hospital.279","34.305532","133.967993","香川県高松市国分寺町新居４６９番地６","無床診療所","高松市","端岡厚生クリニック","","眞鍋　正茂","2001/12/17","087-874-0003","内科、外科、整形外科、リハビリテーション科、精神科、心療内科","","","香川県","372013"
"jp.takamatsu.smartcity.medical.Hospital.280","34.271791","134.108672","香川県高松市十川東町５５番地１","無床診療所","高松市","医療法人社団ハピネスこどもクリニック","理事長　齋藤　愼一","医療法人社団ハピネスこどもクリニック","2006/5/1","087-848-9178","小児科","","","香川県","372013"
"jp.takamatsu.smartcity.medical.Hospital.281","34.326683","134.049361","香川県高松市花ノ宮町一丁目５番３６号","無床診療所","高松市","花ノ宮クリニック","理事長　山本　修平","医療法人社団讃志会","2011/4/1","087-816-3555","内科、循環器内科、人工透析内科、腎臓内科、リウマチ科、透析実施","","","香川県","372013"
"jp.takamatsu.smartcity.medical.Hospital.282","34.336925","134.035998","香川県高松市宮脇町一丁目３１番５号","無床診療所","高松市","八幡前三好医院","","三好　正嗣","2013/11/11","087-834-4800","内科","","","香川県","372013"
"jp.takamatsu.smartcity.medical.Hospital.283","34.339459","134.038106","香川県高松市番町五丁目９番１０号","無床診療所","高松市","番丁クリニック","","西岡　孝","2014/4/11","087-862-1110","内科、リウマチ科、整形外科、リハビリ科","","","香川県","372013"
"jp.takamatsu.smartcity.medical.Hospital.284","34.333677","134.079342","香川県高松市木太町２５５９番地２","無床診療所","高松市","医療法人社団平井眼科医院","理事長　平井　健一","医療法人社団平井眼科医院","2005/9/1","087-861-2777","眼科","","","香川県","372013"
"jp.takamatsu.smartcity.medical.Hospital.285","34.279267","134.060411","香川県高松市三谷町１６９７番地１４","無床診療所","高松市","ひがさクリニック","","樋笠　靖","1997/4/1","087-888-5151","小児科、整形外科、リハビリ科","","","香川県","372013"
"jp.takamatsu.smartcity.medical.Hospital.286","34.340327","134.045005","香川県高松市天神前５番６号６Ｆ","無床診療所","高松市","ピュア形成外科医院","理事長　井上　普文","医療法人社団白鳳会","2005/9/1","087-832-5811","形成外科、美容外科、皮膚科","","","香川県","372013"
"jp.takamatsu.smartcity.medical.Hospital.287","34.340078","134.118176","香川県高松市高松町２３１０番地２","無床診療所","高松市","医療法人社団東高松クリニック","理事長　木村　正司","医療法人社団東高松クリニック","1993/10/1","087-841-0033","内科、呼吸器科内科、循環器内科、リハビリ科、消化器内科、整形外科、脳神経外科、放射線科","","","香川県","372013"
"jp.takamatsu.smartcity.medical.Hospital.288","34.282886","134.044459","香川県高松市仏生山町甲３４４番地３","無床診療所","高松市","医療法人社団福田眼科医院","理事長　福田　紹平","医療法人社団福田眼科医院","1990/7/1","087-889-5633","眼科","","","香川県","372013"
"jp.takamatsu.smartcity.medical.Hospital.289","34.280627","134.045211","香川県高松市仏生山町甲６９１番地１","無床診療所","高松市","医療法人社団仏生山みぞぶち内科医院","理事長　溝淵　猛","医療法人社団仏生山みぞぶち内科医院","1998/2/1","087-888-1322","内科、胃腸内科","","","香川県","372013"
"jp.takamatsu.smartcity.medical.Hospital.290","34.31025","134.048781","香川県高松市太田下町２４６３番地６","無床診療所","高松市","ぶんご内科医院","","豊後　雅巳","1998/7/13","087-869-7117","内科、呼吸器科、消化器科","","","香川県","372013"
"jp.takamatsu.smartcity.medical.Hospital.291","34.288008","134.0021","香川県高松市中間町４９番地１０","無床診療所","高松市","医療法人社団藤沢こどもクリニック","理事長　藤澤　卓爾（じ）","医療法人社団藤沢こどもクリニック","2001/8/1","087-885-3338","小児科","","","香川県","372013"
"jp.takamatsu.smartcity.medical.Hospital.292","34.335314","134.059734","香川県高松市多賀町二丁目１８番１３号","無床診療所","高松市","ふくだ眼科クリニック","","福田　恒輝","2015/5/1","087-802-2777","眼科","","","香川県","372013"
"jp.takamatsu.smartcity.medical.Hospital.293","34.345372","134.049763","香川県高松市古新町１０番地３　砂屋ビル６階","無床診療所","高松市","古新町こころの診療所","理事長　朝日　宏美","医療法人社団つたの葉","2017/10/1","087-802-2205","心療内科、精神科","","","香川県","372013"
"jp.takamatsu.smartcity.medical.Hospital.294","34.297754","133.996079","香川県高松市檀紙町５９番地１","無床診療所","高松市","医療法人社団藤沢眼科医院","理事長　藤澤　綾","医療法人社団藤沢眼科医院","2018/4/1","087-885-1010","眼科","","","香川県","372013"
"jp.takamatsu.smartcity.medical.Hospital.295","34.29899","134.05895","香川県高松市多肥下町４８２番地","無床診療所","高松市","ふじもり内科・消化器内科クリニック","","藤森　崇行","2019/10/19","087-813-6114","内科・消化器内科","","","香川県","372013"
"jp.takamatsu.smartcity.medical.Hospital.296","34.295254","134.052535","香川県高松市多肥上町１１１１番地１","無床診療所","高松市","医療法人社団ふるきた皮フ科","理事長　古北　一泰","医療法人社団ふるきた皮フ科","2021/12/1","087-889-1112","皮膚科","","","香川県","372013"
"jp.takamatsu.smartcity.medical.Hospital.297","34.283796","134.041417","香川県高松市仏生山町甲２７１番地１０","無床診療所","高松市","仏生山駅前診療所","","竹本　貴昭","2022/4/1","087-802-2086","心療内科、精神科","","","香川県","372013"
"jp.takamatsu.smartcity.medical.Hospital.298","34.345345","134.050126","香川県高松市丸亀町２番地１３　丸亀町弐番街３号館３階","無床診療所","高松市","ブランクリニック　高松院","理事長　加藤　茂俊","医療法人社団白凛会","2023/5/1","087-899-2802","美容皮膚科、皮膚科","","","香川県","372013"
"jp.takamatsu.smartcity.medical.Hospital.299","34.308037","134.065053","香川県高松市林町２５２８番地１","無床診療所","高松市","医療法人社団東高松クリニック　ブレイン脳外科・内科クリニック","理事長　木村　正司","医療法人社団東高松クリニック","2024/4/1","087-866-2233","内科、脳神経外科、リハビリテーション科、美容皮膚科","","","香川県","372013"
"jp.takamatsu.smartcity.medical.Hospital.300","34.331389","134.047318","香川県高松市栗林町一丁目４番１１号","無床診療所","高松市","へいわこどもクリニック","理事長　北原　孝夫","香川医療生活協同組合","2010/3/8","087-835-2026","アレルギー科、小児科","","","香川県","372013"
"jp.takamatsu.smartcity.medical.Hospital.301","34.345757","134.039603","香川県高松市錦町二丁目１３番１１号","無床診療所","高松市","堀耳鼻咽喉科医院","","堀　芳朗","1997/1/1","087-821-8733","耳鼻咽喉科","","","香川県","372013"
"jp.takamatsu.smartcity.medical.Hospital.302","34.344629","134.046678","香川県高松市番町一丁目２番１９号","無床診療所","高松市","ほそかわクリニック","","細川　二郎","2005/5/9","087-811-3252","心療内科、精神科、神経科","","","香川県","372013"
"jp.takamatsu.smartcity.medical.Hospital.303","34.344036","134.050908","香川県高松市今新町８番地５","無床診療所","高松市","本多内科医院","","本多　完次","2011/11/8","087-821-4916","内科","","","香川県","372013"
"jp.takamatsu.smartcity.medical.Hospital.304","34.285974","134.033112","香川県高松市一宮町１４３番地５","無床診療所","高松市","医療法人社団マツオカ医院","理事長　松岡　信夫","医療法人社団マツオカ医院","1991/2/1","087-888-2222","内科、糖尿病内科、皮膚科","","","香川県","372013"
"jp.takamatsu.smartcity.medical.Hospital.305","34.334515","134.047269","香川県高松市藤塚町一丁目３番２１号","無床診療所","高松市","医療法人社団松田内科医院","理事長　松田　和也","医療法人社団松田内科医院","1993/3/1","087-831-4601","内科、胃腸内科、循環器内科、内視鏡内科、漢方内科","","","香川県","372013"
"jp.takamatsu.smartcity.medical.Hospital.306","34.343024","134.04412","香川県高松市番町二丁目４番１５号","無床診療所","高松市","医療法人社団真鍋医院","理事長　真鍋　敏毅","医療法人社団真鍋医院","1993/11/1","087-851-2678","耳鼻咽喉科、気管食道科","","","香川県","372013"
"jp.takamatsu.smartcity.medical.Hospital.307","34.338741","134.05545","香川県高松市塩上町二丁目８番１号","無床診療所","高松市","医療法人社団松本整形外科医院","理事長　松本　学　","医療法人社団松本整形外科医院","1995/6/1","087-835-5272","整形外科、リハビリ科","","","香川県","372013"
"jp.takamatsu.smartcity.medical.Hospital.308","34.340547","134.056146","香川県高松市塩上町二丁目２番６号","無床診療所","高松市","医療法人社団哲樹会真弓内科呼吸器科医院","理事長　真弓　哲二","医療法人社団哲樹会","1996/9/1","087-835-2321","内科、呼吸器科、循環器科、糖尿病内科、女性内科、アレルギー科、リウマチ科、皮膚科、美容皮膚科","","","香川県","372013"
"jp.takamatsu.smartcity.medical.Hospital.309","34.30665","134.057027","香川県高松市多肥下町１５０１番地１","無床診療所","高松市","医療法人社団松山内科クリニック","理事長　松山　哲子","医療法人社団松山内科クリニック","1998/9/1","087-867-7778","内科、循環器内科、糖尿病内科","","","香川県","372013"
"jp.takamatsu.smartcity.medical.Hospital.310","34.276308","134.099515","香川県高松市川島東町５１８番地１","無床診療所","高松市","松原耳鼻咽喉科医院","","松原　一仁","1998/4/1","087-848-1100","耳鼻咽喉科","","","香川県","372013"
"jp.takamatsu.smartcity.medical.Hospital.311","34.340911","134.053813","香川県高松市福田町１３番地３","無床診療所","高松市","医療法人社団研友会真弓皮膚泌尿器科医院","理事長　真弓　研介","医療法人社団研友会","2006/4/18","087-821-3913","皮膚科、泌尿器科","","","香川県","372013"
"jp.takamatsu.smartcity.medical.Hospital.312","34.339923","134.051817","香川県高松市瓦町二丁目７番地１　冠野ビル４Ｆ","無床診療所","高松市","医療法人社団松下眼科","理事長　松下　明子","医療法人社団松下眼科","2007/3/1","087-833-1388","眼科","","","香川県","372013"
"jp.takamatsu.smartcity.medical.Hospital.313","34.296118","134.099346","香川県高松市前田西町１０８０番地７","無床診療所","高松市","医療法人社団看源会松木泌尿器科医院","理事長　松木　孝和","医療法人社団看源会","2007/5/1","087-847-1121","泌尿器科、性病科","","","香川県","372013"
"jp.takamatsu.smartcity.medical.Hospital.314","34.337768","134.065601","香川県高松市松島町二丁目１７番１５号","無床診療所","高松市","内科前田医院","","前田　道彦","2007/12/18","087-863-5252","内科、アレルギー科、リハビリ科","","","香川県","372013"
"jp.takamatsu.smartcity.medical.Hospital.315","34.344829","134.051529","香川県高松市大工町１番地１２","無床診療所","高松市","医療法人社団マヤ内科医院","理事長　栗生　俊紀","医療法人社団マヤ内科医院","2009/10/1","087-821-5230","内科、消化器内科、循環器内科、","","","香川県","372013"
"jp.takamatsu.smartcity.medical.Hospital.316","34.344687","134.016858","香川県高松市郷東町東新開１３４番地１　西高松メディカルビルイーア３階","無床診療所","高松市","医療法人社団つなぎまさだ皮フ科","理事長　政田　みち","医療法人社団つなぎまさだ皮フ科","2009/10/1","087-832-8833","皮膚科、美容皮膚科","","","香川県","372013"
"jp.takamatsu.smartcity.medical.Hospital.317","34.344687","134.016858","香川県高松市郷東町東新開１３４番地１　西高松メディカルビルイーア３階","無床診療所","高松市","医療法人社団あずみ会まつもと眼科","理事長　松本　美千代","医療法人社団あずみ会まつもと眼科","2009/10/1","087-832-8822","眼科","","","香川県","372013"
"jp.takamatsu.smartcity.medical.Hospital.318","34.343183","134.049773","香川県高松市丸亀町５番地９　阿波屋ビル２階","無床診療所","高松市","丸亀町眼科医院","","岩田　武","2011/7/1","087-811-5175","眼科","","","香川県","372013"
"jp.takamatsu.smartcity.medical.Hospital.319","34.343713","134.050223","香川県高松市丸亀町１２番地８　ラクダやビル２階","無床診療所","高松市","丸亀町アイクリニック","","平岡　一志","2014/7/14","087-804-0022","眼科","","","香川県","372013"
"jp.takamatsu.smartcity.medical.Hospital.320","34.342204","134.039039","香川県高松市番町三丁目２０番２号","無床診療所","高松市","医療法人信眼会まなべ眼科クリニック","理事長　信田　和男","医療法人信眼会","2019/10/1","087-816-5580","眼科","","","香川県","372013"
"jp.takamatsu.smartcity.medical.Hospital.321","34.345726","134.050233","香川県高松市丸亀町１番地１　丸亀町壱番街西館３階","無床診療所","高松市","丸亀町クリニック","理事長　豊永　慎二","医療法人社団豊永会","2020/4/1","087-802-6360","内科、循環器内科、リハビリ科、放射線科、整形外科、泌尿器科","","","香川県","372013"
"jp.takamatsu.smartcity.medical.Hospital.322","34.348615","134.064045","香川県高松市朝日町二丁目２番７号　Ｌ−ビルディング２階","無床診療所","高松市","医療法人社団壽弘会ましま内科・循環器科内科クリニック","理事長　間島　圭一","医療法人社団壽弘会","2020/10/1","087-811-1810","内科、循環器科","","","香川県","372013"
"jp.takamatsu.smartcity.medical.Hospital.323","34.32119","134.04111","香川県高松市東ハゼ町１２番地７","無床診療所","高松市","真弓愛メディカルクリニック","理事長　真弓　哲二","医療法人社団哲樹会","2021/6/1","087-802-3575","美容皮膚科、女性内科、皮膚科、形成外科、内科、歯科、小児歯科、矯正歯科","","","香川県","372013"
"jp.takamatsu.smartcity.medical.Hospital.324","34.298378","134.05318","香川県高松市多肥下町２４６番地１","無床診療所","高松市","まる耳鼻咽喉科","理事長　表原　慶典","医療法人まる耳鼻咽喉科","2021/10/1","087-868-5600","耳鼻咽喉科","","","香川県","372013"
"jp.takamatsu.smartcity.medical.Hospital.325","34.286501","134.005528","香川県高松市円座町１５７５番地３","無床診療所","高松市","医療法人社団溝口クリニック","理事長　溝口　晶仁","医療法人社団溝口クリニック","1993/6/1","087-886-0824","内科","","","香川県","372013"
"jp.takamatsu.smartcity.medical.Hospital.326","34.339653","134.051331","香川県高松市瓦町二丁目７番地１６−４Ｆ","無床診療所","高松市","みのクリニック","","三野　進","1995/10/20","087-863-1155","心療内科、精神科、神経内科","","","香川県","372013"
"jp.takamatsu.smartcity.medical.Hospital.327","34.324034","134.079616","香川県高松市木太町３６０２番地１","無床診療所","高松市","医療法人社団光樹会水谷内科クリニック","理事長　コルビン真梨子","医療法人社団光樹会","2001/7/1","087-835-5037","内科、消化器科、肝臓内科","","","香川県","372013"
"jp.takamatsu.smartcity.medical.Hospital.328","34.326577","134.046233","香川県高松市花ノ宮町一丁目１２番３６号","無床診療所","高松市","医療法人社団宮本耳鼻咽喉科医院","理事長　宮本　永祥","医療法人社団宮本耳鼻咽喉科医院","2005/5/1","087-834-0666","耳鼻咽喉科","","","香川県","372013"
"jp.takamatsu.smartcity.medical.Hospital.329","34.329596","134.056597","香川県高松市楠上町二丁目３番１５号　アルファメディカルモール２階","無床診療所","高松市","医療法人社団みやもとレディースクリニック","理事長　宮本　誠一郎","医療法人社団みやもとレディースクリニック","2013/4/1","087-806-1177","産科、婦人科","","","香川県","372013"
"jp.takamatsu.smartcity.medical.Hospital.330","34.295053","134.05255","香川県高松市多肥上町１１１１番地１　多肥メディカル・イーア３Ｆ","無床診療所","高松市","みぞて眼科クリニック","","溝手　雅宣","2016/5/20","087-806-1103","眼科","","","香川県","372013"
"jp.takamatsu.smartcity.medical.Hospital.331","34.277813","134.068952","香川県高松市三谷町１１６１番地１","無床診療所","高松市","水尾医院","","水尾　純","2016/4/21","087-899-8620","内科、循環器内科","","","香川県","372013"
"jp.takamatsu.smartcity.medical.Hospital.332","34.292493","134.074574","香川県高松市林町４７８番地１","無床診療所","高松市","みやべ耳鼻咽喉科クリニック","理事長　宮部　和德","医療法人社団M.J.C.晃成会","2017/1/1","087-889-1133","アレルギー科、耳鼻咽喉科","","","香川県","372013"
"jp.takamatsu.smartcity.medical.Hospital.333","34.322917","134.028797","香川県高松市西春日町１１１１番地１　峰山くらし広場１階","無床診療所","高松市","医療法人ブルームみねやまクリニック","理事長　藤澤　成人","医療法人ブルームみねやまクリニック","2020/10/1","087-865-3387","内科、耳鼻咽喉科、皮膚科","","","香川県","372013"
"jp.takamatsu.smartcity.medical.Hospital.334","34.295053","134.05255","香川県高松市多肥上町１１１１番地１　多肥メディカルビル・イーア２階","無床診療所","高松市","医療法人社団光心会みつ内科・ハートクリニック","理事長　藤村　光則","医療法人社団光心会","2022/7/1","087-888-3810","内科、循環器内科","","","香川県","372013"
"jp.takamatsu.smartcity.medical.Hospital.335","34.346861","134.052608","香川県高松市内町３番２号","無床診療所","高松市","みき内科外科医院","","三木　明寛","2022/9/1","087-823-1127","内科、外科、肛門外科、耳鼻咽喉科","","","香川県","372013"
"jp.takamatsu.smartcity.medical.Hospital.336","34.351377","134.039878","香川県高松市浜ノ町６０番６５号","無床診療所","高松市","むらせ内科クリニック","","村瀨　知也","2018/12/1","087-813-7333","内科、放射線科","","","香川県","372013"
"jp.takamatsu.smartcity.medical.Hospital.337","34.348449","134.064046","香川県高松市朝日町二丁目２番７号　Ｌ−ビルディング２階","無床診療所","高松市","むらかわクリニック","","村川　直道","2024/4/26","087-823-2525","児童精神科、小児科、リハビリテーション科","","","香川県","372013"
"jp.takamatsu.smartcity.medical.Hospital.338","34.341284","134.048846","香川県高松市番町三丁目３番１７号　プレシャス番町ビル４Ｆ","無床診療所","高松市","メディカルカウンセリングルームたなかクリニック","","田中　和孝","2023/3/1","087-812-5556","心療内科、精神科","","","香川県","372013"
"jp.takamatsu.smartcity.medical.Hospital.339","34.338438","134.045319","香川県高松市天神前８番１４号","無床診療所","高松市","医療法人社団森岡皮膚科医院","理事長　森岡　眞治","医療法人社団森岡皮膚科医院","2005/4/1","087-834-1011","皮膚科、泌尿器科","","","香川県","372013"
"jp.takamatsu.smartcity.medical.Hospital.340","34.339925","134.05217","香川県高松市瓦町二丁目６番地１","無床診療所","高松市","森下内科医院","","森下　直也","2012/4/1","087-831-5557","内科、循環器内科","","","香川県","372013"
"jp.takamatsu.smartcity.medical.Hospital.341","34.311298","134.061665","香川県高松市松縄町１１４０番地９","無床診療所","高松市","もりした眼科クリニック","","森下　真実","2018/4/24","087-865-6633","眼科","","","香川県","372013"
"jp.takamatsu.smartcity.medical.Hospital.342","34.316","134.04707","香川県高松市三条町３２１番地２","無床診療所","高松市","医療法人社団安原クリニック","理事長　松本　由佳","医療法人社団安原クリニック","2000/7/1","087-866-1111","産科、婦人科、糖尿病内科、代謝内科、腎臓内科、美容外科","","","香川県","372013"
"jp.takamatsu.smartcity.medical.Hospital.343","34.314165","133.999881","香川県高松市飯田町１７番地５","無床診療所","高松市","矢野皮膚科クリニック","","矢野　充範","1990/3/12","087-881-5885","アレルギー科、美容外科、皮膚科、美容皮膚科、泌尿器科","","","香川県","372013"
"jp.takamatsu.smartcity.medical.Hospital.344","34.283403","134.026052","香川県高松市一宮町４０３番地１","無床診療所","高松市","医療法人社団清瞳会山内クリニック","理事長　山内　紀子","医療法人社団清瞳会","1993/5/1","087-886-7082","内科、消化器科、循環器科、胃腸科、放射線科","","","香川県","372013"
"jp.takamatsu.smartcity.medical.Hospital.345","34.34033","134.10754","香川県高松市高松町２５５２番地２","無床診療所","高松市","医療法人社団英新会屋島みちクリニック","理事長　細江　浩文","医療法人社団英新会","2005/10/1","087-844-3933","心療内科、精神科、神経内科","","","香川県","372013"
"jp.takamatsu.smartcity.medical.Hospital.346","34.325168","134.092855","香川県高松市春日町７９９番地１","無床診療所","高松市","山崎内科呼吸器科医院","","山崎　保寛","2005/12/16","087-818-1560","内科、呼吸器科、アレルギー科","","","香川県","372013"
"jp.takamatsu.smartcity.medical.Hospital.347","34.307925","133.974301","香川県高松市国分寺町新居３３８８番地","無床診療所","高松市","医療法人社団山田医院","理事長　山田　淳智","医療法人社団山田医院","1998/4/1","087-874-0040","内科、消化器内科、糖尿病内科","","","香川県","372013"
"jp.takamatsu.smartcity.medical.Hospital.348","34.338533","134.048057","香川県高松市亀井町１１番地７","無床診療所","高松市","ヤノ肛門外科クリニック","","矢野　賢二","2008/12/1","087-861-1515","肛門外科","","","香川県","372013"
"jp.takamatsu.smartcity.medical.Hospital.349","34.340523","134.110546","香川県高松市高松町３００２番地１３","無床診療所","高松市","医療法人社団屋島眼科クリニック","理事長　小川  哲郎","医療法人社団屋島眼科クリニック","2009/10/1","087-844-1341","眼科","","","香川県","372013"
"jp.takamatsu.smartcity.medical.Hospital.350","34.340327","134.045005","香川県高松市天神前５番６号","無床診療所","高松市","医療法人社団耕仁会やまぐちクリニック","理事長　山口  耕司","医療法人社団耕仁会やまぐちクリニック","2010/10/1","087-832-5611","心療内科、精神科","","","香川県","372013"
"jp.takamatsu.smartcity.medical.Hospital.351","34.304131","134.090592","香川県高松市東山崎町９０番地６","無床診療所","高松市","医療法人社団安元クリニック","理事長　安元　章浩","医療法人社団安元クリニック","2012/4/1","087-847-1300","皮膚科、泌尿器科","","","香川県","372013"
"jp.takamatsu.smartcity.medical.Hospital.352","34.3127","134.06365","香川県高松市木太町５０７７番地２","無床診療所","高松市","やまもと中央クリニック","","山本　議仁","2019/5/1","087-802-7500","泌尿器科、内科","","","香川県","372013"
"jp.takamatsu.smartcity.medical.Hospital.353","34.28417","133.96305","香川県高松市国分寺町福家甲３０９１番地４","無床診療所","高松市","安田内科","","安田　貢","2019/11/14","087-875-2525","内科・消化器内科","","","香川県","372013"
"jp.takamatsu.smartcity.medical.Hospital.354","34.33833","134.10943","香川県高松市高松町２５００番地５","無床診療所","高松市","屋島おおはら内科・消化器内科クリニック","理事長　大原　芳章","医療法人社団葵桜会","2022/4/1","087-844-8705","内科、消化器内科、肝臓内科、糖尿病内科、内分泌内科","、","","香川県","372013"
"jp.takamatsu.smartcity.medical.Hospital.355","34.322156","134.04552","香川県高松市上之町一丁目３番２９号","無床診療所","高松市","医療法人社団湯浅クリニック","理事長　湯浅　誠","医療法人社団湯浅クリニック","1995/12/1","087-868-9111","内科、皮膚科、泌尿器科","","","香川県","372013"
"jp.takamatsu.smartcity.medical.Hospital.356","34.304087","133.944704","香川県高松市国分寺町国分２０９０番地１","無床診療所","高松市","ゆりのき診療室","","花岡　正憲","2003/5/16","087-874-2217","精神科","","","香川県","372013"
"jp.takamatsu.smartcity.medical.Hospital.357","34.307427","134.062165","香川県高松市伏石町２１５０番地５","無床診療所","高松市","ゆいメンタルクリニック","","鈴木　ゆい","2007/7/9","087-897-7277","心療内科、精神科","","","香川県","372013"
"jp.takamatsu.smartcity.medical.Hospital.358","34.349573","134.088105","香川県高松市屋島西町２４８７番地２１","無床診療所","高松市","湯川クリニック","","湯川　貴男","2017/5/10","087-813-8270","放射線科","","","香川県","372013"
"jp.takamatsu.smartcity.medical.Hospital.359","34.305941","134.070802","香川県高松市林町１９７１番地１０","無床診療所","高松市","吉田内科医院","","吉田　恭典","1989/2/3","087-867-0777","内科、胃腸科、循環器科","","","香川県","372013"
"jp.takamatsu.smartcity.medical.Hospital.360","34.34816","134.052185","香川県高松市丸の内４番９号　丸の内ビル２Ｆ","無床診療所","高松市","横井クリニック","","横井　一郎","1994/6/1","087-821-2212","内科、胃腸科","","","香川県","372013"
"jp.takamatsu.smartcity.medical.Hospital.361","34.309295","134.055633","香川県高松市伏石町２１２９番地２","無床診療所","高松市","公益財団法人香川県予防医学協会予防協会健康管理センター","理事長　河合　公三","公益財団法人香川県予防医学協会","1995/11/1","087-868-5555","内科、婦人科","","","香川県","372013"
"jp.takamatsu.smartcity.medical.Hospital.362","34.361609","133.960075","香川県高松市生島町４６０番地１","無床診療所","高松市","医療法人社団横田外科医院","理事長　横田　博","医療法人社団横田外科医院","1999/4/1","087-882-7165","外科、麻酔科","","","香川県","372013"
"jp.takamatsu.smartcity.medical.Hospital.363","34.350382","134.047985","香川県高松市西の丸町２番１７号","無床診療所","高松市","よしまつクリニック","","吉松　誠","2002/2/5","087-811-7333","心療内科、精神科、神経内科","","","香川県","372013"
"jp.takamatsu.smartcity.medical.Hospital.364","34.323622","134.073243","香川県高松市木太町１６６３番地２","無床診療所","高松市","横井内科医院","","横井　徹","2009/2/1","087-862-2222","内科","","","香川県","372013"
"jp.takamatsu.smartcity.medical.Hospital.365","34.315576","134.068447","香川県高松市木太町５０５５番地４","無床診療所","高松市","医療法人社団吉村整形外科醫院","理事長　吉村　裕","医療法人社団吉村整形外科醫院","2010/9/1","087-866-6666","リウマチ科、整形外科、リハビリ科","","","香川県","372013"
"jp.takamatsu.smartcity.medical.Hospital.366","34.297794","134.055315","香川県高松市多肥下町３５９番地１","無床診療所","高松市","医療法人社団よこい内科クリニック","理事長　横井　健治","医療法人社団よこい内科クリニック","2013/9/1","087-869-4511","内科、消化器内科、循環器内科、糖尿病・代謝内科、内分泌内科","","","香川県","372013"
"jp.takamatsu.smartcity.medical.Hospital.367","34.298029","133.96249","香川県高松市国分寺町新居１３５６番地１","無床診療所","高松市","医療法人社団優生会吉田眼科","理事長　吉田　慎一","医療法人社団優生会","2013/10/1","087-875-1010","眼科","","","香川県","372013"
"jp.takamatsu.smartcity.medical.Hospital.368","34.345549","134.050241","香川県高松市丸亀町１番地１　丸亀町壱番街西館２階","無床診療所","高松市","陽子レディースクリニック","","安藤　陽子","2014/5/15","087-811-6607","女性内科、産婦人科、婦人科","","","香川県","372013"
"jp.takamatsu.smartcity.medical.Hospital.369","34.339511","134.052208","香川県高松市瓦町二丁目６番地１４","無床診療所","高松市","リッツ美容外科","","古屋　富治雄","2001/4/8","087-831-6022","美容外科","","","香川県","372013"
"jp.takamatsu.smartcity.medical.Hospital.370","34.336729","134.039705","香川県高松市亀岡町１１番１０号","無床診療所","高松市","医療法人社団宅光会リウマチ・腎臓内科はちまんクリニック","理事長　光中　弘毅","医療法人社団宅光会","1998/2/1","087-862-7878","内科、人工透析内科、腎臓内科、リウマチ科","","","香川県","372013"
"jp.takamatsu.smartcity.medical.Hospital.371","34.329596","134.056597","香川県高松市楠上町二丁目３番１５号","無床診療所","高松市","りつりん皮フ科クリニック","理事長　森田　和政","医療法人社団健悠会","2016/5/1","087-813-4112","皮膚科、美容皮膚科","","","香川県","372013"
"jp.takamatsu.smartcity.medical.Hospital.372","34.298041","134.058367","香川県高松市多肥下町４６６番地","無床診療所","高松市","竜雲メンタルクリニック","理事長　海野　順","医療法人社団光風会","2024/9/1","087-840-0735","心療内科、精神科","","","香川県","372013"
"jp.takamatsu.smartcity.medical.Hospital.373","34.305498","134.058768","香川県高松市多肥下町１５０６番地２０","無床診療所","高松市","レインボー通り内科クリニック","","松原　修司","2021/4/1","087-868-2416","内科、糖尿病内科、内分泌内科","","","香川県","372013"
"jp.takamatsu.smartcity.medical.Hospital.374","34.293392","134.087622","香川県高松市六条町１７番地１","無床診療所","高松市","六条眼科","","田中　剛","2015/12/4","087-873-2735","眼科","","","香川県","372013"
"jp.takamatsu.smartcity.medical.Hospital.375","34.291787","134.090412","香川県高松市下田井町３７２番地１","無床診療所","高松市","六条ひふ科クリニック","","印藤　昌彦","2019/2/9","087-802-3906","皮膚科","","","香川県","372013"
"jp.takamatsu.smartcity.medical.Hospital.376","34.337678","134.010555","香川県高松市鶴市町２０３９番地２","無床診療所","高松市","和田内科循環器科医院","","和田　茂","1992/11/20","087-881-7575","内科、循環器科","","","香川県","372013"
"jp.takamatsu.smartcity.medical.Hospital.377","34.31924","134.080367","香川県高松市木太町４０２０番地１","無床診療所","高松市","和田産婦人科医院","","出口　理恵","2005/1/1","087-867-2340","産科、婦人科","","","香川県","372013"
"jp.takamatsu.smartcity.medical.Hospital.378","34.320711","134.028861","香川県高松市松並町１０２３番地３","無床診療所","高松市","わかばクリニック","","藤田　博茂","2018/2/15","090-3188-0005","外科","","","香川県","372013"
"jp.takamatsu.smartcity.medical.Hospital.379","34.286105","134.050620","香川県高松市出作町字東原２８１番地１","無床診療所","高松市","わたなべ耳鼻咽喉科","理事長　渡辺　正博","医療法人社団龍里会","2018/10/11","087-889-8733","アレルギー科、耳鼻咽喉科","","","香川県","372013"
"jp.takamatsu.smartcity.medical.Hospital.380","34.342765","134.047435","香川県高松市番町一丁目７番２２号","無床診療所","高松市","渡邉医院","理事長　渡邉　晴二","医療法人清進会","2020/9/1","087-851-2067","感染症内科、皮膚科、泌尿器科","","","香川県","372013"
"jp.takamatsu.smartcity.medical.Hospital.381","34.339205","134.049864","香川県高松市常磐町一丁目５−１　ジオ高松常磐町J．CRESTタワー１階B区画","無床診療所","高松市","瓦町ファミリークリニック","","間嶋　荘一郎","2025/01/06","087-884-3001","内科","","","香川県","372013"
"jp.takamatsu.smartcity.medical.Hospital.382","34.346247","134.039149","香川県高松市扇町一丁目２４番５号","有床診療所","高松市","医療法人社団慈和会高松ささき内科ハートクリニック","理事長　佐々木　雅英","医療法人社団慈和会","2001/10/01","087-851-6688","内科、循環器内科、糖尿病内科、リハビリテーション科","","","香川県","372013"
"jp.takamatsu.smartcity.medical.Hospital.383","34.299785","134.089314","香川県高松市六条町１６６番地","無床診療所","高松市","医療法人社団静正会白石心臓血管クリニック","理事長　","医療法人社団静正会","2006/07/01","087-847-0011","循環器内科、血管外科","","","香川県","372013"
"jp.takamatsu.smartcity.medical.Hospital.384","34.272232","133.995147","香川県高松市岡本町幸ノ神８５８番１","無床診療所","高松市","ちよ内科クリニック","","千代　大翔","2024/12/01","087-813-8881","内科、消化器内科","","","香川県","372013"
"jp.takamatsu.smartcity.medical.Hospital.385","34.339736","134.052541","香川県高松市兵庫町１１番地６　カーニープレイス高松兵庫町ビル３階","無床診療所","高松市","ＴＣＢ　東京中央美容外科・ＴＣＢ　スキンクリニック　高松院","理事長　寺西　宏王","医療法人社団創彩会","2022/12/19","087-802-5791","美容内科、形成外科、美容外科、皮膚科、美容皮膚科","","","香川県","372013"
"jp.takamatsu.smartcity.medical.Hospital.386","34.338276","134.044109","香川県高松市天神前６番２１号","無床診療所","高松市","医療法人社団幡内科・消化器内科クリニック","理事長　幡　英典","医療法人社団幡内科・消化器内科クリニック","2024/03/25","087-835-3366","内科、消化器ｋ内科","","","香川県","372013"
"jp.takamatsu.smartcity.medical.Hospital.387","34.347426","134.121653","香川県高松市牟礼町牟礼２５６０番地１１","無床診療所","高松市","医療法人社団ふくま内科クリニック","理事長　福間　博基","医療法人社団ふくま内科クリニック","2001/08/01","087-870-1311","内科、消化器科、リハビリテーション科、リハビリ科","","","香川県","372013"
"jp.takamatsu.smartcity.medical.Hospital.388","34.291618","134.039743","香川県高松市太田上町２１２番地５","歯科","高松市","おぐら歯科医院","","小倉　寛治","1979/3/1","087-888-0222","歯科、小児歯科","","","香川県","372013"
"jp.takamatsu.smartcity.medical.Hospital.390","34.333461","134.082714","香川県高松市木太町２８３６番地１","歯科","高松市","阿部歯科医院","","阿部　康一","1980/3/1","087-834-5314","歯科","","","香川県","372013"
"jp.takamatsu.smartcity.medical.Hospital.391","34.338732","134.044408","香川県高松市天神前６番６号","歯科","高松市","医療法人社団ア歯会ア歯科診療所","理事長　松岡　省三","医療法人社団ア歯会","1980/10/1","087-835-5000","歯科、矯正歯科、小児歯科、歯科口腔外科","","","香川県","372013"
"jp.takamatsu.smartcity.medical.Hospital.392","34.321541","134.062843","香川県高松市松縄町４４番地７","歯科","高松市","アキ歯科医院","","安藝　豊司","1982/9/7","087-866-5522","歯科","","","香川県","372013"
"jp.takamatsu.smartcity.medical.Hospital.393","34.273044","134.086751","香川県高松市川島東町９５８番地３","歯科","高松市","梅村歯科医院","","梅村　謙二","1982/11/1","087-848-1136","歯科、矯正歯科","","","香川県","372013"
"jp.takamatsu.smartcity.medical.Hospital.394","34.307105","134.043079","香川県高松市太田下町２２２０番地６","歯科","高松市","穴吹歯科医院","","穴吹　昇三","1987/5/28","087-865-8200","歯科","","","香川県","372013"
"jp.takamatsu.smartcity.medical.Hospital.395","34.334353","134.065626","香川県高松市上福岡町７０４番地２−２Ｆ","歯科","高松市","医療法人社団植田歯科医院","理事長　植田　佳邦","医療法人社団植田歯科医院","1990/2/1","087-834-3718","歯科、矯正歯科、小児歯科、歯科口腔外科","","","香川県","372013"
"jp.takamatsu.smartcity.medical.Hospital.396","34.334657","134.046258","香川県高松市中野町１番３２号","歯科","高松市","井手口歯科医院","","井手口　英章","1991/3/18","087-835-6688","歯科、小児歯科、歯科口腔外科","","","香川県","372013"
"jp.takamatsu.smartcity.medical.Hospital.397","34.345679","134.054144","香川県高松市片原町４番地３","歯科","高松市","今瀧歯科クリニック","","今瀧　昇","1994/3/28","087-821-5154","歯科、小児歯科、歯科口腔外科","","","香川県","372013"
"jp.takamatsu.smartcity.medical.Hospital.398","34.33727","133.996474","香川県高松市鬼無町是竹９３番地５","歯科","高松市","アヤ歯科医院","","綾　英紀","1995/5/1","087-881-1211","歯科","","","香川県","372013"
"jp.takamatsu.smartcity.medical.Hospital.399","34.339084","134.037718","香川県高松市宮脇町一丁目３番１７号","歯科","高松市","いしい歯科クリニック","","石井　浩之","1995/9/10","087-863-0088","歯科、小児歯科、歯科口腔外科","","","香川県","372013"
"jp.takamatsu.smartcity.medical.Hospital.400","34.299597","134.047507","香川県高松市太田上町７８３番地２","歯科","高松市","今滝歯科医院","","今瀧　勝己","1996/11/18","087-866-9081","歯科、小児歯科","","","香川県","372013"
"jp.takamatsu.smartcity.medical.Hospital.401","34.341219","134.11302","香川県高松市高松町２４１２番地１５","歯科","高松市","大黒歯科医院","","大黒　義明","1985/7/29","087-841-3500","歯科","","","香川県","372013"
"jp.takamatsu.smartcity.medical.Hospital.402","34.337684","134.109061","香川県高松市高松町９１番地","歯科","高松市","小河歯科医院","","小河　隆太","1997/8/15","087-841-7170","歯科、小児歯科","","","香川県","372013"
"jp.takamatsu.smartcity.medical.Hospital.403","34.304151","134.015525","香川県高松市成合町７２５番地１","歯科","高松市","岡田歯科醫院","理事長　岡田　寿朗","医療法人社団岡田歯科醫院","1998/10/1","087-885-9700","歯科、矯正歯科、小児歯科、歯科口腔外科","","","香川県","372013"
"jp.takamatsu.smartcity.medical.Hospital.404","34.345293","134.042822","香川県高松市錦町二丁目１７番８号","歯科","高松市","赤松歯科医院","","赤松　秀規","1999/4/1","087-826-6030","歯科","","","香川県","372013"
"jp.takamatsu.smartcity.medical.Hospital.405","34.310795","134.004933","香川県高松市檀紙町２２８８番地３","歯科","高松市","池尻歯科医院","","池尻　国夫","1999/4/21","087-885-0085","歯科","","","香川県","372013"
"jp.takamatsu.smartcity.medical.Hospital.406","34.345971","134.001093","香川県高松市香西本町１５０番地１０","歯科","高松市","浮田歯科医院","","中山　真弓","1999/7/8","087-832-8801","歯科、矯正歯科、小児歯科、歯科口腔外科","","","香川県","372013"
"jp.takamatsu.smartcity.medical.Hospital.407","34.319429","134.05551","香川県高松市伏石町２０１８番地１２","歯科","高松市","石丸歯科医院","","石丸　毅","2001/7/23","087-815-2747","歯科、小児歯科、歯科口腔外科","","","香川県","372013"
"jp.takamatsu.smartcity.medical.Hospital.408","34.316824","134.060144","香川県高松市松縄町１１１７番地５　シブヤビル松縄１Ｆ","歯科","高松市","いまじょう矯正歯科クリニック","","今城　広治","2001/7/3","087-815-2848","矯正歯科","","","香川県","372013"
"jp.takamatsu.smartcity.medical.Hospital.409","34.337788","134.066873","香川県高松市松島町二丁目９番１０３号","歯科","高松市","磯島歯科医院","","磯島　弘一","2002/5/27","087-834-8686","歯科、小児歯科","","","香川県","372013"
"jp.takamatsu.smartcity.medical.Hospital.410","34.302015","134.070643","香川県高松市林町２５７２番地１２","歯科","高松市","えがお歯科","理事長　木村　栄作","医療法人社団えがお歯科","2002/11/1","087-840-0777","歯科、矯正歯科、小児歯科、歯科口腔外科","","","香川県","372013"
"jp.takamatsu.smartcity.medical.Hospital.411","34.338179","134.049349","香川県高松市田町１３番地１３","歯科","高松市","オリーブ歯科医院","","天野　伊知郎","2003/3/1","087-832-0808","歯科、小児歯科","","","香川県","372013"
"jp.takamatsu.smartcity.medical.Hospital.412","34.312655","134.065933","香川県高松市木太町５０９５番地１","歯科","高松市","あおぞら歯科クリニック","","三好　智","2005/11/15","087-866-6480","歯科、小児歯科、歯科口腔外科","","","香川県","372013"
"jp.takamatsu.smartcity.medical.Hospital.413","34.269038","133.984798","香川県高松市国分寺町福家乙２１４番地１０","歯科","高松市","大西歯科医院","理事長　大西　吉之","医療法人社団ひまわり会","1993/2/1","087-874-1194","歯科、小児歯科、歯科口腔外科","","","香川県","372013"
"jp.takamatsu.smartcity.medical.Hospital.414","34.350528","134.038211","香川県高松市浜ノ町５６番８号","歯科","高松市","岩田歯科医院","","岩田　哲郎","2009/2/1","087-897-5646","歯科、小児歯科、歯科口腔外科","","","香川県","372013"
"jp.takamatsu.smartcity.medical.Hospital.415","34.327488","134.05146","香川県高松市桜町二丁目４番１１号","歯科","高松市","医療法人社団愛歯会いそざき歯科","理事長　磯崎　裕騎","医療法人社団愛歯会","2013/4/1","087-832-0777","歯科、矯正歯科、小児歯科、歯科口腔外科","","","香川県","372013"
"jp.takamatsu.smartcity.medical.Hospital.416","34.287222","134.00607","香川県高松市円座町１１２４番地５６","歯科","高松市","医療法人社団イチハラデンタルクリニック","理事長　市原　敏行","医療法人社団イチハラデンタルクリニック","2014/4/1","087-885-1840","歯科、矯正歯科、小児歯科、歯科口腔外科","","","香川県","372013"
"jp.takamatsu.smartcity.medical.Hospital.417","34.249289","134.026624","香川県高松市香川町川東下１３０１番地４","歯科","高松市","飯田歯科クリニック","","飯田　大介","2014/11/11","087-814-3300","歯科","","","香川県","372013"
"jp.takamatsu.smartcity.medical.Hospital.418","34.33566","134.057298","香川県高松市観光通二丁目９番１２号","歯科","高松市","大石歯科クリニック","","大石　慶二","2016/4/21","087-813-3956","歯科、歯科口腔外科","","","香川県","372013"
"jp.takamatsu.smartcity.medical.Hospital.419","34.303919","134.090463","香川県高松市東山崎町８９番地６","歯科","高松市","医療法人社団彩正会あんどう歯科","理事長　安藤　正彦","医療法人社団彩正会あんどう歯科","2016/5/1","087-840-7899","歯科、矯正歯科、小児歯科、歯科口腔外科","","","香川県","372013"
"jp.takamatsu.smartcity.medical.Hospital.420","34.321259","134.046694","香川県高松市上之町二丁目１番３７号","歯科","高松市","植松歯科クリニック","","植松　勇介","2017/7/15","087-802-8241","歯科、小児歯科、歯科口腔外科","","","香川県","372013"
"jp.takamatsu.smartcity.medical.Hospital.421","34.321655","134.082716","香川県高松市元山町５７７番地１","歯科","高松市","いのうえファミリー歯科","理事長　井上　正朗","医療法人社団いのうえファミリー歯科","2017/8/1","087-867-2554","歯科、矯正歯科、小児歯科、歯科口腔外科","","","香川県","372013"
"jp.takamatsu.smartcity.medical.Hospital.422","34.304024","133.972683","香川県高松市国分寺町新居２８３番地１","歯科","高松市","ウガワ歯科クリニック","","鵜川　祐樹","2018/9/13","087-802-8684","歯科、矯正歯科、小児歯科、歯科口腔外科","","","香川県","372013"
"jp.takamatsu.smartcity.medical.Hospital.423","34.329596","134.056597","香川県高松市楠上町二丁目３番１５号　アルファメディカルモール内","歯科","高松市","いちはら歯科クリニック","理事長　市原　雅也","医療法人社団雅月会","2018/10/1","087-813-0118","歯科、矯正歯科、小児歯科、歯科口腔外科","","","香川県","372013"
"jp.takamatsu.smartcity.medical.Hospital.424","34.284034","134.027925","香川県高松市一宮町３２８番地１","歯科","高松市","医療法人社団小野歯科医院","理事長　小野　耕資","医療法人社団小野歯科医院","2020/4/1","087-886-8100","歯科、小児歯科","","","香川県","372013"
"jp.takamatsu.smartcity.medical.Hospital.425","34.278671","134.025097","香川県高松市寺井町１２４８番地６","歯科","高松市","エビヌマ歯科医院","","海老沼　孝至","2021/4/1","087-886-3465","歯科","","","香川県","372013"
"jp.takamatsu.smartcity.medical.Hospital.426","34.327275","134.105155","香川県高松市新田町甲５３７番地３","歯科","高松市","いろのみ歯科","","前田　直人","2021/5/1","087-880-6374","歯科、歯科口腔外科、小児歯科","","","香川県","372013"
"jp.takamatsu.smartcity.medical.Hospital.427","34.317331","134.053172","香川県高松市伏石町１３１６番地６","歯科","高松市","あらき歯科医院","","蓮井　咲弥加","2021/11/1","087-802-9011","歯科","","","香川県","372013"
"jp.takamatsu.smartcity.medical.Hospital.428","34.240002","134.032804","香川県高松市香川町川東上１７８１番地５","歯科","高松市","いのした歯科医院","","井下　万三","2022/3/1","087-879-4712","歯科、矯正歯科、小児歯科、歯科口腔外科","","","香川県","372013"
"jp.takamatsu.smartcity.medical.Hospital.429","34.283861","134.002358","香川県高松市西山崎町１８２番地７","歯科","高松市","池上歯科医院","","医療法人社団池上歯科医院","2022/10/1","087-886-6600","歯科","","","香川県","372013"
"jp.takamatsu.smartcity.medical.Hospital.430","34.332456","134.054974","香川県高松市花園町三丁目２番１２号","歯科","高松市","おおくま歯科医院","理事長　大熊　秀和","医療法人社団おおくま歯科医院","2023/6/1","087-837-9000","歯科、小児歯科","","","香川県","372013"
"jp.takamatsu.smartcity.medical.Hospital.431","34.297649","134.040133","香川県高松市太田上町４２０番地１","歯科","高松市","アップル矯正歯科・小児歯科","","谷本　幸多朗","2023/9/1","087-868-7777","歯科、矯正歯科、小児歯科、歯科口腔外科","","","香川県","372013"
"jp.takamatsu.smartcity.medical.Hospital.432","34.349082","134.038874","香川県高松市浜ノ町９番９号","歯科","高松市","伊東歯科矯正歯科医院","理事長　伊東　正志","医療法人社団伊東歯科矯正歯科医院","2023/10/1","087-826-2118","歯科、矯正歯科、小児歯科","","","香川県","372013"
"jp.takamatsu.smartcity.medical.Hospital.433","34.270383","134.009785","香川県高松市川部町４６０番地６","歯科","高松市","木田歯科医院","","木田　一秀","1987/1/5","087-885-1500","歯科、小児歯科","","","香川県","372013"
"jp.takamatsu.smartcity.medical.Hospital.434","34.290825","134.008479","香川県高松市円座町５２２番地","歯科","高松市","河北歯科医院","","池内　孝芳","1988/4/1","087-885-2436","歯科","","","香川県","372013"
"jp.takamatsu.smartcity.medical.Hospital.435","34.342919","134.055731","香川県高松市築地町５番地１","歯科","高松市","医療法人社団湖﨑歯科クリニック","理事長　湖﨑　武秀","医療法人社団湖﨑歯科クリニック","1990/1/1","087-821-6949","歯科、矯正歯科、歯科口腔外科","","","香川県","372013"
"jp.takamatsu.smartcity.medical.Hospital.436","34.338465","134.089901","香川県高松市春日町１６４３番地９","歯科","高松市","春日歯科クリニック","","豊島　泰介","1990/5/14","087-843-4181","歯科、矯正歯科、小児歯科","","","香川県","372013"
"jp.takamatsu.smartcity.medical.Hospital.437","34.311422","134.072107","香川県高松市木太町４６６番地６","歯科","高松市","木村歯科医院","","木村　元厚","1990/6/11","087-865-7788","歯科、小児歯科、歯科口腔外科","","","香川県","372013"
"jp.takamatsu.smartcity.medical.Hospital.438","34.346472","134.037067","香川県高松市扇町一丁目２２番１２号","歯科","高松市","川西歯科医院","","川西　英三","1991/4/1","087-821-1080","歯科","","","香川県","372013"
"jp.takamatsu.smartcity.medical.Hospital.439","34.345033","134.0497","香川県高松市磨屋町１番地１","歯科","高松市","金倉歯科医院","","金倉　圭一","1993/1/4","087-826-2223","歯科、小児歯科","","","香川県","372013"
"jp.takamatsu.smartcity.medical.Hospital.440","34.312452","134.083039","香川県高松市元山町１１６３番地１２","歯科","高松市","久保歯科クリニック","理事長　久保　和子","医療法人社団里春会","1994/6/15","087-865-6600","歯科、矯正歯科、小児歯科","","","香川県","372013"
"jp.takamatsu.smartcity.medical.Hospital.441","34.286552","134.112636","香川県高松市亀田町４３８番地１２","歯科","高松市","こうじ歯科クリニック","","木村　幸司","2000/8/1","087-847-4874","歯科、小児歯科","","","香川県","372013"
"jp.takamatsu.smartcity.medical.Hospital.442","34.286233","134.000754","香川県高松市中間町川向２２番地１","歯科","高松市","くにしげ歯科医院","","国重　俊郎","2002/10/1","087-885-8801","歯科、小児歯科、歯科口腔外科","","","香川県","372013"
"jp.takamatsu.smartcity.medical.Hospital.443","34.326976","134.057552","香川県高松市今里町一丁目８番地１９","歯科","高松市","医療法人社団こう歯科医院","理事長　髙　孝輝","医療法人社団こう歯科医院","2002/11/1","087-832-2525","歯科、小児歯科、歯科口腔外科","","","香川県","372013"
"jp.takamatsu.smartcity.medical.Hospital.444","34.346886","134.041927","香川県高松市錦町二丁目７番８号","歯科","高松市","亀田歯科医院","","亀田　好司","2003/9/1","087-821-7619","歯科、小児歯科、歯科口腔外科","","","香川県","372013"
"jp.takamatsu.smartcity.medical.Hospital.445","34.341545","134.095505","香川県高松市屋島西町１４５４番地１","歯科","高松市","医療法人社団久保歯科医院","理事長　久保　謙二","医療法人社団久保歯科医院","2004/9/1","087-843-3001","歯科、矯正歯科、小児歯科","","","香川県","372013"
"jp.takamatsu.smartcity.medical.Hospital.446","34.303159","133.95577","香川県高松市国分寺町国分２９４番地７","歯科","高松市","川﨑歯科医院","","川﨑　恵美子","1977/3/1","087-874-2363","歯科","","","香川県","372013"
"jp.takamatsu.smartcity.medical.Hospital.447","34.284922","134.048232","香川県高松市出作町３８３番地１","歯科","高松市","きくしま歯科医院","","菊島　将臣","2006/7/1","087-889-1182","歯科、小児歯科","","","香川県","372013"
"jp.takamatsu.smartcity.medical.Hospital.448","34.336247","134.040099","香川県高松市亀岡町１４番１８号","歯科","高松市","北岡歯科診療所","","亀井　智子","2009/1/1","087-862-5549","歯科","","","香川県","372013"
"jp.takamatsu.smartcity.medical.Hospital.449","34.311371","134.058468","香川県高松市伏石町２０９６番地４","歯科","高松市","上里歯科医院","","山岸　奈名","2009/2/28","087-867-6480","歯科、小児歯科、歯科口腔外科","","","香川県","372013"
"jp.takamatsu.smartcity.medical.Hospital.450","34.33983","134.052159","香川県高松市瓦町二丁目６番地２１　ラ・ブームビル２Ｆ","歯科","高松市","瓦町矯正歯科","高橋　巧","医療法人瓦町矯正歯科","2025/4/1","087-834-4187","矯正歯科","","","香川県","372013"
"jp.takamatsu.smartcity.medical.Hospital.451","34.302917","134.052734","香川県高松市太田下町３０３５番地７","歯科","高松市","こばやし歯科・小児歯科クリニック","理事長　小林　弘茂","医療法人スマイルデザイン","2009/12/1","087-867-8228","歯科、小児歯科","","","香川県","372013"
"jp.takamatsu.smartcity.medical.Hospital.452","34.263447","134.030569","香川県高松市香川町大野１４９番地１","歯科","高松市","かさいデンタルクリニック","","笠井　真一","2010/5/6","087-813-8217","歯科、矯正歯科、小児歯科、歯科口腔外科","","","香川県","372013"
"jp.takamatsu.smartcity.medical.Hospital.453","34.319838","134.071983","香川県高松市木太町１２４５番地１","歯科","高松市","樫デンタルクリニック","","樫　圭一","2010/6/2","087-813-8461","歯科、小児歯科","","","香川県","372013"
"jp.takamatsu.smartcity.medical.Hospital.454","34.3223","134.068352","香川県高松市木太町１１４５番地１　新和開発ビル１Ｆ","歯科","高松市","かみやま歯科医院","","神山　拓也","2010/6/15","087-835-6480","歯科、小児歯科、歯科口腔外科","","","香川県","372013"
"jp.takamatsu.smartcity.medical.Hospital.455","34.321753","134.079059","香川県高松市木太町３８６８番地","歯科","高松市","木太東歯科","","梶本　淳也","2012/4/20","070-5514-3869","歯科","","","香川県","372013"
"jp.takamatsu.smartcity.medical.Hospital.456","34.344654","134.046366","香川県高松市番町一丁目３番３０号","歯科","高松市","川上矯正歯科医院","理事長　中村　恵実","医療法人昭和会","2012/10/1","087-822-4888","歯科、矯正歯科","","","香川県","372013"
"jp.takamatsu.smartcity.medical.Hospital.457","34.340212","134.045634","香川県高松市天神前４番３３号","歯科","高松市","亀井歯科医院","","亀井　稔之","2013/4/8","087-831-6891","歯科、小児歯科","","","香川県","372013"
"jp.takamatsu.smartcity.medical.Hospital.458","34.335818","134.097384","香川県高松市新田町甲３番地８","歯科","高松市","医療法人社団かわにし歯科クリニック","理事長　川西　毅","医療法人社団かわにし歯科クリニック","2017/9/1","087-870-0444","歯科、小児歯科","","","香川県","372013"
"jp.takamatsu.smartcity.medical.Hospital.459","34.337387","134.140568","香川県高松市牟礼町牟礼３番地１","歯科","高松市","小西歯科医院","理事長　小西　賢二","医療法人社団小西歯科医院","2019/4/1","087-845-3535","歯科、矯正歯科、小児歯科、歯科口腔外科","","","香川県","372013"
"jp.takamatsu.smartcity.medical.Hospital.460","34.325427","134.071484","香川県高松市木太町１８３７番地５","歯科","高松市","木太デンタルクリニック","","山下　智弘","2019/4/11","087-862-1461","歯科、小児歯科","","","香川県","372013"
"jp.takamatsu.smartcity.medical.Hospital.461","34.29605","134.03778","香川県高松市三名町字大下７２３番地１","歯科","高松市","医療法人社団かたぎり歯科クリニック","片桐　幸大","医療法人社団かたぎり歯科クリニック","2025/4/1","087-867-8046","歯科、小児歯科、歯科口腔外科","","","香川県","372013"
"jp.takamatsu.smartcity.medical.Hospital.462","34.327","133.9951","香川県高松市鬼無町藤井５９番地５","歯科","高松市","小山歯科医院","","小山　力","2019/11/1","087-882-1711","歯科","","","香川県","372013"
"jp.takamatsu.smartcity.medical.Hospital.463","34.342254","134.038539","香川県高松市番町三丁目２０番１５号","歯科","高松市","香川大学前はこざき歯科医院","理事長　箱崎　達司","医療法人社団F＆C","1990/6/1","087-813-0418","歯科、矯正歯科、小児歯科、歯科口腔外科","","","香川県","372013"
"jp.takamatsu.smartcity.medical.Hospital.464","34.337635","134.036571","香川県高松市宮脇町一丁目３２番２５号","歯科","高松市","神原歯科医院","","神原　圭","2021/6/1","087-834-4102","歯科、小児歯科、歯科口腔外科","","","香川県","372013"
"jp.takamatsu.smartcity.medical.Hospital.465","34.33761","134.03657","香川県高松市宮脇町一丁目３２番２５号","歯科","高松市","神原歯科医院","","神原　圭","2021/6/1","087-834-4102","歯科、小児歯科、歯科口腔外科","","","香川県","372013"
"jp.takamatsu.smartcity.medical.Hospital.466","34.339629","134.051472","香川県高松市瓦町二丁目７番地１４","歯科","高松市","小谷歯科医院","","種田　博道","2022/9/5","087-834-2393","歯科、小児歯科","","","香川県","372013"
"jp.takamatsu.smartcity.medical.Hospital.467","34.28963","133.961453","香川県高松市国分寺町新名６９４番地１","歯科","高松市","医療法人社団桜樹会こまつ歯科クリニック","理事長　小松　弘明","医療法人社団桜樹会こまつ歯科クリニック","2022/10/1","087-899-6722","歯科、小児歯科、歯科口腔外科","","","香川県","372013"
"jp.takamatsu.smartcity.medical.Hospital.468","34.321786","134.001101","香川県高松市飯田町６７１−１","歯科","高松市","久保おとなこども歯科医院","","久保　孟士","2025/01/01","087-884-2870","歯科、小児歯科、歯科口腔外科","","","香川県","372013"
"jp.takamatsu.smartcity.medical.Hospital.469","34.322162","134.059454","香川県高松市松縄町５１番地１８","歯科","高松市","シミズ歯科医院","","清水　延哲","1993/4/1","087-867-0046","歯科、矯正歯科、小児歯科","","","香川県","372013"
"jp.takamatsu.smartcity.medical.Hospital.470","34.341319","134.000112","香川県高松市香西南町４７２番地　２Ｆ","歯科","高松市","塩井歯科医院","","塩井　正志","1993/4/20","087-881-6626","歯科、小児歯科","","","香川県","372013"
"jp.takamatsu.smartcity.medical.Hospital.471","34.331746","134.046753","香川県高松市栗林町一丁目３番２４号","歯科","高松市","生協へいわ歯科診療所","理事長　北原　孝夫","香川医療生活協同組合","1994/4/11","087-837-6480","歯科、小児歯科","","","香川県","372013"
"jp.takamatsu.smartcity.medical.Hospital.472","34.320403","134.049922","香川県高松市上之町三丁目９番２８号","歯科","高松市","関元歯科医院","","関元　直登","1987/3/11","087-867-7431","歯科、小児歯科、歯科口腔外科","","","香川県","372013"
"jp.takamatsu.smartcity.medical.Hospital.473","34.308615","134.018931","香川県高松市勅使町５３６番地２","歯科","高松市","サナダ歯科","","真田　晋作","1996/6/5","087-840-0648","歯科、小児歯科","","","香川県","372013"
"jp.takamatsu.smartcity.medical.Hospital.474","34.33404","134.058403","香川県高松市花園町一丁目１０番４５号","歯科","高松市","医療法人社団宿南歯科医院","理事長　竹山　俊介","医療法人社団宿南歯科医院","2001/9/1","087-834-5580","歯科","","","香川県","372013"
"jp.takamatsu.smartcity.medical.Hospital.475","34.338458","134.04889","香川県高松市田町１番地２","歯科","高松市","医療法人社団スガタ歯科医院","理事長　菅田　貴志","医療法人社団スガタ歯科医院","2003/9/1","087-835-1001","歯科、矯正歯科、小児歯科、歯科口腔外科","","","香川県","372013"
"jp.takamatsu.smartcity.medical.Hospital.476","34.342196","134.03168","香川県高松市昭和町二丁目１５番１号","歯科","高松市","すみたに歯科・矯正歯科医院","","住谷　光治","2004/3/11","087-831-7080","歯科、矯正歯科、小児歯科","","","香川県","372013"
"jp.takamatsu.smartcity.medical.Hospital.477","34.340327","134.045005","香川県高松市天神前５番６号−５Ｆ","歯科","高松市","さいとう歯科クリニック","","齋藤　隆司","2004/10/4","087-835-1117","歯科、矯正歯科、小児歯科、歯科口腔外科","","","香川県","372013"
"jp.takamatsu.smartcity.medical.Hospital.478","34.350131","134.041415","香川県高松市浜ノ町６３番２号","歯科","高松市","サンポート歯科","理事長　吉田　淳一","医療法人社団ジュンアートアンドサイエンス","2005/10/1","087-851-5545","歯科、矯正歯科、小児歯科、歯科口腔外科","","","香川県","372013"
"jp.takamatsu.smartcity.medical.Hospital.479","34.300498","134.051824","香川県高松市多肥下町１５６２番地１５","歯科","高松市","医療法人社団弘誠会サンシャイン歯科","理事長　松原　弘樹","医療法人社団弘誠会","2005/11/4","087-815-0118","歯科、矯正歯科、小児歯科、歯科口腔外科","","","香川県","372013"
"jp.takamatsu.smartcity.medical.Hospital.480","34.282051","133.963562","香川県高松市国分寺町福家甲２９１９番地５","歯科","高松市","しもよこ歯科","","下横　輝雄","1998/10/2","087-874-5677","歯科、矯正歯科","","","香川県","372013"
"jp.takamatsu.smartcity.medical.Hospital.481","34.244612","134.031221","香川県高松市香川町川東下６４４番地１","歯科","高松市","諏訪歯科医院","","諏訪　一昭","2006/4/24","087-879-7746","歯科、小児歯科","","","香川県","372013"
"jp.takamatsu.smartcity.medical.Hospital.482","34.352625","134.004934","香川県高松市香西本町１番地１　イオン高松ＳＣ３Ｆ","歯科","高松市","医療法人社団弘誠会サンクリーン歯科","理事長　松原　弘樹","医療法人社団弘誠会","2007/4/2","087-882-8241","歯科、矯正歯科、小児歯科、歯科口腔外科","","","香川県","372013"
"jp.takamatsu.smartcity.medical.Hospital.483","34.33732","134.051315","香川県高松市常磐町二丁目８番地１０　Ｍａｃｒｏｐｈａｇｅ　Ｂｌｄｇ","歯科","高松市","JUN歯科クリニック","理事長　吉田　淳一","医療法人社団ジュンアートアンドサイエンス","2010/5/27","087-813-2123","歯科、小児歯科、歯科口腔外科","","","香川県","372013"
"jp.takamatsu.smartcity.medical.Hospital.484","34.264082","134.026326","香川県高松市香川町大野８６０番地３","歯科","高松市","さくら歯科医院","理事長　中根　高信","医療法人社団健進会","2014/10/1","087-885-4618","歯科、矯正歯科、小児歯科、歯科口腔外科","","","香川県","372013"
"jp.takamatsu.smartcity.medical.Hospital.485","34.330856","134.158","香川県高松市牟礼町原５９４番地１","歯科","高松市","医療法人社団しん治歯科医院","理事長　髙橋　伸治","医療法人社団しん治歯科医院","2016/3/1","087-845-6644","歯科、矯正歯科、小児歯科","","","香川県","372013"
"jp.takamatsu.smartcity.medical.Hospital.486","34.343808","134.131726","香川県高松市牟礼町牟礼１０３３番地１","歯科","高松市","渋谷歯科医院","","渋谷　敦人","2016/4/1","087-845-9506","歯科、矯正歯科、小児歯科、歯科口腔外科","","","香川県","372013"
"jp.takamatsu.smartcity.medical.Hospital.487","34.313356","134.083145","香川県高松市元山町１１９２番地１","歯科","高松市","しもむら歯科医院","理事長　下村　隼人","医療法人社団駿陽花","2021/4/1","087-805-7308","歯科","","","香川県","372013"
"jp.takamatsu.smartcity.medical.Hospital.488","34.272663","133.988817","香川県高松市岡本町１６７４番地３","歯科","高松市","すまいる歯科・矯正歯科","理事長　金岡　和博","医療法人青空会","2021/10/1","087-814-4111","歯科、矯正歯科、小児歯科、歯科口腔外科","","","香川県","372013"
"jp.takamatsu.smartcity.medical.Hospital.489","34.328717","134.060418","香川県高松市上福岡町２０３２番地２","歯科","高松市","すみれデンタルクリニック","","新川　修司","2023/4/18","087-880-8246","歯科、小児歯科","","","香川県","372013"
"jp.takamatsu.smartcity.medical.Hospital.490","34.340296","134.048166","香川県高松市亀井町８番地４","歯科","高松市","医療法人社団聖ステラマリス会三枝デンタルオフィス","理事長　三枝　尚登","医療法人社団聖ステラマリス会三枝デンタルオフィス","2024/2/20","087-833-5008","歯科","","","香川県","372013"
"jp.takamatsu.smartcity.medical.Hospital.491","34.276505","134.084779","香川県高松市川島本町１８９番地１","歯科","高松市","佐々木歯科医院","","佐々木　將員","2024/9/1","087-848-0142","歯科、小児歯科、歯科口腔外科","","","香川県","372013"
"jp.takamatsu.smartcity.medical.Hospital.492","34.344825","134.074508","香川県高松市福岡町三丁目３６番２３号","歯科","高松市","高松歯科診療所","会長　今城　広治","公益社団法人高松市歯科医師会","1980/5/1","087-851-1167","歯科","","","香川県","372013"
"jp.takamatsu.smartcity.medical.Hospital.493","34.342203","134.040627","香川県高松市番町三丁目１５番２１号","歯科","高松市","高橋歯科医院","","高橋　博之","1983/8/1","087-833-3328","歯科、小児歯科、歯科口腔外科","","","香川県","372013"
"jp.takamatsu.smartcity.medical.Hospital.494","34.319765","134.053289","香川県高松市伏石町１４２８番地１６","歯科","高松市","としま歯科医院","","豊島　雄一","1985/7/1","087-865-7878","歯科、小児歯科、歯科口腔外科","","","香川県","372013"
"jp.takamatsu.smartcity.medical.Hospital.495","34.351146","134.026904","香川県高松市新北町１番１１号","歯科","高松市","立本歯科診療所","","立本　悟","1995/11/1","087-862-2001","歯科","","","香川県","372013"
"jp.takamatsu.smartcity.medical.Hospital.496","34.354422","134.090337","香川県高松市屋島西町２４７９番地２７","歯科","高松市","つかだ歯科医院","","塚田　英治","1998/7/1","087-844-9082","歯科、小児歯科","","","香川県","372013"
"jp.takamatsu.smartcity.medical.Hospital.497","34.279945","134.048087","香川県高松市仏生山町乙５４番地７","歯科","高松市","谷本歯科医院","","徳丸　和代","1998/9/13","087-889-0644","歯科、小児歯科","","","香川県","372013"
"jp.takamatsu.smartcity.medical.Hospital.498","34.335771","134.044502","香川県高松市中央町１６番１７号　西村会計事務所ビル２Ｆ","歯科","高松市","たけい歯科クリニック","","武井　延哲","2000/1/4","087-862-5482","歯科、小児歯科、歯科口腔外科","","","香川県","372013"
"jp.takamatsu.smartcity.medical.Hospital.499","34.33771","134.05404","香川県高松市塩上町一丁目５番３号","歯科","高松市","高橋歯科医院（休止中）","","髙橋　利之","2001/6/27","087-833-5564","歯科、小児歯科","","","香川県","372013"
"jp.takamatsu.smartcity.medical.Hospital.500","34.316661","134.073372","香川県高松市木太町７９２番地６","歯科","高松市","多田歯科医院","","多田　彰仁","2001/8/3","087-815-2010","歯科、矯正歯科、小児歯科","","","香川県","372013"
"jp.takamatsu.smartcity.medical.Hospital.501","34.345317","134.001202","香川県高松市香西本町３１１番地","歯科","高松市","医療法人社団グローバル会デンタルステーション谷本歯科医院","理事長　谷本　佳彦","医療法人社団グローバル会","2002/8/1","087-882-1181","歯科、矯正歯科、小児歯科","","","香川県","372013"
"jp.takamatsu.smartcity.medical.Hospital.502","34.346158","134.046779","香川県高松市古新町５番地１","歯科","高松市","医療法人社団新樹会豊嶋歯科医院","理事長　豊嶋　健治","医療法人社団新樹会","2003/1/1","087-822-6575","歯科、矯正歯科、小児歯科、歯科口腔外科","","","香川県","372013"
"jp.takamatsu.smartcity.medical.Hospital.503","34.3062","133.997616","香川県高松市檀紙町１５１４番地１","歯科","高松市","医療法人社団鳥かい歯科医院","理事長　鳥養　弘一","医療法人社団鳥かい歯科医院","2003/4/1","087-885-2525","歯科、小児歯科、歯科口腔外科","","","香川県","372013"
"jp.takamatsu.smartcity.medical.Hospital.504","34.336559","134.050079","香川県高松市東田町１番地１　今竹ビル２Ｆ","歯科","高松市","田町たかはし歯科医院","","髙橋　利友","2003/8/1","087-837-7205","歯科、小児歯科、歯科口腔外科","","","香川県","372013"
"jp.takamatsu.smartcity.medical.Hospital.505","34.335662","134.139889","香川県高松市牟礼町大町１５５０番地１０","歯科","高松市","たけま歯科医院","","竹間　和重","1999/10/1","087-870-1360","歯科、小児歯科","","","香川県","372013"
"jp.takamatsu.smartcity.medical.Hospital.506","34.344687","134.016858","香川県高松市郷東町１３４番地１","歯科","高松市","医療法人社団グローバル会デンタルステーションスマイル歯科医院","理事長　谷本　佳彦","医療法人社団グローバル会","2007/2/14","087-832-8844","歯科、矯正歯科、小児歯科、歯科口腔外科","","","香川県","372013"
"jp.takamatsu.smartcity.medical.Hospital.507","34.239669","134.00637","香川県高松市香南町横井９８９番地１","歯科","高松市","月見ケ丘歯科クリニック","","尾崎　正幸","2007/5/18","087-879-0220","歯科、小児歯科","","","香川県","372013"
"jp.takamatsu.smartcity.medical.Hospital.508","34.321862","134.045796","香川県高松市上之町一丁目４番５号","歯科","高松市","たにぐち歯科医院","","谷口　徳広","2008/1/10","087-816-7551","歯科、小児歯科","","","香川県","372013"
"jp.takamatsu.smartcity.medical.Hospital.509","34.294229","133.963925","香川県高松市国分寺町福家甲３８５３番地６","歯科","高松市","つつみ歯科医院","","堤　久雄","2009/3/23","087-874-7373","歯科、小児歯科、歯科口腔外科","","","香川県","372013"
"jp.takamatsu.smartcity.medical.Hospital.510","34.341028","134.054997","香川県高松市塩屋町１１番地１６","歯科","高松市","高松歯科口腔外科クリニック","","細江　美知","2009/8/21","087-813-1666","歯科、口腔外科","","","香川県","372013"
"jp.takamatsu.smartcity.medical.Hospital.511","34.307921","134.091619","香川県高松市東山崎町６６８番地１","歯科","高松市","医療法人社団グローバル会デンタルステーションピース歯科医院","理事長　谷本　佳彦","医療法人社団グローバル会","2009/9/1","087-847-2525","歯科、矯正歯科、小児歯科、歯科口腔外科","","","香川県","372013"
"jp.takamatsu.smartcity.medical.Hospital.512","34.323337","134.092861","香川県高松市春日町４８５番地１５","歯科","高松市","医療法人社団てらい歯科矯正歯科","理事長　寺井　邦博","医療法人社団てらい歯科矯正歯科","2009/11/1","087-844-4187","歯科、矯正歯科、小児歯科、歯科口腔外科","","","香川県","372013"
"jp.takamatsu.smartcity.medical.Hospital.513","34.30533","134.069034","香川県高松市林町２５３８番地１０","歯科","高松市","医療法人優心会高松大塚歯科医院","理事長　大塚　秀人","医療法人優心会","2013/6/1","087-815-2424","歯科","","","香川県","372013"
"jp.takamatsu.smartcity.medical.Hospital.514","34.352408","134.046631","香川県高松市サンポート２番１号　９Ｆ","歯科","高松市","武田歯科医院","","武田　聡史","2015/8/18","087-822-0972","歯科","","","香川県","372013"
"jp.takamatsu.smartcity.medical.Hospital.515","34.348073","134.047595","香川県高松市西内町１番６号　アルファリビング高松駅前","歯科","高松市","高松駅前アルファ歯科クリニック","理事長　池田　耕士","医療法人アルファ","2016/4/1","087-821-2418","歯科、小児歯科、歯科口腔外科","","","香川県","372013"
"jp.takamatsu.smartcity.medical.Hospital.516","34.30651","133.990193","香川県高松市御厩町４７６番地","歯科","高松市","高田歯科口腔外科医院","","髙田　匡基","2017/10/10","087-886-4600","歯科、矯正歯科、歯科口腔外科","","","香川県","372013"
"jp.takamatsu.smartcity.medical.Hospital.517","34.329099","134.047029","香川県高松市栗林町一丁目９番１６号","歯科","高松市","佃歯科医院","理事長　佃　肇","医療法人つくだ歯科医院","2018/3/16","087-831-8244","歯科、矯正歯科、小児歯科、歯科口腔外科","","","香川県","372013"
"jp.takamatsu.smartcity.medical.Hospital.518","34.341293","134.030637","香川県高松市西宝町一丁目４番２１号","歯科","高松市","つばさ歯科医院","","奥谷　諭","2019/7/1","087-802-0418","歯科、矯正歯科、小児歯科、歯科口腔外科","","","香川県","372013"
"jp.takamatsu.smartcity.medical.Hospital.519","34.338251","134.051074","香川県高松市常磐町一丁目９番地１４","歯科","高松市","谷口歯科医院","","谷口　潔","2020/6/8","087-831-8020","歯科","","","香川県","372013"
"jp.takamatsu.smartcity.medical.Hospital.520","34.327023","134.093562","香川県高松市春日町８１２番地１","歯科","高松市","たかまつファミリー歯科医院","理事長　髙松　昇一郎","医療法人高志会","2022/4/1","087-813-8788","歯科、矯正歯科、小児歯科、歯科口腔外科","","","香川県","372013"
"jp.takamatsu.smartcity.medical.Hospital.521","34.328849","134.064336","香川県高松市上福岡町９８５番地１","歯科","高松市","高松プレモ歯科クリニック","理事長　加藤　茂俊","医療法人社団愛生会","2023/5/1","087-814-4618","歯科、矯正歯科、小児歯科、歯科口腔外科","","","香川県","372013"
"jp.takamatsu.smartcity.medical.Hospital.522","34.315438","134.030143","香川県高松市田村町３２１番地１","歯科","高松市","医療法人社団グローバル会デンタルステーションりつりん歯科医院","理事長　谷本　佳彦","医療法人社団グローバル会","2024/4/4","087-867-1181","歯科、小児歯科、歯科口腔外科","","","香川県","372013"
"jp.takamatsu.smartcity.medical.Hospital.523","34.309157","134.053492","香川県高松市伏石町２１３７−２０","歯科","高松市","高松イイハ歯科","","米田　照英","2024/11/8","087-865-1180","歯科、矯正歯科、小児歯科","","","香川県","372013"
"jp.takamatsu.smartcity.medical.Hospital.524","34.288465","134.051118","香川県高松市多肥上町５０９番地１","歯科","高松市","中村歯科医院","","中村　公士","1980/4/1","087-888-1211","歯科、小児歯科","","","香川県","372013"
"jp.takamatsu.smartcity.medical.Hospital.525","34.34467","134.015894","香川県高松市郷東町１３６番地６","歯科","高松市","西谷歯科医院","","西谷　義則","1985/10/1","087-882-8800","歯科","","","香川県","372013"
"jp.takamatsu.smartcity.medical.Hospital.526","34.309724","134.054193","香川県高松市伏石町２１２６番地７","歯科","高松市","永原歯科医院","","永原　滋万","1986/1/3","087-866-1115","歯科、小児歯科、歯科口腔外科","","","香川県","372013"
"jp.takamatsu.smartcity.medical.Hospital.527","34.290086","134.020909","香川県高松市一宮町１５９１番地６","歯科","高松市","なかむら歯科医院","","中村　久美","1992/6/15","087-885-5655","歯科、小児歯科","","","香川県","372013"
"jp.takamatsu.smartcity.medical.Hospital.528","34.341866","134.066835","香川県高松市松福町二丁目１０−６","歯科","高松市","医療法人社団永木歯科医院","理事長　永木　孝典","医療法人社団永木歯科医院","1996/01/01","087-823-1188","歯科、小児歯科","","","香川県","372013"
"jp.takamatsu.smartcity.medical.Hospital.529","34.326783","134.047525","香川県高松市花ノ宮町一丁目１番２７号","歯科","高松市","中山歯科クリニック","","中山　康弘","2004/8/1","087-863-7730","歯科、歯科口腔外科","","","香川県","372013"
"jp.takamatsu.smartcity.medical.Hospital.530","34.337651","134.044286","香川県高松市中央町５番２９号","歯科","高松市","中山歯科医院","","中山　盛幹","2005/2/1","087-833-6233","歯科","","","香川県","372013"
"jp.takamatsu.smartcity.medical.Hospital.531","34.272084","134.035696","香川県高松市仏生山町甲１４１６番地１","歯科","高松市","医療法人社団皓歯会西村歯科医院","理事長　西村　健司","医療法人社団皓歯会","2005/8/1","087-889-1811","歯科、矯正歯科、小児歯科","","","香川県","372013"
"jp.takamatsu.smartcity.medical.Hospital.532","34.314448","134.053968","香川県高松市伏石町２０５６番地３","歯科","高松市","医療法人社団西原歯科医院","理事長　西原　実男","医療法人社団西原歯科医院","2006/1/1","087-868-3535","歯科、小児歯科、歯科口腔外科","","","香川県","372013"
"jp.takamatsu.smartcity.medical.Hospital.533","34.307605","133.973793","香川県高松市国分寺町新居３３８５番地１","歯科","高松市","新居歯科医院","","新居　賢","1999/5/1","087-874-0116","歯科","","","香川県","372013"
"jp.takamatsu.smartcity.medical.Hospital.534","34.259998","134.034437","香川県高松市香川町浅野６２４番地７","歯科","高松市","ながまち歯科医院","","長町　直樹","1994/7/14","087-888-6001","歯科、小児歯科","","","香川県","372013"
"jp.takamatsu.smartcity.medical.Hospital.535","34.255487","134.035912","香川県高松市香川町浅野１０５３番地７","歯科","高松市","ぬまた歯科医院","","沼田　浩","2000/12/5","087-879-0661","歯科、小児歯科","","","香川県","372013"
"jp.takamatsu.smartcity.medical.Hospital.536","34.338261","134.058145","香川県高松市塩上町三丁目１４番１７号","歯科","高松市","西岡歯科医院","","西岡　士郎","2007/9/1","087-831-1987","歯科","","","香川県","372013"
"jp.takamatsu.smartcity.medical.Hospital.537","34.331135","134.050815","香川県高松市栗林町二丁目１０番１３号","歯科","高松市","なかつか歯科医院","","中塚　智雄","2007/7/18","087-862-3150","歯科、小児歯科、歯科口腔外科","","","香川県","372013"
"jp.takamatsu.smartcity.medical.Hospital.538","34.343982","134.038701","香川県高松市扇町二丁目７番１号　岡ビル１Ｆ","歯科","高松市","にしくぼ歯科医院","","西窪　政人","2010/11/9","087-813-2088","歯科、矯正歯科、小児歯科、歯科口腔外科","","","香川県","372013"
"jp.takamatsu.smartcity.medical.Hospital.539","34.333694","134.080126","香川県高松市木太町２５６５番地４","歯科","高松市","長町歯科クリニック","","長町　健史","2011/11/4","087-813-4618","歯科、小児歯科、歯科口腔外科","","","香川県","372013"
"jp.takamatsu.smartcity.medical.Hospital.540","34.289414","134.028092","香川県高松市一宮町７８３番地７−１Ｆ","歯科","高松市","西クリニック歯科","","西　稚子","2014/7/14","087-899-6712","歯科、小児歯科","","","香川県","372013"
"jp.takamatsu.smartcity.medical.Hospital.541","34.282633","134.046467","香川県高松市仏生山町甲３７０番地３","歯科","高松市","新田歯科医院（休止中）","","新田　浩樹","2016/3/1","087-888-4618","歯科、小児歯科","","","香川県","372013"
"jp.takamatsu.smartcity.medical.Hospital.542","34.311107","134.091367","香川県高松市東山崎町７０４番地１","歯科","高松市","新枝歯科医院","理事長　新枝　誉志也","医療法人社団Brilliant　Smile","2019/4/1","087-847-2118","歯科、矯正歯科、歯科口腔外科","","","香川県","372013"
"jp.takamatsu.smartcity.medical.Hospital.543","34.338973","134.110724","香川県高松市高松町２４８１番地１","歯科","高松市","医療法人社団長束歯科医院","理事長　門間　悠介","医療法人社団長束歯科医院","2022/7/1","087-843-1818","歯科、小児歯科、歯科口腔外科","","","香川県","372013"
"jp.takamatsu.smartcity.medical.Hospital.544","34.34327","134.053109","香川県高松市御坊町４番地１９−２Ｆ","歯科","高松市","広瀬歯科医院","","広瀬　佳史","1972/7/1","087-851-3383","歯科","","","香川県","372013"
"jp.takamatsu.smartcity.medical.Hospital.545","34.338955","134.047687","香川県高松市亀井町１２番地４　日の出ビル２Ｆ","歯科","高松市","細川歯科クリニック","","細川　雅敬","1979/3/1","087-835-2056","歯科","","","香川県","372013"
"jp.takamatsu.smartcity.medical.Hospital.546","34.338607","134.046479","香川県高松市天神前９番２５号","歯科","高松市","平池歯科医院","","平池　洋一郎","1981/1/6","087-835-0295","歯科","","","香川県","372013"
"jp.takamatsu.smartcity.medical.Hospital.547","34.335564","134.053259","香川県高松市藤塚町三丁目１番１０号","歯科","高松市","フジツカ三好歯科医院","","三好　貴美子","1981/4/1","087-831-3025","歯科","","","香川県","372013"
"jp.takamatsu.smartcity.medical.Hospital.548","34.34705","134.028585","香川県高松市瀬戸内町１６番１３号","歯科","高松市","藤本歯科医院","","藤本　幸重","1986/6/7","087-837-1182","歯科","","","香川県","372013"
"jp.takamatsu.smartcity.medical.Hospital.549","34.344453","134.025053","香川県高松市西宝町一丁目１０番１２号−２Ｆ","歯科","高松市","坂東歯科クリニック","","坂東　達矢","1990/10/4","087-837-6487","歯科、小児歯科、歯科口腔外科","","","香川県","372013"
"jp.takamatsu.smartcity.medical.Hospital.550","34.340833","134.053231","香川県高松市福田町１４番地１８","歯科","高松市","堀歯科診療所","","堀　祥二","1991/3/1","087-821-5773","歯科、矯正歯科、小児歯科","","","香川県","372013"
"jp.takamatsu.smartcity.medical.Hospital.551","34.345186","134.051223","香川県高松市百間町９番地２","歯科","高松市","林歯科医院","","林　秀樹","1991/7/1","087-821-3684","歯科","","","香川県","372013"
"jp.takamatsu.smartcity.medical.Hospital.552","34.340813","134.039256","香川県高松市番町四丁目１１番３号","歯科","高松市","番町歯科クリニック","","多田　爲則","1992/10/1","087-861-0008","歯科、小児歯科","","","香川県","372013"
"jp.takamatsu.smartcity.medical.Hospital.553","34.33573","134.05969","香川県高松市多賀町二丁目１５番１７号","歯科","高松市","馬場歯科医院","","馬場　勝也","1993/5/1","087-835-2884","歯科","","","香川県","372013"
"jp.takamatsu.smartcity.medical.Hospital.554","34.315474","134.061973","香川県高松市松縄町１１０４番地２","歯科","高松市","ふじわら歯科医院","","藤原　和彦","1996/5/14","087-865-5884","歯科、小児歯科","","","香川県","372013"
"jp.takamatsu.smartcity.medical.Hospital.555","34.310537","134.061543","香川県高松市松縄町１１４３番地３","歯科","高松市","ひまわり歯科医院","","永原　義章","1997/5/20","087-868-5151","歯科、小児歯科、歯科口腔外科","","","香川県","372013"
"jp.takamatsu.smartcity.medical.Hospital.556","34.311531","134.10463","香川県高松市新田町乙２５番地３４","歯科","高松市","ほりうち歯科","","堀内　正純","2002/10/1","087-841-0648","歯科、小児歯科","","","香川県","372013"
"jp.takamatsu.smartcity.medical.Hospital.557","34.344783","134.047129","香川県高松市紺屋町４番地７","歯科","高松市","平田歯科医院","","平田　成志","2003/4/1","087-821-7459","歯科","","","香川県","372013"
"jp.takamatsu.smartcity.medical.Hospital.558","34.316816","134.041731","香川県高松市三条町６０８番地１　ゆめタウン高松２Ｆ","歯科","高松市","医療法人白樹会フラワー歯科","理事長　白井　広樹","医療法人白樹会","2004/3/15","087-815-1211","歯科、矯正歯科、小児歯科、歯科口腔外科","","","香川県","372013"
"jp.takamatsu.smartcity.medical.Hospital.559","34.32573","134.101864","香川県高松市新田町甲６５３番地１０","歯科","高松市","はまおか歯科医院","","濱岡　宏典","2005/11/21","087-844-3755","歯科、小児歯科、歯科口腔外科","","","香川県","372013"
"jp.takamatsu.smartcity.medical.Hospital.560","34.239316","134.013737","香川県高松市香南町由佐１１５２番地","歯科","高松市","藤木歯科医院","","藤木　秀保","1990/5/24","087-879-1188","歯科、小児歯科、歯科口腔外科","","","香川県","372013"
"jp.takamatsu.smartcity.medical.Hospital.561","34.298923","133.996526","香川県高松市檀紙町７５７番地６","歯科","高松市","ハッピーデンタルクリニック","","香西　勝之","2007/4/3","087-816-4046","歯科、小児歯科","","","香川県","372013"
"jp.takamatsu.smartcity.medical.Hospital.562","34.347573","134.02609","香川県高松市西町１３番３１号","歯科","高松市","はる歯科診療室","","野口　卓司","2009/6/24","087-833-6480","歯科、矯正歯科、小児歯科、歯科口腔外科","","","香川県","372013"
"jp.takamatsu.smartcity.medical.Hospital.563","34.33419","134.048519","香川県高松市藤塚町一丁目７番２５号","歯科","高松市","藤塚歯科クリニック","","小山　貴生","2009/9/1","087-813-1103","歯科、小児歯科、歯科口腔外科","","","香川県","372013"
"jp.takamatsu.smartcity.medical.Hospital.564","34.295336","134.054207","香川県高松市多肥上町１２２３番地１９","歯科","高松市","平尾歯科クリニック","","平尾　史恵","2012/12/1","087-814-4015","歯科、小児歯科、歯科口腔外科","","","香川県","372013"
"jp.takamatsu.smartcity.medical.Hospital.565","34.337109","134.061099","香川県高松市多賀町二丁目５番６号","歯科","高松市","医療法人社団明恵会古市歯科医院","理事長　古市　貴暢","医療法人社団明恵会","2014/3/3","087-831-2810","歯科、小児歯科","","","香川県","372013"
"jp.takamatsu.smartcity.medical.Hospital.566","34.303096","134.052232","香川県高松市太田下町３０３８番地１２","歯科","高松市","ふくもと歯科クリニック","理事長　福本　善和","医療法人ふくもと歯科クリニック","2014/9/1","087-897-3388","歯科、矯正歯科、小児歯科、歯科口腔外科","","","香川県","372013"
"jp.takamatsu.smartcity.medical.Hospital.567","34.291509","134.074777","香川県高松市上林町字竹部６５番地１","歯科","高松市","医療法人社団裕歯科クリニック","理事長　西原　裕","医療法人社団裕歯科クリニック","2015/9/1","087-816-4618","歯科、小児歯科","","","香川県","372013"
"jp.takamatsu.smartcity.medical.Hospital.568","34.329673","134.069174","香川県高松市木太町２０６３番地６","歯科","高松市","ひらの歯科","","比良野　哲彦","2015/12/7","087-812-6480","歯科、小児歯科、歯科口腔外科","","","香川県","372013"
"jp.takamatsu.smartcity.medical.Hospital.569","34.316414","134.066256","香川県高松市木太町５０２３番地２５","歯科","高松市","医療法人友慈会フレンズ歯科クリニック","理事長　昌山　浩三","医療法人友慈会","2016/11/1","087-815-1181","歯科、矯正歯科、小児歯科、歯科口腔外科","","","香川県","372013"
"jp.takamatsu.smartcity.medical.Hospital.570","34.33674","134.10721","香川県高松市高松町５番地８","歯科","高松市","林歯科医院","理事長　林　秀樹","医療法人社団林歯科医院","2018/3/1","087-841-9026","歯科、矯正歯科、小児歯科","","","香川県","372013"
"jp.takamatsu.smartcity.medical.Hospital.571","34.34387","134.12246","香川県高松市牟礼町牟礼字川原２２１７番地３","歯科","高松市","晴里歯科医院","","山本　議仁","2019/5/1","087-802-1182","歯科、小児歯科、歯科口腔外科","","","香川県","372013"
"jp.takamatsu.smartcity.medical.Hospital.572","34.267506","134.025122","香川県高松市香川町大野１３２０番地１","歯科","高松市","フチダ歯科医院","","渕田　眞利子","2020/1/29","087-886-5117","歯科、小児歯科","","","香川県","372013"
"jp.takamatsu.smartcity.medical.Hospital.573","34.29945","134.07257","香川県高松市林町字宗高１１８３番地","歯科","高松市","医療法人フレッシュ歯科","理事長　田中　愼亮","医療法人フレッシュ歯科","2021/4/1","087-814-4181","歯科、矯正歯科、小児歯科、歯科口腔外科","","","香川県","372013"
"jp.takamatsu.smartcity.medical.Hospital.574","34.30144","134.07367","香川県高松市林町１４８７番地２","歯科","高松市","はやし歯科医院","理事長　林　直樹","医療法人社団緑林会","2019/11/1","087-802-8217","歯科・小児歯科","","","香川県","372013"
"jp.takamatsu.smartcity.medical.Hospital.575","34.282677","134.038073","香川県高松市仏生山町甲１８４７番地１","歯科","高松市","はしもと歯科","","橋本　信之介","2022/07/19","087-802-4664","歯科、矯正歯科、小児歯科、歯科口腔外科","","","香川県","372013"
"jp.takamatsu.smartcity.medical.Hospital.576","34.34642","134.049116","香川県高松市兵庫町２番地２　小島食器ビル１Ｆ","歯科","高松市","医療法人HTS兵庫町歯科","理事長　宿南　仁志","医療法人HTS","2022/6/1","087-851-8211","歯科、小児歯科、歯科口腔外科","","","香川県","372013"
"jp.takamatsu.smartcity.medical.Hospital.577","34.295293","134.057525","香川県高松市多肥上町１２９２番地１","歯科","高松市","プライム総合歯科クリニック","理事長　石井　弘之","医療法人社団白凛会","2023/9/1","087-813-8955","歯科、矯正歯科、小児歯科、歯科口腔外科","","","香川県","372013"
"jp.takamatsu.smartcity.medical.Hospital.578","34.34383","134.049447","香川県高松市紺屋町１０番地６","歯科","高松市","まつおか歯科医院","","松岡　利安","1979/8/5","087-821-6537","歯科","","","香川県","372013"
"jp.takamatsu.smartcity.medical.Hospital.579","34.291478","134.089243","香川県高松市下田井町６３３番地１","歯科","高松市","宮脇歯科医院","","宮脇　守男","1990/6/5","087-847-7757","歯科、矯正歯科、小児歯科、歯科口腔外科","","","香川県","372013"
"jp.takamatsu.smartcity.medical.Hospital.580","34.346952","134.049819","香川県高松市内町１番５号","歯科","高松市","三谷歯科診療所","","三谷　明弘","1993/1/4","087-821-5474","歯科","","","香川県","372013"
"jp.takamatsu.smartcity.medical.Hospital.581","34.333926","134.074295","香川県高松市木太町２３５１番地３","歯科","高松市","松井歯科医院","","松井　慎吾","2025/6/1","087-802-4618","歯科、小児歯科、歯科口腔外科","","","香川県","372013"
"jp.takamatsu.smartcity.medical.Hospital.582","34.32956","134.04888","香川県高松市栗林町二丁目１６番１４号２Ｆ","歯科","高松市","三好歯科医院","","三好　篤信","1996/3/29","087-831-4403","歯科、小児歯科","","","香川県","372013"
"jp.takamatsu.smartcity.medical.Hospital.583","34.344142","133.997347","香川県高松市香西西町７番地","歯科","高松市","松見歯科診療所","","松見　哲雄","1996/12/1","087-881-2323","歯科","","","香川県","372013"
"jp.takamatsu.smartcity.medical.Hospital.584","34.34694","134.05285","香川県高松市丸の内１１番１５号　松浦ビル５Ｆ","歯科","高松市","丸の内歯科","","岡　左永子","1998/4/1","087-821-1331","歯科、小児歯科、歯科口腔外科","","","香川県","372013"
"jp.takamatsu.smartcity.medical.Hospital.585","34.276832","134.093583","香川県高松市川島東町２７５番地１","歯科","高松市","医療法人社団松本歯科","理事長　松本　嗣央","医療法人社団松本歯科","2000/11/1","087-848-4182","歯科、矯正歯科、小児歯科、歯科口腔外科","","","香川県","372013"
"jp.takamatsu.smartcity.medical.Hospital.586","34.336853","134.04672","香川県高松市中央町１番５号−６Ｆ","歯科","高松市","医療法人社団セラ松崎ファミリー歯科矯正歯科","理事長　松﨑　晃","医療法人社団セラ松崎ファミリー歯科矯正歯科","2001/2/1","087-862-6222","歯科、矯正歯科、小児歯科","","","香川県","372013"
"jp.takamatsu.smartcity.medical.Hospital.587","34.32757","134.066349","香川県高松市上福岡町９１６番地４","歯科","高松市","まつした歯科医院","","松下　直弘","2003/2/1","087-863-6755","歯科、小児歯科、歯科口腔外科","","","香川県","372013"
"jp.takamatsu.smartcity.medical.Hospital.588","34.300178","134.044254","香川県高松市太田上町８７４番地３","歯科","高松市","守田歯科医院","","守田　浩一","2004/5/1","087-865-4410","歯科、歯科口腔外科","","","香川県","372013"
"jp.takamatsu.smartcity.medical.Hospital.589","34.299079","133.96362","香川県高松市国分寺町新居１０９１番地１","歯科","高松市","松本歯科診療所","","松本　幹夫","2005/10/1","087-875-1101","歯科、小児歯科、歯科口腔外科","","","香川県","372013"
"jp.takamatsu.smartcity.medical.Hospital.590","34.281875","133.966944","香川県高松市国分寺町福家甲２６３７番地１","歯科","高松市","みやわき歯科医院","","宮脇　　聡","1999/02/12","087-875-2442","歯科、小児歯科","","","",""
"jp.takamatsu.smartcity.medical.Hospital.591","34.383683","134.127948","香川県高松市庵治町６３８５番地１８","歯科","高松市","溝渕歯科医院","","溝渕　勝彦","1991/3/1","087-871-4808","歯科、小児歯科","","","香川県","372013"
"jp.takamatsu.smartcity.medical.Hospital.592","34.34839","134.123253","香川県高松市牟礼町牟礼２５３３番地２","歯科","高松市","三谷歯科医院","","三谷　裕子","1993/1/4","087-845-5780","歯科、矯正歯科、小児歯科","","","香川県","372013"
"jp.takamatsu.smartcity.medical.Hospital.593","34.34286","134.128293","香川県高松市牟礼町牟礼２１１２番地１","歯科","高松市","松木歯科医院","","松木　倫和","2003/2/1","087-845-8577","歯科、小児歯科、歯科口腔外科","","","香川県","372013"
"jp.takamatsu.smartcity.medical.Hospital.594","34.27708","133.994439","香川県高松市西山崎町８８６番地１","歯科","高松市","医療法人社団みつもり歯科医院","理事長　三森　康智","医療法人社団みつもり歯科医院","2006/4/1","087-886-8900","歯科、矯正歯科、小児歯科、歯科口腔外科","","","香川県","372013"
"jp.takamatsu.smartcity.medical.Hospital.595","34.301494","134.059566","香川県高松市多肥下町１５４８番地１４","歯科","高松市","医療法人社団佑逵会美美歯科","理事長　田中　美美","医療法人社団佑逵会美美歯科","2006/8/1","087-867-3933","歯科、矯正歯科、小児歯科、歯科口腔外科","","","香川県","372013"
"jp.takamatsu.smartcity.medical.Hospital.596","34.357452","133.970404","香川県高松市中山町８１１番地６","歯科","高松市","医療法人社団溝渕歯科診療所","理事長　荻野　芳","医療法人社団溝渕歯科診療所","2007/3/1","087-881-1800","歯科","","","香川県","372013"
"jp.takamatsu.smartcity.medical.Hospital.597","34.299291","134.079645","香川県高松市林町１３０８番地１５","歯科","高松市","みたに歯科クリニック","","三谷　明将","2008/6/1","087-815-3373","歯科、小児歯科","","","香川県","372013"
"jp.takamatsu.smartcity.medical.Hospital.598","34.340327","134.009525","香川県高松市鶴市町２０２２番地１９","歯科","高松市","みき歯科医院","","三木　武","2009/7/11","087-813-0727","歯科、矯正歯科、小児歯科、歯科口腔外科","","","香川県","372013"
"jp.takamatsu.smartcity.medical.Hospital.599","34.345558","134.051879","香川県高松市片原町１０番地２０","歯科","高松市","もりい矯正歯科クリニック","","森井　大介","2009/9/7","087-811-7725","矯正歯科","","","香川県","372013"
"jp.takamatsu.smartcity.medical.Hospital.600","34.298707","134.053339","香川県高松市多肥下町１５８７番地１１","歯科","高松市","町田歯科クリニック","","町田　誠一","2010/4/28","087-813-8241","歯科、矯正歯科、小児歯科、歯科口腔外科","","","香川県","372013"
"jp.takamatsu.smartcity.medical.Hospital.601","34.278282","134.07249","香川県高松市三谷町３８４番地１","歯科","高松市","マシマ歯科クリニック","","間島　徹","2011/12/1","087-814-6600","歯科、小児歯科、歯科口腔外科","","","香川県","372013"
"jp.takamatsu.smartcity.medical.Hospital.602","34.325721","134.056422","香川県高松市今里町一丁目３１番地３","歯科","高松市","むね歯科クリニック","","髙木　宗弘","2016/8/2","087-880-4829","歯科、小児歯科","","","香川県","372013"
"jp.takamatsu.smartcity.medical.Hospital.603","34.335523","134.072649","香川県高松市木太町２３４１番地２","歯科","高松市","医療法人社団もりぐち歯科クリニック","理事長　森口　善夫","医療法人社団もりぐち歯科クリニック","2016/11/1","087-813-0333","歯科、矯正歯科、小児歯科、歯科口腔外科","","","香川県","372013"
"jp.takamatsu.smartcity.medical.Hospital.604","34.347076","134.052383","香川県高松市丸の内１０番１６号","歯科","高松市","みき歯科三越通りクリニック","","三木　武寛","2017/4/1","087-802-3810","歯科、矯正歯科、小児歯科、歯科口腔外科","","","香川県","372013"
"jp.takamatsu.smartcity.medical.Hospital.605","34.344477","134.050408","香川県高松市丸亀町１３番地３　高松丸亀町商店街参番街東館３Ｆ","歯科","高松市","医療法人社団丸亀町ハビット歯科クリニック","理事長　三木　健史","医療法人社団丸亀町ハビット歯科クリニック","2017/9/1","087-851-2266","歯科、小児歯科","","","香川県","372013"
"jp.takamatsu.smartcity.medical.Hospital.606","34.270692","133.999399","香川県高松市岡本町１２４７番地１","歯科","高松市","みやび歯科","","竹内　雅哉","2019/2/7","087-886-8811","歯科、小児歯科、歯科口腔外科","","","香川県","372013"
"jp.takamatsu.smartcity.medical.Hospital.607","34.342766","134.043206","香川県高松市番町三丁目２番１号　３Ｆ","歯科","高松市","山口歯科診療所","","山口　裕","1982/2/1","087-831-5034","歯科","","","香川県","372013"
"jp.takamatsu.smartcity.medical.Hospital.608","34.28247","134.053943","香川県高松市多肥上町１８４２番地５","歯科","高松市","吉田歯科医院","","吉田　光典","1982/6/1","087-888-2088","歯科","","","香川県","372013"
"jp.takamatsu.smartcity.medical.Hospital.609","34.296118","134.043453","香川県高松市太田上町３９２番地１","歯科","高松市","やすとみ歯科医院","","安冨　哲士","1994/5/24","087-868-5188","歯科","","","香川県","372013"
"jp.takamatsu.smartcity.medical.Hospital.610","34.313456","134.045552","香川県高松市三条町２３９番地７","歯科","高松市","医療法人社団邦照会米田歯科医院","理事長　米田　照男","医療法人社団邦照会米田歯科医院","1995/12/1","087-866-5195","歯科、矯正歯科、小児歯科、歯科口腔外科","","","香川県","372013"
"jp.takamatsu.smartcity.medical.Hospital.611","34.346982","133.998337","香川県高松市香西本町４８６番地６","歯科","高松市","山内歯科医院","","山内　宏茂","2002/8/24","087-881-2642","歯科、小児歯科","","","香川県","372013"
"jp.takamatsu.smartcity.medical.Hospital.612","34.336888","134.100266","香川県高松市屋島西町１９６８番地９","歯科","高松市","医療法人社団吉翔会吉本歯科医院","理事長　吉本　彰夫","医療法人社団吉翔会","2004/2/1","087-818-1118","歯科、矯正歯科、歯科口腔外科","","","香川県","372013"
"jp.takamatsu.smartcity.medical.Hospital.613","34.338608","134.013226","香川県高松市鶴市町２０３３番地３","歯科","高松市","やの歯科医院","","矢野　宏明","2005/12/20","087-897-2070","歯科、小児歯科、歯科口腔外科","","","香川県","372013"
"jp.takamatsu.smartcity.medical.Hospital.614","34.344995","134.123111","香川県高松市牟礼町牟礼２４３１番地１","歯科","高松市","医療法人社団弘誠会やくり歯科","理事長　松原　弘樹","医療法人社団弘誠会","2001/10/3","087-870-1555","歯科、矯正歯科、小児歯科、歯科口腔外科","","","香川県","372013"
"jp.takamatsu.smartcity.medical.Hospital.615","34.303968","133.961663","香川県高松市国分寺町新居字橋岡１７９６番地１","歯科","高松市","よしもと歯科クリニック","理事長　吉本　学","医療法人よしもと歯科クリニック","2014/4/1","087-813-6804","歯科、小児歯科、歯科口腔外科","","","香川県","372013"
"jp.takamatsu.smartcity.medical.Hospital.616","34.343825","134.054384","香川県高松市今新町４番地７　２Ｆ","歯科","高松市","ヨネダ歯科医院","","米田　敬","2014/5/19","087-851-9259","歯科、小児歯科、歯科口腔外科","","","香川県","372013"
"jp.takamatsu.smartcity.medical.Hospital.617","34.301124","134.039964","香川県高松市太田上町１００４番地１","歯科","高松市","医療法人社団山下歯科医院","理事長　山下　穣","医療法人社団山下歯科医院","2016/12/24","087-865-1323","歯科、矯正歯科、小児歯科","","","香川県","372013"
"jp.takamatsu.smartcity.medical.Hospital.618","34.343442","134.065844","香川県高松市松福町二丁目４番４号","歯科","高松市","らく楽歯科クリニック","理事長　太田　憲吾","医療法人社団らく楽会","2014/12/11","087-851-3500","歯科、小児歯科","","","香川県","372013"
"jp.takamatsu.smartcity.medical.Hospital.619","34.278511","134.069135","香川県高松市三谷町１１６３番地１","歯科","高松市","くわじま歯科医院","","桑島　大介","2024/03/15","087-814-6177","歯科、小児歯科、歯科口腔外科","","","香川県","372013"
"jp.takamatsu.smartcity.medical.Hospital.620","34.32234","134.06390","高松市松縄町４１−４　誠ビル２階","無床診療所","高松市","にじいろ心の診療所","","角友　佑豪","2025/04/01","087-813-7261","精神科、心療内科","","","香川県","372013"
"jp.takamatsu.smartcity.medical.Hospital.621","34.30292","134.03288","高松市鹿角町２７１番地６","有床診療所","高松市","医療法人社団赤松内科医院（休止中）","福川　徳三","医療法人社団赤松内科医院","1993/10/1","087-866-6667","内科","","","香川県","372013"
"jp.takamatsu.smartcity.medical.Hospital.622","34.33521","134.05367","高松市藤塚町三丁目３番１２号","有床診療所","高松市","医療法人社団小川内科医院（休止中）","理事長　虫本　光徳","医療法人社団小川内科医院","1993/9/1","087-861-9551","内科、消化器科、循環器科","","","香川県","372013"
"jp.takamatsu.smartcity.medical.Hospital.623","","","高松市仏生山町甲４８０","無床診療所","高松市","西岡耳鼻咽喉科医院（休止中）","","西岡　慶子","1966/7/20","087-889-0603","耳鼻咽喉科","","","香川県","372013"
"jp.takamatsu.smartcity.medical.Hospital.624","34.2846","134.01158","高松市円座町１４３７−１","有床診療所","高松市","原外科医院（休止中）","","原　修一","1971/4/24","087-885-1293","胃腸科、外科、整形外科、麻酔科","","","香川県","372013"
"jp.takamatsu.smartcity.medical.Hospital.625","34.34104","134.11265","高松市高松町３００４番地２","無床診療所","高松市","松田胃腸科外科医院（休止中）","","松田　滋明","1977/6/1","087-843-3377","胃腸科、外科","","","香川県","372013"
"jp.takamatsu.smartcity.medical.Hospital.626","34.32818","134.04601","高松市栗林町一丁目１３番２１号","無床診療所","高松市","栗林メンタルクリニック（休止中）","樋端　敏生","医療法人社団緑会","2022/9/1","087-834-1155","心療内科、精神科","","","香川県","372013"
"jp.takamatsu.smartcity.medical.Hospital.627","34.35435","134.00468","高松市香西本町１−１","無床診療所","高松市","（公財）香川県総合検診協会かがわ健診プラザ","代表理事　久米川　啓","公益財団法人香川県総合健診協会","2025/4/1","087-897-4280","内科","","","香川県","372013"
"jp.takamatsu.smartcity.medical.Hospital.628","34.30726","134.09113","高松市東山崎町６７５","無床診療所","高松市","いしばし整形外科クニリック","","石橋　　洋一","2025/4/7","087-847-1484","整形外科、リハビリテーション科","","","香川県","372013"
"jp.takamatsu.smartcity.medical.Hospital.629","34.30899","133.99066","高松市御厩町３７２","無床診療所","高松市","高松救急クリニック","","切詰　和孝","2025/5/1","087-816-2702","内科、外科、救急科","","","香川県","372013"
"jp.takamatsu.smartcity.medical.Hospital.630","34.33837","134.04288","高松市番町五丁目１番２４号観光ビルディング４階南","無床診療所","高松市","かわにしクリニック","","川西　秀徳","2025/7/1","","内科、緩和ケア内科","","","香川県","372013"