#property,latitude,longitude,name,address,telephoneNumber
1,34.32780516063002,134.06561992424602,Ａ－プライス高松店,上福岡町906番地1,835-1412
2,34.292889844019676,134.04397039834413,Bakery cafe Asumi,多肥上町260番地1,889-1810
3,34.35319417087419,134.1235162347946,Ｂｅｅ,牟礼町牟礼2765番地1,-
4,34.26443342818976,134.03321476398693,ＤＣＭダイキ　香川店,香川町大野76番地1,888-3835
5,34.33026051789271,134.06603605294347,ＤＣＭダイキ　上福岡店,上福岡町838番地1,833-9955
6,34.2770389285937,134.10103363519164,ＤＣＭダイキ　川島店,川島東町504番地,848-5688
7,34.34266091068602,134.00748528362672,ＤＣＭダイキ　香西店,香西東町350番地1,881-6335
8,34.29412014574216,133.96144068362537,ＤＣＭダイキ　国分寺店,国分寺町新名574番地3,874-3500
9,34.3008613553895,134.09302062964986,ＤＣＭダイキ　水田店,東山崎町291番地1,847-4935
10,34.3433169411066,134.13158406828524,ＤＣＭダイキ　牟礼店,牟礼町牟礼1018番地,845-5535
11,34.319925576863426,134.0724839971201,DRUGミカワ　木太店,木太町1325番地1,868-2131
12,34.32206513866382,134.06910165294337,GREEN MARKET MOA高松中央店,木太町1174番地1,864-3931
13,34.38982066680749,134.12916113945127,ＪＡ香川県　Ａコープ庵治店,庵治町5824番地1,871-4145
14,34.238349972214465,134.07681685294096,ＪＡ香川県　植田事業所,西植田町2976番地,849-0002
15,34.422027985012086,134.0545937836291,ＪＡ香川県　男木出張所,男木町129番地3,873-0503
16,34.39033970878378,134.0502391989696,ＪＡ香川県　女木出張所,女木町11番地,873-0203
17,34.27145976514846,134.0029809394479,ＪＡ香川県　グリーンピア岡本,岡本町944番地,885-6996
18,34.17248288133163,134.08247364129258,ＪＡ香川県　塩江支店,塩江町安原上東347番地1,893-0020
19,34.358872995121764,133.96803727102164,ＪＡ香川県　下笠居事業所,生島町346番地,881-2181
20,34.31559943184335,134.05476166934463,ＪＡ香川県　高松市太田事業所,伏石町2047番地1,865-3332
21,34.27131389075928,134.0034083882106,ＪＡ香川県　ふれあいセンター岡本店,岡本町944番地,815-7727
22,34.23238938477466,134.03489299711757,ＪＡ香川県　ふれあいセンター香川店,香川町川東上955番地,879-3219
23,34.29047098633879,133.95879035601482,ＪＡ香川県　ふれあいセンター国分寺店,国分寺町新名744番地1,874-1215
24,34.273961035512926,134.10581362861242,ＪＡ香川県　ふれあいセンター十河店,十川西町298番地1,848-0047
25,34.29428172135834,134.03949118607514,ＪＡ香川県　ふれあいセンター高松市中央店,太田上町315番地1,815-5271
26,34.331903199948464,134.00524912043363,ＪＡ香川県　ふれあいセンター弦打店,鶴市町599番地1,832-8100
27,34.296176558383905,134.0776601547902,ＪＡ香川県　ふれあいセンター林店,林町351番地4,865-5532
28,34.340758347863755,134.13530514619683,ＪＡ香川県　ふれあいセンター牟礼店,牟礼町牟礼1147番地3,845-5484
29,34.341019024590786,134.04413947932937,ＫＯＹＯセブンイレブン高松赤十字病院店,番町4丁目1番3号,861-5036
30,34.34153687319777,134.10742502043394,Ｙショップセブンセブン,屋島中町219番地2,841-4964
31,34.34229249262292,134.14109603025332,Ｙショップ牟礼町すやま店,牟礼町牟礼140番地3,845-1336
32,34.373883294342335,133.94746965601718,青木商店,亀水町323番地,882-3206
33,34.39061264073849,134.12792181592684,庵治漁業協同組合,庵治町6377番地1,871-4131
34,34.38528915486001,134.1299566560174,庵治コミュニティセンター,庵治町888番地1,871-4162
35,34.264047996096096,134.0369940093874,穴吹米穀店,香川町浅野527番地1,889-0326
36,34.15058461013851,134.07634805601086,油屋商店,塩江町上西乙558番地1,893-0057
37,34.34035078788575,134.05198463025334,アルファ・トマム,瓦町二丁目2番地19,837-0123
38,34.31234282686946,134.00644034988093,飯田団地購買会,飯田町1035番地1,881-4979
39,34.35207018128823,134.00479855601648,イオン高松店,香西本町1番地1,842-8000
40,34.34540243022517,134.07270101491176,イオン高松東店,福岡町三丁目8番5号,804-7082
41,34.361398944191656,133.96043767933006,生島薬局,生島町462番地3,882-1305
42,34.34492654982204,134.05743029241776,池田酒店,井口町7番地8,821-4960
43,34.34030425626699,134.0527193676727,石丸商店,瓦町二丁目4番地1,834-0551
44,34.2806296857826,134.04547790018108,泉コーポレート,仏生山町甲573番地3,889-2651
45,34.23924867832762,134.03389615601333,一小路商店,香川町川東上1773番地1,879-2005
46,34.32018136385414,134.04649363576448,稲本薬局,上之町二丁目15番34号,865-4540
47,34.298759654087895,134.0736321046867,井上空港前センター,林町286番地8,865-3046
48,34.33899793421914,134.10936129712059,入谷食品センター,高松町3012番地15,843-5768
49,34.31426969593268,134.07082796767207,植田商店,木太町5040番地7,866-8585
50,34.17112003537114,134.09526772655695,植田商店,塩江町安原上東507番地3,893-0047
51,34.281624842739326,134.04704630877555,植田米穀店,仏生山町甲504番地,889-0536
52,34.18735013525603,134.05936262656255,上原酒店,塩江町安原下第1号841番地,897-0401
53,34.30360003446234,134.09475739712343,上原米穀店,東山崎町347番地1,847-5820
54,34.30542409097139,133.96334240531522,植松商店,国分寺町新居1678番地,874-0112
55,34.34736578779105,134.06731242043404,ウエルシア高松朝日町店,朝日町三丁目1番48号,823-1080
56,34.30782058227418,134.0549406854528,ウエルシア高松伏石店,伏石町2165番地1,815-0115
57,34.33956756366319,134.11101569712068,宇賀金物店高松店,高松町3009番地5,843-5018
58,34.27009178055388,134.00016039712955,宇川新店,岡本町889番地5,899-8888
59,34.35094544543731,134.0643514854849,エブリイ朝日町店,朝日町二丁目19番3号,802-6022
60,34.29679937864475,134.05863161736022,エブリイ高松レインボー店,多肥上町1319番地,899-8222
61,34.291602972977074,134.09102532503033,エブリイ六条店,下田井町372番地1,802-5656
62,34.347613826907526,134.0474034836091,江村食料品店,西内町7番2号,821-6065
63,34.33442288796825,134.06202116768074,エリデス石田タバコ店,観光町556番地,834-9195
64,34.285443971297866,134.00553890264575,円座コミュニティセンター,円座町1622番地1,886-4993
65,34.333556726815104,134.08312573822496,遠藤家庭用品,木太町2834番地4,861-7504
66,34.318707188177136,134.0539210498811,太田コミュニティセンター,伏石町2016番地37,867-1139
67,34.31386408824227,134.0640703382242,太田中央コミュニティセンター,松縄町1108番地1,867-3396
68,34.30190353447384,134.04124966767168,太田南コミュニティセンター,太田上町1045番地2,865-9947
69,34.146859035539705,134.08021265602093,大西商店,塩江町上西甲29番地1,893-1614
70,34.33608410645949,134.1426056621191,大町コミュニティセンター,牟礼町大町1463番地2,870-1306
71,34.333963698783535,134.0483185599136,岡金物,藤塚町一丁目8番28号,831-2418
72,34.24265307688402,134.00795236397698,岡崎商店,香南町横井804番地1,879-4252
73,34.29335122656065,134.04343482656708,岡崎食品センター,多肥上町21番地5,889-3968
74,34.28299590689279,134.0436144997771,奥田商店,仏生山町甲324番地,889-0066
75,34.34008451730992,134.04289237380735,香川県庁消費生活協同組合,番町四丁目1番10号,832-3823
76,34.336803966331246,134.04782160183294,葛西商店,中新町11番地16,831-6177
77,34.3334148961599,134.0827567449721,春日水神市場,木太町2836番地1,813-1730
78,34.34342781461185,134.1517731265678,角屋食品センター,牟礼町大町140番地5,-
79,34.342764141571415,134.05086905601627,鎌田商店,古馬場町8番地9,821-3385
80,34.3489666,134.090413,かまの酒店,屋島西町2444番地94,843-7257
81,34.28229753737296,134.04659683822337,河田商店,仏生山町甲469番地2,889-0375
82,34.33762455638954,134.04409539711884,観光精肉,中央町5番27号,831-2980
83,34.30636248974791,134.05149507012436,北谷治療院,太田下町3005番地14,867-7614
84,34.32628326596616,134.07663407380136,木太コミュニティセンター,木太町3480番地2,834-5547
85,34.335624269508656,134.07947010265787,木太北部コミュニティセンター,木太町2603番地,831-9000
86,34.31928442469793,134.07610209648905,木太南コミュニティセンター,木太町1486番地,865-4273
87,34.24050335519042,134.02875408732928,キョーエイ空港店,香川町川東下505番地1,879-0377
88,34.23469376190245,134.0396338593015,日下酒店,香川町川内原124番地,879-4265
89,34.34513471435082,134.05322206767286,日下食糧,百間町4番地2,821-4332
90,34.25627064824169,134.03384412656607,くすりのレデイ浅野店,香川町浅野1031番地9,802-9700
91,34.325140961524674,134.06433719773256,くすりのレデイ今里店,今里町二丁目10番地18,831-8100
92,34.291124220553144,134.09112165788272,くすりのレデイエブリィモール六条店,下田井町372番地1,802-1495
93,34.29113639256303,134.01000741491032,くすりのレデイ円座店,円座町1037番地1,885-3700
94,34.34524533356258,134.03267241491187,くすりのレデイ扇町店,扇町二丁目11番8号,823-8700
95,34.29824343589662,134.04125395601497,くすりのレデイ太田上町店,太田上町503番地1,864-3870
96,34.30627200536727,134.05217669711965,くすりのレデイ太田店,太田下町3004番地14,815-3555
97,34.32447585605216,134.09282706031297,くすりのレデイ春日店,春日町571番地1,844-1100
98,34.33355223762151,134.084393629241,くすりのレデイ春日橋店,木太町2833番地1,802-1628
99,34.316001674685026,134.06831190876628,くすりのレデイ木太店,木太町5034番地2,814-8147
100,34.341006262387374,134.00107932655823,くすりのレデイ香西店,香西南町466番地1,881-8600
101,34.29250698310308,133.962293014298,くすりのレデイ国分寺店,国分寺町新名644番地1,813-7111
102,34.290205320614064,134.02886352656688,くすりのレデイ高松一宮店,一宮町833番地1,802-1502
103,34.26897565519228,134.00881243270095,くすりのレデイ高松川岡店,川部町508番地1,802-1705
104,34.28424016265947,134.04906470693834,くすりのレデイ高松出作店,出作町365番地13,802-2690
105,34.27374762869924,134.0269848069382,くすりのレデイ寺井店,寺井町971番地1,802-7522
106,34.33486281720952,134.05802978793392,くすりのレデイ花園店,花園町一丁目7番17号,802-1678
107,34.29967619911567,134.0722193738266,くすりのレデイ林店,林町1183番地,813-7073
108,34.294090238983486,134.08784374314357,くすりのレデイハローズ六条店,六条町42番地1,813-0818
109,34.28198961862031,134.03699407135665,くすりのレデイ仏生山店,仏生山町甲976番地1,802-7770
110,34.34180330583937,134.13148625969086,くすりのレデイ牟礼店,牟礼町牟礼998番地1,818-9100
111,34.336609777300446,134.09801298607624,くすりのレデイ屋島西店,屋島西町1981番地1,844-0600
112,34.263587776557785,134.02729150816262,薬マツモトキヨシ　ウイングポート店,香川町大野916番地1,864-7880
113,34.34322334635034,134.05005259707463,薬マツモトキヨシ　高松丸亀町店,丸亀町10番地1,823-1360
114,34.346598646938574,134.03901723209069,久保田商店,扇町一丁目23番12号,821-5607
115,34.29952443304514,134.0526953149106,グランデリーズ太田店,多肥下町1584番地4,867-7755
116,34.34433535754698,134.03113525377918,グランデリーズ昭和町店,昭和町二丁目2番10号,899-2200
117,34.331224486577646,134.04759852656807,グリーンアップル,栗林町一丁目5番7号,831-4632
118,34.17069995314428,134.09605467012787,黒川農機商会,塩江町安原上東2423番地,893-0048
119,34.29277599453809,134.06493769977706,工学部ショップ,林町2217番地20,864-5831
120,34.239459078312514,134.00725483822202,香南朝市,香南町横井997番地2,815-8533
121,34.34132421635084,134.0004966382275,河野,香西南町472番地7,882-4400
122,34.26624793154892,134.03480981601902,河野酒店,香川町浅野276番地9,889-2568
123,34.3472645095761,133.99867909712145,河野商店,香西本町511番地2,881-2276
124,34.28356619702296,134.02862596534933,コープ一宮,一宮町341番地,885-2110
125,34.34526632952071,134.0332158862171,コープ扇町,扇町二丁目360番2号,821-5050
126,34.315332811128684,134.05384159111495,コープ太田,伏石町2053番地5,865-1500
127,34.348188192407335,134.00243019726187,コープ香西,香西本町96番地1,882-7333
128,34.342530005019505,134.13278582487453,コープ牟礼,牟礼町牟礼994番地,845-1600
129,34.332627075591105,134.05238617517185,コープ栗林,藤塚町三丁目17番8号,862-6500
130,34.30540868991774,133.96234427516808,国分寺北部コミュニティセンター,国分寺町新居1840番地6,874-5805
131,34.352163959263464,134.00479923905453,ココカラファインイオンモール高松店,香西本町1番地1　,832-8231
132,34.33893259845716,134.05259063284436,ココカラファイン瓦町ＦＬＡＧ店,常盤町一丁目３番地１号コトデン瓦町ビル地下１階　,835-1277
133,34.343852874351875,134.04981511084955,ココカラファイン高松丸亀町店,丸亀町4番地9,811-4236
134,34.35108018146608,134.08892576167995,ここね屋島西,屋島西町248番地11,843-5959
135,34.34526260405641,134.12199941086558,小西洋品店,牟礼町牟礼2422番地7,845-9227
136,34.31796374994608,133.98878851505208,小林食品センター,鬼無町鬼無708番地2,881-2980
137,34.238673089248145,134.0333951518606,こばんや薬局,香川町川東上1724番地2,879-2020
138,34.33740809138796,134.0534402518585,米屋ながはら塩上店,塩上町1丁目6番14号,831-2822
139,34.23914165004588,134.01674276842266,コメリハードアンドグリーン高松香南店,香南町由佐793番地1,815-8861
140,34.325934510700144,134.16503421505223,近藤商店,牟礼町原3番地,845-1526
141,34.29245350824779,133.96152818191675,ザ・ビッグ国分寺店,国分寺町新名654番地3,870-6025
142,34.34418653829223,134.05054191382908,菜園Ｓマルシェ,今新町8番地1　香西今新町ビル,804-8083
143,34.328230931422105,134.05764785308384,ザグザグ今里店,今里町1丁目493番地,862-5639
144,34.32750774920942,134.09365453538675,ザグザグ春日店,春日町893番地1,818-0722
145,34.29645462812584,134.0382197083051,ザグザグ鹿角店,三名町743番地1,867-9939
146,34.33228694188041,134.0683561715046,ザグザグ上福岡店,上福岡町769番地1,812-0377
147,34.33441879539005,134.082600520575,ザグザグ木太店,木太町2805番地1,831-2239
148,34.329104023032784,133.9947148095605,ザグザグ鬼無店,鬼無町佐藤54番地1,832-8220
149,34.238528154500315,134.01788505922866,ザグザグ香南店,香南町由佐850番地1,815-8050
150,34.29867931759248,133.96083884081241,ザグザク国分寺店,国分寺町新居1398番地1,874-6639
151,34.30121720414322,134.06119666045444,ザグザグ多肥下町店,多肥下町1550番地2,815-1139
152,34.31042268409181,134.07380102975065,ザグザグ中央インター店,木太町597番地,815-3977
153,34.273727879755455,134.03426057517,ザグザグ仏生山店,仏生山町甲1344番地,815-5215
154,34.31585066013968,134.06476935185788,ザクザク松縄店,松縄町1092番地3,865-0535
155,34.325207978703425,134.04515739048836,ザグザグ栗林店,花ノ宮町三丁目1番48号,864-5720
156,34.31336039657052,133.99962019479815,ザグザグ檀紙北店,飯田町30番地,870-5523
157,34.340719690731284,134.0976879383662,佐々木食品センター,屋島西町1868番地,841-9817
158,34.30037215104057,134.06912078220887,佐野米穀店,林町1086番地1,865-6218
159,34.28889134842536,134.0280966278021,産直　菜の花,一宮町781番地1,864-7087
160,34.28283740488077,134.04499823822346,サンプラザ武下,仏生山町甲345番地7,889-0735
161,34.38293682988641,134.12630059344468,サンボランタリー庵治店ふじの,庵治町6392番地48,871-5151
162,34.33028156976955,134.13431039058622,支援センタードリーム,牟礼町大町2544番地1,818-7700
163,34.16869259691241,134.0854668709576,塩江ショッピングセンターはすい,塩江町安原上東443番地3,893-0029
164,34.17070752578753,134.08212484986203,塩江スーパーバザール,塩江町安原上東387番地9,893-0215
165,34.341776773200834,134.07327365049414,四国屋,福岡町四丁目36番45号,821-5291
166,34.30459521183772,134.09409786767182,四国ライス,東山崎町250番地1,802-1775
167,34.34376662437243,134.06206838485156,自然食品らびっと,松福町一丁目7番9号,822-1539
168,34.31188842690572,134.077450755403,東雲会,木太町4302番地12,867-3316
169,34.313622203654354,134.0262907382243,酒げん堂,松並町651番地16,867-6578
170,34.34700252133065,134.03734374988179,正気屋,扇町一丁目2番16号,821-3096
171,34.341831073201575,134.0369411971207,ショップ空海,幸町1番1号,833-5755
172,34.34743118207283,134.05608536443182,新塩屋町地区コミュニティ協議会,城東町一丁目1番47号,822-1066
173,34.303541980543876,134.04263318362564,新鮮市場きむら太田本店,太田上町1090番地1,868-5050
174,34.315308341146576,134.06963121798344,新鮮市場きむら木太店,木太町5056番地3,815-3611
175,34.3425671585665,134.00673189712072,新鮮市場きむら香西店,香西東町333番地1,881-1200
176,34.28501427753086,133.96320063270142,新鮮市場きむら国分寺店,国分寺町福家甲3136番地,874-8888
177,34.30004836522072,134.07204507810448,新鮮市場きむら林店,林町1183番地,814-3400
178,34.3431637659044,134.13394250141795,新鮮市場きむら牟礼店,牟礼町牟礼1092番地3,845-6112
179,34.34443793891452,134.0886165725826,新鮮市場きむら屋島店,屋島西町2105番地8,843-3000
180,34.295112712340526,134.04249903270158,スーパードラッグひまわり　多肥上店,多肥上町55番地1,802-7801
181,34.33804265368182,134.10818709834544,スーパードラッグひまわり　屋島店,高松町2510番地9,802-8447
182,34.29234416838384,134.04324235294257,スマイルハートあすみ,多肥上町18番地1,889-5560
183,34.343002702483304,134.04543953822514,すみれ漢方施薬院薬局,番町一丁目9番4号,851-2366
184,34.35140942848593,134.04878443537552,セブンイレブンKioskクレメントイン高松,浜ノ町1番3号 JRクレメントイン高松1階,821-0711
185,34.348252416768524,134.0639335382253,セブンイレブン香川県立中央病院前店,朝日町二丁目2番7号,851-2787
186,34.34178771720019,134.03839648730298,セブンイレブン香川大学正門前店,番町四丁目8番21号,835-3711
187,34.33189412679386,134.052959768285,セブンイレブン高松JR栗林駅前店,桜町一丁目1番6号,861-5060
188,34.34753757327542,134.06656445601652,セブンイレブン高松朝日町３丁目店,朝日町三丁目448番13号,826-2011
189,34.28464101289576,134.03243424434777,セブンイレブン高松一宮町店,一宮町113番地1,889-1808
190,34.32660322914096,134.05937514068853,セブンイレブン高松今里店,今里町一丁目16番地1,832-0939
191,34.307839835008025,134.04387008485054,セブンイレブン高松太田下町店,太田下町1856番地9,867-5509
192,34.270234497787534,134.00353422165668,セブンイレブン高松岡本町店,岡本町837番地3,886-7791
193,34.26614130541031,134.030068025954,セブンイレブン高松香川町大野北店,香川町大野9番地1,815-8055
194,34.25819963105287,134.02808412851562,セブンイレブン高松香川町大野店,香川町大野641番地1,815-8055
195,34.33981916883882,134.0902536787068,セブンイレブン高松春日町片田店,春日町1642番地1,844-1173
196,34.32274303082032,134.09272720264215,セブンイレブン高松春日町店,春日町470番地2,843-3711
197,34.34600132607537,134.09338984559477,セブンイレブン高松潟元駅北店,屋島西町1350番地54,841-7715
198,34.29830240301196,134.03119682410724,セブンイレブン高松鹿角町店,鹿角町444番地1,886-7731
199,34.334242628510125,134.0651174014177,セブンイレブン高松上福岡町店,上福岡町657番地9,831-7442
200,34.33886384367972,134.05251863822602,セブンイレブン高松瓦駅東口店,常磐町一丁目3番地１,863-2116
201,34.34034700188306,134.0522187762674,セブンイレブン高松瓦町２丁目店,瓦町二丁目3番地8,862-7115
202,34.335997195353535,134.05607773025307,セブンイレブン高松観光通2丁目店,観光通二丁目8番11号,833-7505
203,34.316202517912515,134.06392872595518,セブンイレブン高松木太中央公園前店,松縄町1091番地5,867-9668
204,34.31779399556018,134.08125822656777,セブンイレブン高松木太町上川東店,木太町4058番地1,868-0082
205,34.32686609877126,134.06872754067442,セブンイレブン高松木太町川西店,木太町1831番地2,831-1700
206,34.338152517438026,134.07215974926928,セブンイレブン高松木太町店,木太町2294番地1,863-0051
207,34.33888278581912,134.078888139441,セブンイレブン高松木太町中浜店,木太町2672番地1,862-7088
208,34.3188069187199,134.0723399688971,セブンイレブン高松木太町本村店,木太町1348番地1,868-2287
209,34.33494998795606,133.99547166830143,セブンイレブン高松鬼無町店,鬼無町佐料7番地3,882-8677
210,34.23708816769502,134.02845397747905,セブンイレブン高松空港店,香川町川東下400番地1,815-8880
211,34.24110539314663,134.00526203514985,セブンイレブン高松香南町横井店,香南町横井937番地1,815-8308
212,34.27210328588469,133.97471831246006,セブンイレブン高松国分寺町福家店,国分寺町福家甲677番地1,874-7885
213,34.34840882400339,134.04849677932967,セブンイレブン高松寿町２丁目店,寿町二丁目1番1号第一生命ビル新館１階,822-7721
214,34.35228629491885,134.04731442718142,セブンイレブン高松サンポート店,サンポート2番1号,822-8011
215,34.19077726448602,134.04962160693628,セブンイレブン高松塩江町店,塩江町安原下第1号1871番地8,897-0558
216,34.3453381136164,134.04176089219746,セブンイレブン高松新番丁小学校前店,錦町二丁目17番1号,811-7037
217,34.27552908940128,134.10159476091897,セブンイレブン高松十川西町店,十川西町414番地,848-2776
218,34.29788959922643,134.0558048253322,セブンイレブン高松多肥下町店,多肥下町384番地1,868-6168
219,34.3360979323829,134.04332399712047,セブン‐イレブン高松中央町店,中央町14番16号,862-3450
220,34.311866996922575,134.02447850938935,セブンイレブン高松勅使町店,勅使町1287番地1,865-0926
221,34.29469401861514,133.99452516828384,セブンイレブン高松中間町店,中間町471番地1,885-7781
222,34.285450583043,134.04613326828374,セブンイレブン高松仏生山店,仏生山町甲386番地2,889-1128
223,34.343534363133934,134.05004035540375,セブンイレブン高松丸亀町店,丸亀町11番地1,822-1125
224,34.27857051321746,134.06574154618488,セブンイレブン高松三谷町店,三谷町1257番地1,888-5715
225,34.34148740988035,134.04937947380736,セブンイレブン高松南新町店,高松市南新町1番地4,834-8258
226,34.35015796060399,134.08939267258265,セブンイレブン高松屋島西店,屋島西町2491番地2,844-3705
227,34.275317121211486,134.1214870179721,セブンイレブン三木町池戸店,三木町大字池戸3216番地1,891-1417
228,34.34747599665441,134.01035134374723,セブンイレブン香川労働基準会館前店,郷東町433番地,882-7728
229,34.316761734181654,134.0550217873006,セブンイレブン高松伏石町店,伏石町2037番地3,866-7106
230,34.314723142075714,134.08288200325435,装栄株式会社四国支店,元山町1231番地1-2Ｂ,865-6575
231,34.27368560402247,134.10504251919858,十河コミュニティセンター,十川西町579番地1,848-0166
232,34.17760459956955,134.07388285601155,十河商店,塩江町安原上634番地,893-0223
233,34.289363830882,134.02164314640365,ダイレックス一宮店,一宮町1584番地1,815-6133
234,34.27553376413783,134.09939875049233,ダイレックス川島店,川島東町533番地2,802-7992
235,34.33853879702634,134.07708608607643,ダイレックス木太店,木太町2439番地1,802-5070
236,34.28557219669741,133.96266030876546,ダイレックス国分寺店,国分寺町福家甲3139番地3,870-6511
237,34.32962568082111,134.0645502824278,ダイレックス高松中央店,上福岡町822番地,837-3125
238,34.31224181954984,134.07131030999284,ダイレックス高松店,木太町487番地1,815-3841
239,34.32143211854601,134.03095024374662,ダイレックス西春日店,西春日町1046番地1,814-5132
240,34.327005118176736,133.99465674497165,田岡商店,鬼無町藤井56番地7,881-3222
241,34.30097557267609,134.01387317934024,高木酒店,成合町541番地1,815-7225
242,34.33814997648472,134.04884617932933,高嶋金物店,田町3番地1,831-2633
243,34.24560384936881,133.99975323822238,高橋食料品店,香南町池内567番地33,879-4050
244,34.34286629517017,134.04600903270307,高松市職員消費生活協同組合,番町一丁目8番15号,839-2043
245,34.3435635341985,134.04492326771538,高松市四番丁コミュニティセンター,番町二丁目3番5号,851-8479
246,34.30236824336781,134.05420729956924,たけもと,多肥下町1555番地1,867-5980
247,34.31600254192764,133.98990769712873,立川酒・薬局,鬼無町鬼無269番地,882-3462
248,34.246007906346605,134.01141663822233,立石商店,香南町横井511番地1,815-8838
249,34.37191570647251,133.94689534557017,谷澤数光商店,亀水町448番地2,881-3336
250,34.39093524742426,134.1285702860018,谷商店,庵治町5839番地,871-2011
251,34.29640321221076,133.94015289580435,タニモト,高松市国分寺町新名72番地3,874-5757
252,34.29562935437694,133.9540570230903,谷本商店,国分寺町新名234番地1,874-0539
253,34.34138398786937,134.1163681860758,谷本食料品店,高松町2289番地2,841-9247
254,34.30455678053958,134.0283530676725,地域活動支援センター　ぼのぼの作業所,鹿角町939番地1,867-4415
255,34.30965870048934,134.05996815664682,チャーリーレインボーロード店,伏石町2103番地10,867-8831
256,34.236598165727216,134.03425799404818,中條建材店,香川町川東上1656番地2,879-2053
257,34.34778403416101,133.9970280670575,中美商店,香西本町545番地,882-0805
258,34.32700364076051,134.06286903270262,ちろりん村,上福岡町2058番地2,837-4568
259,34.30015618302002,134.04554678198588,ツクダ薬舗,太田上町756番地,866-9140
260,34.31951781795114,134.04525964557078,ディスカウントドラッグコスモス上之町店,上之町一丁目14番19号,864-6570
261,34.32705428806661,134.07029417318512,ディスカウントドラッグコスモス木太店,木太町1875番地2,812-2345
262,34.301668654752326,133.95118773390624,ディスカウントドラッグコスモス国分寺店,国分寺町国分458番地1,870-6105
263,34.347305768621574,134.02251462718104,ディスカウントドラッグコスモス高松西町店,西町774番2号,812-5250
264,34.29616550284023,134.05344118790228,ディスカウントドラッグコスモス多肥上町店,多肥上町1182番地1,815-1779
265,34.321193407551355,134.033563894062,ディスカウントドラッグコスモス西ハゼ店,西ハゼ町120番地2,864-5520
266,34.287284533535356,133.9613356032435,ディスカウントドラッグコスモス福家店,国分寺町福家甲3195番地1,874-5006
267,34.272948780553726,134.0355996093876,ディスカウントドラッグコスモス仏生山店,仏生山町甲1467番地,815-5015
268,34.34233427511433,134.13009943700024,ディスカウントドラッグコスモス牟礼店,牟礼町牟礼956番地,870-1016
269,34.31637348458518,134.08242311839467,ディスカウントドラッグコスモス元山店,元山町673番地,815-2558
270,34.34577642491457,134.09431394581748,ディスカウントドラッグコスモス屋島西町店,屋島西町1347番地7,844-8160
271,34.2922288733086,134.08881511247202,ディスカウントドラッグコスモス六条店,下田井町364番地1,840-7130
272,34.28874218091475,134.00700928935117,デイリーヤマザキ高松円座町店,円座町173番地1,885-6201
273,34.34575662689256,134.05187806706053,デイリーヤマザキ高松片原町店,片原町10番地18,821-5554
274,34.306100711757836,134.03309163822396,デイリーヤマザキ高松田村町店,田村町1147番地1,865-8651
275,34.23876422621548,134.07502233883446,デイリーヤマザキ高松西植田町店,西植田町2995番地1,849-1107
276,34.30841241163538,134.0561613149109,デイリーヤマザキ高松伏石町南店,伏石町2135番地15,869-9011
277,34.29321243571076,134.08379281061323,デイリーヤマザキ高松六条町店,六条町439番地,864-5288
278,34.2973135439043,134.0290377504812,豊島米穀店,鹿角町612番地,885-0413
279,34.307997911657246,134.09258291491085,ドラッグストアマツモトキヨシ　フレスポ高松店,東山崎町668番地1,847-6622
280,34.33870784896781,134.04892396276304,ドラッグセガミ田町店,田町1番地1,832-5775
281,34.310688825682455,134.0369302682845,ドン・キホーテ　パウ高松店,上天神町536番地,815-0411
282,34.28722029665352,134.03874029711898,どんぐりや,仏生山町甲42番地1,888-6232
283,34.34449148161969,134.0521022415101,永野米穀商店,大工町7番地9,821-7864
284,34.347280016832855,134.0955161682854,中村彰商店,屋島西町864番地,841-9505
285,34.357827352046165,133.97107916276366,中屋食品センター,中山町799番地2,881-2713
286,34.34126777319432,134.15217199098606,中山商店,牟礼町大町466番地1,845-9384
287,34.34303412200436,134.0449523486569,成豊堂,番町二丁目4番4号,851-5941
288,34.22881085114242,134.02947167932632,生創石丸,香南町岡199番地,879-1403
289,34.34027813936298,134.03872123823754,にしい,番町五丁目6番30号,835-0241
290,34.33756054508926,134.0048326942551,西神商店,香西東町100番地5,882-9631
291,34.27871526527331,134.04083248422984,西田救命堂,仏生山町甲2203番地8,889-1587
292,34.32354393497363,134.18563756579405,西村ジョイ志度店,さぬき市志度1275番地1,843-6000
293,34.30198082173897,134.01529260106324,西村ジョイ成合店,成合町812番地1,885-3000
294,34.345999671624966,134.08846679712073,西村ジョイ屋島店,屋島西町2105番地8,843-5000
295,34.29065182654355,134.02493964988022,西村商店,一宮町674番地4,885-2236
296,34.344551672391276,134.03651665663486,二番丁地区コミュニティセンター,扇町二丁目8番7号,822-3556
297,34.345685826892044,134.0495738026428,野田屋電機,古新町１番地6,851-4545
298,34.347547631331,133.99854093883815,橋本金物店,香西本町518番地10,881-2259
299,34.29949347652684,134.0481302713421,蓮井酒米店,太田下町1385番地1,865-6101
300,34.34443826810607,134.05512287479382,パッケージプラザ山宝,通町3番地3,821-2285
301,34.346329994544526,134.12245406379213,馬場商店,牟礼町牟礼2444番地10,845-1467
302,34.30840571764617,134.06249314656333,はやし食品センター,伏石町2143番地11,867-0485
303,34.29401666187298,134.0119211889005,ハローズ円座店,円座町845番地3,885-8612
304,34.327929920894015,134.0935975888931,ハローズ高松春日店,春日町1072番地1,841-1186
305,34.31152921140175,134.06007317111292,ハローズ高松レインボー店,伏石町2084番地5,868-1786
306,34.273426061132284,134.03425276184885,ハローズ仏生山店,仏生山町甲1355番地,840-1186
307,34.263074093910255,134.13491311220318,ハローズ三木店,木田郡三木町氷上911番地,802-8670
308,34.32574900370208,134.04574621772923,ハローズ栗林公園店,花ノ宮町三丁目1番4号,868-0086
309,34.293731530225536,134.08754801773057,ハローズ六条店,六条町33番地,847-4786
310,34.33863729822484,134.10114159994657,パワーシティ屋島店B棟,屋島西町1907番地1,843-7726
311,34.29962629428762,134.05893817111053,パワーシティレインボー店,多肥下町1552番地17,815-0010
312,34.33956861349073,134.05221311159033,パワードラッグワンズ瓦町店,瓦町二丁目6番地14,832-5551
313,34.2382952261191,134.09909105331496,東植田校区コミュニティ協議会,東植田町1825番地1,849-0104
314,34.33651798882562,134.05555161281788,ビッグライフかがわ,観光通二丁目6番12号,834-2255
315,34.294188879602316,134.04354364717355,広瀬商店,多肥上町250番地5,889-0911
316,34.27603736069277,134.0871365950219,ファッションスペースぐんたに,川島東町878番地,848-1040
317,34.22928469696174,134.0282600888873,ファミリーマート香南町岡店,香南町岡351番地1,815-8411
318,34.23792263267101,134.02024118280536,ファミリーマート香南町由佐店,香南町由佐185番地1,848-0166
319,34.281743906256416,133.96445911097118,ファミリーマート国分寺福家店,国分寺町福家甲2937番地1,870-6255
320,34.29568750322372,133.9351070931951,ファミリーマート坂出府中店,坂出市府中町245番地1,0877-59-4001
321,34.307259577871164,134.0531100477916,ファミリーマートサンフラワー通り店,伏石町2174番地20,815-1930
322,34.38041043526389,134.12732325208256,ファミリーマート高松庵治町店,庵治町618番地6,871-2810
323,34.291119047991955,134.0198040950237,ファミリーマート高松一宮町店,一宮町1560番地2,815-7175
324,34.344068080326416,134.05360465949124,ファミリーマート高松今新町店,今新町3番地13,821-8605
325,34.286904199109415,134.01126624660287,ファミリーマート高松円座店,円座町1258番地1,870-4701
326,34.30027964428556,134.0411742342889,ファミリーマート高松太田上町店,太田上町983番地4,864-3351
327,34.30403527226795,134.04279143000542,ファミリーマート高松太田店　,太田上町1114番地,864-5230
328,34.33437932802258,134.08939978828153,ファミリーマート高松春日川橋東店,春日町1473番地5,818-0139
329,34.33991330299597,134.04781508276108,ファミリーマート高松亀井町店,亀井町8番地10,863-7718
330,34.26861790349717,134.01001501097963,ファミリーマート高松川部町店,川部町503番地1,815-6210
331,34.340092695602024,134.11056024103573,ファミリーマート高松北バイパス店,高松町3006番地15,818-0617
332,34.354456625226426,133.98847324655972,ファミリーマート高松香西北店,香西北町534番地1,870-5780
333,34.34277920246795,134.00635668827516,ファミリーマート高松香西東店,香西東町331番地1,870-5060
334,34.30652115594772,133.98407813000205,ファミリーマート高松御厩町店,御厩町1467番地2,815-6350
335,34.334491266853554,134.07089834717308,ファミリーマート高松国際ホテル前店,木太町2193番地6,832-2761
336,34.30237167171171,133.95685032938763,ファミリーマート高松国分寺町国分店,国分寺町国分59番地1,874-8055
337,34.330120987161244,134.0517463410476,ファミリーマート高松桜町店,桜町一丁目9番15号,863-6181
338,34.3156110303471,134.0462539177269,ファミリーマート高松三条町店,三条町313番地5,815-0810
339,34.34435001932589,134.0323487704872,ファミリーマート高松昭和店,昭和町一丁目3番24号,812-1520
340,34.28544926458803,134.11393750668148,ファミリーマート高松高田店,亀田町202番地4,847-1017
341,34.33769321024526,134.06154926435826,ファミリーマート高松多賀町店,多賀町三丁目1番4号,832-5536
342,34.31605697645533,134.03905874656263,ファミリーマート高松中央通り店,紙町81番地4,815-1544
343,34.329549514768274,134.00805468214196,ファミリーマート高松鶴市町店,鶴市町519番地1,832-8141
344,34.34492539946819,134.04861388828056,ファミリーマート高松磨屋町店,磨屋町9番地2,811-5778
345,34.310384208457826,134.02274574777792,ファミリーマート高松西春日店,西春日町1688番地1,869-8510
346,34.31804076702065,134.0308237177361,ファミリーマート高松西ハゼ町店,西ハゼ町262番地,815-1316
347,34.34743382125983,134.02733050814942,ファミリーマート高松西町店,西町1番19号,836-9871
348,34.29349110781932,134.07463253213623,ファミリーマート高松林町店,林町385番地35,840-1377
349,34.30496349547278,134.07043714656697,ファミリーマート高松東バイパス店,林町2539番地6,864-3213
350,34.31473352299587,134.0545456177218,ファミリーマート高松伏石町店,伏石町2047番地11,815-1922
351,34.28723971741032,134.0393781858162,ファミリーマート高松仏生山北店,仏生山町甲37番地1,864-8816
352,34.27385923862771,134.03549340913102,ファミリーマート高松仏生山南店,仏生山町甲1477番地2,815-4071
353,34.29395868592573,134.11297567869434,ファミリーマート高松前田東町店,前田東町732番地6,847-1125
354,34.3341608229923,134.10643215883636,ファミリーマート高松町店,高松町44番地3,818-0636
355,34.34058068213011,134.0608327355229,ファミリーマート高松松島町店,松島町一丁目13番15号,812-6055
356,34.3427169098041,134.0496889582657,ファミリーマート高松丸亀町店,丸亀町6番地7,811-7020
357,34.358758812785965,134.1219691889091,ファミリーマート高松牟礼町店,牟礼町牟礼3720番地566,845-7515
358,34.3062408780114,134.07298789441754,ファミリーマート中央インター南店,林町2029番地1,814-9570
359,34.337410033017555,134.01270628215147,ファミリーマート鶴市明見店,鶴市町2043番地9,842-7008
360,34.34171604899356,134.06820522939395,ファミリーマート福岡町南店,福岡町四丁目14番13号,825-9455
361,34.34270556587486,134.11959135821846,ファミリーマート古高松店,高松町2148番地1,844-9901
362,34.33202448953122,134.04707668828254,ファミリーマート栗林公園前店,栗林町一丁目1番14号,832-2557
363,34.3195699982664,134.06296129993632,ファミリーマートレインボー通り店,松縄町1066番地11,864-5495
364,34.35707808920652,134.09045368767636,ファミリーマート高松屋島西町北店,屋島西町2286番地25,844-8082
365,34.32180861393937,134.08377748828485,ファミリーマート高松元山町店,元山町584番地1,815-0167
366,34.346750559872,134.06850647662085,ファミリーマート高松福岡町店,福岡町二丁目5番14号,811-2821
367,34.32804643639926,134.06630675269312,福家商店,上福岡町900番地4,861-7786
368,34.33490137423055,134.05583835944802,藤井一億商店,花園町一丁目4番23号,831-0763
369,34.29318803921572,133.99024404104142,藤井商店,中間町548番地,885-2328
370,34.28014954437023,133.99866134656483,藤井商店,西山崎町427番地,885-2303
371,34.347377430652024,134.03424210485363,藤井フードセンター,瀬戸内町12番5号,821-6625
372,34.36194595246291,134.1110743766712,藤川商会,屋島東町282番地,841-6206
373,34.346771480530144,134.05529359712236,藤木商店,鶴屋町2番25号,851-2956
374,34.3296988970972,134.0565463999414,フジ楠上店,楠上町二丁目3番15号,887-8111
375,34.27166136245012,134.10970128214126,フジグラン十川,十川東町55番地1,848-9411
376,34.315472737922256,134.17135919992603,フジ志度店,さぬき市志度2431番地1,814-2211
377,34.316511172984846,134.10369756648583,双葉産業,新田町甲2156番地3,841-6652
378,34.34060448370285,134.1112248999371,古高松薬局,高松町3002番地5,844-8404
379,34.34031132055702,134.05006241220357,フレッシュカガワ,瓦町二丁目9番地8,831-2919
380,34.34530423516655,134.01433037110624,フレッシュバリューミラクルタウン郷東店,郷東町221番地1,832-8866
381,34.3359622599667,134.10132316576536,ホームセンターコーナン屋島店,新田町甲35番地2,843-5701
382,34.29514407690529,134.08776693551658,ホームセンタータイム高松六条店,六条町64番地1,802-6543
383,34.343965823633624,134.1272836355258,マール牟礼店,牟礼町牟礼2084番地10,845-2225
384,34.24044916813264,134.03082829319007,マイケル川東店,香川町川東下560番地,879-0900
385,34.34233158091331,134.04937531773245,まちマルシェ・きむら,丸亀町8番地23丸亀町グリーン東館1F,851-8000
386,34.333384233974904,134.0805227588372,松井食糧,木太町3109番地2,861-4601
387,34.33656793322053,134.0674818588294,松尾商店,松島町三丁目10番6号,831-5435
388,34.3015436864898,133.94447443552465,松尾商店,国分寺町国分959番地,874-0048
389,34.345653856815616,134.00938635888082,松月堂,香西東町571番地1,899-2741
390,34.32997524359716,134.0472939999406,松本書店,栗林町一丁目7番15号,833-1660
391,34.34051721981736,134.0491992165522,丸一倉庫株式会社商店部,南新町4番地1,831-3307(3309)
392,34.24016859538962,134.0759553643568,マルキョウ,西植田町3044番地13,849-0883
393,34.26231065982272,134.03492153552003,マルナカ浅野店,香川町浅野565番地5,889-1039
394,34.29058116886744,134.012191135537,マルナカ円座店,円座町999番地1,886-7798
395,34.27125938011185,134.0263758821492,マルナカ大野店,香川町大野2499番地1,886-9136
396,34.33355327208397,134.0836498643682,マルナカ春日店,木太町2833番地1,833-6461
397,34.26903059804291,134.00829583552354,マルナカ川岡店,川部町521番地2,885-5111
398,34.2768657439467,134.08452521772816,マルナカ川島店,川島本町188番地2,848-2830
399,34.324535017542736,134.07170652447292,マルナカ木太店,木太町1682番地1,834-2580
400,34.35340018926927,134.0033552643527,マルナカ香西店,香西本町1番地176,870-5233
401,34.34224539565439,134.01530351773252,マルナカ郷東店,郷東町17番地,882-0391
402,34.29941886295888,133.96496059994035,マルナカ国分寺店,国分寺町新居1080番地1,875-9121
403,34.351813644804025,134.0427613876767,マルナカサンポート店,浜ノ町256番,811-7001
404,34.333803871064774,133.99615144104854,マルナカ新鬼無店,鬼無町藤井585番地1,882-5701
405,34.32554387736347,134.1007240876432,マルナカ新田店,新田町甲680番地1,818-0311
406,34.336784540352305,134.04850763552287,マルナカ田町店,田町4番地10,861-5941
407,34.31099061669087,133.99933123000633,マルナカ檀紙店,檀紙町2052番地,886-8833
408,34.34492860832418,134.05600194656384,マルナカ通町店,通町5番地3,822-7498
409,34.30841118654697,134.0715619300043,マルナカ林店,林町2000番地5,815-1681
410,34.34652635342266,134.04540093859214,マルナカ広場店,錦町一丁目14番28号,851-2969
411,34.28458950608964,134.04716974107308,マルナカ仏生山店,仏生山町甲415番地4,889-5471
412,34.34411053589822,134.059755671106,マルナカ松福店,松福町一丁目3番7号,851-7001
413,34.26734061574918,134.1381362287758,マルナカ三木店,三木町氷上482番地2,898-1161
414,34.30398489158948,134.09569620668415,マルナカ水田店,東山崎町384番地1,847-8965
415,34.33890531277948,134.0371042533119,マルナカ宮脇店,宮脇町一丁目4番5号,835-3490
416,34.35029810435108,134.1208423533112,マルナカ八栗店,牟礼町牟礼2615番地1,845-0688
417,34.33847865407902,134.10986636436135,マルナカ屋島店,高松町2498番地1,843-3025
418,34.34734980652506,134.0905632643557,マルナカ屋島西町店,屋島西町2506番地3,843-4622
419,34.32111068029168,134.03841201772178,マルナカ栗林南店,西ハゼ町18番地,868-3033
420,34.256569455178415,133.95982414226435,マルナカ綾南店,綾歌町陶2610番地1,876-4801
421,34.34457459966081,134.07378403476312,マルベツ商事,福岡町三丁目15番20号,821-3844
422,34.34822356239657,134.02755907109787,マルヨシセンター茜町店,茜町1番1号,862-7311
423,34.263677119642864,134.0272636999679,マルヨシセンター香川町店,香川町大野916番地1,886-1110
424,34.34610751098942,134.05422223000366,マルヨシセンター片原町店,鶴屋町7番5号,825-9222
425,34.34146501275916,134.09584376006165,マルヨシセンターかたもと店,屋島西町1453番地1,843-5171
426,34.24076616791663,134.03319376435823,マルヨシセンター川東店,香川町川東上1792番地1,879-5678
427,34.334664322805715,134.07775526987564,マルヨシセンター木太店,木太町2512番地1,832-5366
428,34.300525736315116,133.96109968214637,マルヨシセンター国分寺店,国分寺町新居1406番地,874-7511
429,34.31980097264304,134.06203059319668,マルヨシセンター松縄店,松縄町1012番地12,866-6669
430,34.27165947986466,134.13674214656461,マルヨシセンター三木店,木田郡三木町鹿伏310番地,898-7788
431,34.34572336404624,134.1238808465662,マルヨシセンター牟礼店,牟礼町牟礼2433番地1,845-8777
432,34.27801961442974,134.02736693551157,ミカワ調剤薬局　寺井町店,寺井町1053番地10,886-0622
433,34.33311477446771,134.0482284177244,ミカワ薬局　藤塚店,藤塚町一丁目16番31号,831-2237
434,34.34467033859238,134.02740824655808,水野酒店,西宝町一丁目13番29号,862-8671
435,34.27780505791475,134.06955043552028,三谷コミュニティセンター,三谷町1201番地1,889-4938
436,34.28970547678816,134.00472580329597,ミニストップ円座店,円座町211番地1,886-3281
437,34.2422619679986,134.02793915883527,ミニストップ香川町店,香川町川東下241番地1,879-0732
438,34.31259183207783,134.10432626207216,ミニストップ久米池店,新田町甲2094番地4,841-0532
439,34.292547399555275,134.06731984657085,ミニストップ県立図書館前店,上林町499番地1,888-2932
440,34.283711459170824,134.09756693551816,ミニストップ小村町店,小村町240番地5,848-6632
441,34.34187714663,134.02901304104287,ミニストップ西宝町店,西宝町二丁目7番44号,861-3216
442,34.34971728070525,134.04739748889324,ミニストップ高松駅前店,西の丸町6番1号,822-3205
443,34.30815144775116,134.06448427663204,ミニストップ高松大池南店,木太町5093番地6,868-0233
444,34.31164944686975,134.07387150545924,ミニストップ高松木太町店,木太町555番地3,866-2580
445,34.30155328872634,134.06206123551638,ミニストップ高松多肥下町店,多肥下町1547番地5,867-6180
446,34.34314314628883,134.05748247662095,ミニストップ高松築地町店,築地町2番地8,821-0575
447,34.34342349244696,134.1286562410418,ミニストップ高松牟礼町店,牟礼町牟礼2106番地1,845-0601
448,34.30972886328795,134.08411550546958,ミニストップ高松元山町店,元山町988番地9,869-8560
449,34.31118573151227,133.99856899441608,ミニストップ檀紙店,檀紙町2060番地1,886-3237
450,34.3249105155715,134.05023166563396,ミニストップ花の宮２丁目店,花ノ宮町二丁目5番1号,868-3316
451,34.32902921002554,134.14829520668863,ミニストップ牟礼町原店　,牟礼町原1156番地,845-6658
452,34.284697859155834,134.00900965332278,宮西たばこ店,円座町1513番地1,886-0820
453,34.2825639135862,134.0452050115891,三好金物店,仏生山町甲832番地7,889-1578
454,34.27625084266632,134.10088159993967,ムーミー川島店,川島東町520番地,848-1245
455,34.33428870065544,134.05860734656028,ムーミー花園店,花園町一丁目10番5号,835-1258
456,34.299678310203724,134.07374215331296,ムーミー林店,林町1208番地,867-8103
457,34.300573993836736,134.04409030669237,ムーミーベスト店,太田上町901番地,864-5668
458,34.38568518907694,134.12962012882048,村井百貨センター,庵治町909番地2,871-3585
459,34.385936534975286,134.12949407662245,村井本店,庵治町910番地2,871-2007
460,34.33783018461603,134.13912998214397,牟礼コミュニティセンター,牟礼町牟礼302番地1,845-4111
461,34.315165968845115,134.07060163551367,モダン・プロ高松店,木太町5039番地3,868-2511
462,34.33877698430618,134.1122608477922,屋島食糧,高松町2443番地,841-9336
463,34.180624855315514,134.0733419177354,安部石油店,塩江町安原上275番地,893-0224
464,34.34178949063916,134.0315068054599,山崎食料品店,昭和町二丁目17番6号,861-4188
465,34.311923031806614,134.04499958215106,山下商店,三条町171番地1,865-4218
466,34.265014345516086,134.04913292709605,山下商店,仏生山町甲3013番地,889-5741
467,34.319531437706615,134.0496081772286,山下商店,上之町三丁目9番38号,867-0538
468,34.26495609195804,134.00971935330733,山下鮮魚店,川部町1432番地2,885-2517
469,34.27572658203998,134.08546527053707,山田商店,川島本町157番地,848-0074
470,34.31694939836318,134.04161630669782,ゆめタウン高松,三条町608番地1,869-7500
471,34.33855436550874,134.07844084226537,ゆめマート木太,木太町2442番地1,832-5510
472,34.39216050000163,134.15117604717716,吉井商店,庵治町6357番地5,871-3023
473,34.294734595420955,134.0510522355304,ラ・ムー高松中央店,多肥上町1092番地,864-8850
474,34.29674468051856,134.0167250821499,ラ・ムー高松西店,成合町1174番地1,885-6880
475,34.30844288864881,134.0925250710986,ラ・ムー高松東店,東山崎町648番地,840-7350
476,34.34472898964159,134.02122621220985,リカー＆コンビニエンスみたに,西宝町三丁目10番9号,835-4477
477,34.27164806336421,134.10967982447283,レデイ薬局十川店,十川東町55番地1,848-9822
478,34.34347896081607,134.09052544656015,ローソンＳ屋島総合病院店,屋島西町2105番地17,841-3816
479,34.32311964398056,134.05928356436186,ローソン高松今里町店,今里町4番地10,815-0565
480,34.32585851119698,134.0636547355117,ローソン高松今里町二丁目店,今里町二丁目9番地4,812-0155
481,34.308412188670815,134.0519747710974,ローソン高松太田下町店,太田下町3001番地1,868-9799
482,34.30701537400611,133.98528747784263,ローソン高松御厩店,御厩町1448番地1,886-1139
483,34.26809377041634,134.02574974717845,ローソン高松香川町大野店,香川町大野1074番地1,815-7220
484,34.24044124737537,134.0327259588342,ローソン高松香川町川東上店,香川町川東上1797番地1,815-8020
485,34.323072489491246,134.09139696435437,ローソン高松春日町川南店,春日町455番地1,844-3936
486,34.27690617196919,134.09575015331166,ローソン高松川島東店,川島東町386番地1,848-0136
487,34.339269903114165,134.05182118276286,ローソン高松瓦町店,瓦町二丁目12番18号,862-2506
488,34.32332789848822,134.078446295029,ローソン高松木太町７区店,木太町3529番地6,837-0103
489,34.33397445495048,134.07697540570666,ローソン高松木太町六区店,木太町2509番地9,861-6755
490,34.338150484508866,133.996392865577,ローソン高松鬼無店,鬼無町是竹174番地6,881-1058
491,34.35512058934535,133.98844037110538,ローソン高松香西北町店,香西北町533番地1,813-0773
492,34.34556864830155,134.00043606497854,ローソン高松香西中央通店,香西本町395番地1,881-8815
493,34.349020301308826,134.00203269931748,ローソン高松香西本町店,香西本町90番地2,881-7556
494,34.30651374815496,134.0084999005525,ローソン高松高専前店,勅使町73番地1,869-9910
495,34.29707449807187,133.95514608214862,ローソン高松国分寺町店,国分寺町国分134番地1,874-7114
496,34.30161341682619,133.96660964778388,ローソン高松国分寺バイパス店,国分寺町新居528番地1,870-6536
497,34.30270032455036,133.95878232938574,ローソン高松国分寺町新居店,国分寺町新居441番地,875-0204
498,34.29397644334294,133.96561515882559,ローソン高松国分寺町福家店,国分寺町福家甲3880番地1,874-6300
499,34.33898978627713,134.05475218889737,ローソン高松塩上町店,塩上町二丁目10番12号,863-6055
500,34.29640143327928,134.03467294717424,ローソン高松鹿角店,鹿角町16番地6,869-9300
501,34.347997445005575,134.0587398410347,ローソン高松城東町二丁目店,城東町二丁目3番1号,823-2239
502,34.26828034943271,134.10937453552341,ローソン高松十川東町店,十川東町98番地1,848-5507
503,34.27962691413976,134.05703163495343,ローソン高松多肥上町店,多肥上町2029番地1,814-7277
504,34.29512986357783,134.042970876622,ローソン高松多肥上町西原店,多肥上町56番地7,813-8661
505,34.29421118832277,134.05192743553326,ローソン高松多肥上町平塚店,多肥上町1103番地5,814-7519
506,34.30408962437905,134.05947900484432,ローソン高松多肥下町店,多肥下町1530番地1,868-5263
507,34.31057890841504,134.07299074778447,ローソン高松中央インター店,木太町566番地3,867-8547
508,34.33795671074594,134.04486774103722,ローソン高松天神前店,天神前11番12号,834-3936
509,34.30429290869712,134.01614866434718,ローソン高松成合町店,成合町730番地1,886-5119
510,34.29467099545766,133.99552064716562,ローソン高松西インター前店,中間町469番地2,885-3447
511,34.2521047308857,134.08559472936997,ローソン高松西植田町店,池田町986番地1,840-4848
512,34.28043019542053,133.99575606434658,ローソン高松西山崎町店,西山崎町299番地,814-6607
513,34.32592928100525,134.04817261219685,ローソン高松花ノ宮町店,花ノ宮町一丁目9番29号,837-8609
514,34.34964161143389,134.04110335821034,ローソン高松浜ノ町東店,浜ノ町8番18号,823-1265
515,34.343133541429765,134.041161082749,ローソン高松番町三丁目店,番町三丁目4番18号,813-4638
516,34.31496066143482,134.09146962999085,ローソン高松東山崎町店,東山崎町934番地,847-6050
517,34.34633973635831,134.04815918275088,ローソン高松兵庫町店,兵庫町9番地1,821-4316
518,34.31096926996311,134.0538893766705,ローソン高松伏石店,伏石町2111番地1,865-6304
519,34.3343282560637,134.04689688766553,ローソン高松藤塚町店,藤塚町一丁目10番31号,861-7207
520,34.289456620348304,134.10888924109204,ローソン高松前田東町店,前田東町1168番地3,813-1123
521,34.33766637387047,134.10737987667477,ローソン高松町店,高松町2579番地1,843-1001
522,34.31363944686739,134.06152684657022,ローソン高松松縄町店,松縄町1105番地11,868-3938
523,34.343318217004025,134.0654028705024,ローソン高松松福町二丁目店,松福町二丁目4番1号,811-6552
524,34.27748190635625,134.07304564103364,ローソン高松三谷店,三谷町299番地,888-0450
525,34.33723540699877,134.03658803552574,ローソン高松宮脇町店,宮脇町一丁目32番5号,835-1522
526,34.342109134273215,134.13152620607642,ローソン高松牟礼町店,牟礼町牟礼990番地1,845-2555
527,34.33618258792627,134.09694199646702,ローソン高松屋島西町店,屋島西町1992番地3,844-0333
528,34.34664224966335,134.11808166543577,ローソン高松屋島東町店,屋島東町1161番地1,844-0388
529,34.305279728229024,133.9971109968604,ローソン檀紙町八幡店,檀紙町1599番地1,886-6603
530,34.33747630615961,134.06558766710273,ローソン松島町二丁目店,松島町二丁目21番3号,862-2260
531,34.3339344954084,134.04806456767267,和光堂,藤塚一丁目9番5号,834-2323
532,34.341559926127225,134.13523916828532,わんまいる　あらき商店,牟礼町牟礼1155番地,845-2731
