#property,latitude,longitude,name,address,telephoneNumber,referenceObject,note
1,34.33776639,134.03079639,高松市摺鉢谷墓地,高松市宮脇町二丁目37-16,,,
2,34.33186417,134.03471556,高松市宮脇町姥ヶ池墓地,高松市宮脇町二丁目996,,,
3,34.3315625,134.03373833,高松市姥ヶ池西墓地,高松市宮脇町二丁目998,,,
4,34.33149194,134.03561667,高松市姥ヶ池東墓地,高松市宮脇町二丁目10-56,,,
5,34.33382833,134.03325583,高松市紫雲墓地,高松市宮脇町二丁目994-25,,,
6,34.33657194,134.0283425,高松市峰山墓地,高松市西宝町二丁目844-43,,,
7,34.33920444,134.02993083,高松市本門院墓地,高松市西宝町二丁目4-4,,,
8,34.32467833,134.05362,高松市柳三昧北墓地,高松市桜町二丁目17-3,,,
9,34.32480861,134.05303194,高松市柳三昧墓地,高松市桜町二丁目15-37,,,
10,34.3304175,134.05996306,高松市楠川墓地,高松市上福岡町2003-7,,,
11,34.34066083,134.07439333,高松市沖松島墓地,高松市福岡町四丁目35-20,,,
12,34.3418,134.12916472,高松市西林寺墓地,高松市牟礼町牟礼917-2,,,
13,34.34517028,134.1356975,高松市岡ノ山墓地,高松市牟礼町牟礼1307,,,
14,34.34401583,134.14260111,高松市田井墓地,高松市牟礼町牟礼1587-9,,,
15,34.35120639,134.13687389,高松市松井谷墓地,高松市牟礼町牟礼1701-1,,,
16,34.36187389,134.12934306,高松市久通墓地,高松市牟礼町牟礼3442-14,,,
17,34.34025306,134.14746639,高松市焼野墓地,高松市牟礼町大町626,,,
18,34.33885194,134.15394583,高松市北三昧墓地,高松市牟礼町大町985,,,
19,34.33742056,134.15526861,高松市南三昧墓地,高松市牟礼町大町1005,,,
20,34.33905556,134.14246056,高松市焼背ヶ原墓地,高松市牟礼町大町2420,,,
21,34.33524139,134.14622944,高松市鐙田墓地,高松市牟礼町大町2442-1,,,
22,34.33538972,134.13418056,高松市丹僧墓地,高松市牟礼町大町2560,,,
23,34.32106667,134.16079667,高松市浜三昧墓地,高松市牟礼町原210-6,,,
24,34.32632611,134.15213611,高松市鋸ノ鼻墓地,高松市牟礼町原1515,,,
25,34.38980139,134.13678972,高松市北村共同墓地,高松市庵治町1443,,,
26,34.25910528,134.04868639,高松市浅野墓地公園,高松市香川町浅野2845,,,
27,34.30312111,133.97368083,高松市新居大谷公園墓地,高松市国分寺町新居223-1,,,
28,34.31440028,133.95901361,高松市川西公園墓地,高松市国分寺町新居3845-1,,,
29,34.26100722,134.07571056,高松市平和公園,高松市三谷町2851-1,087-889-0938,,
30,34.26025278,134.0761375,高松市平和公園合葬式墓地,高松市三谷町2851-1,087-889-0938,http://www.city.takamatsu.kagawa.jp/kurashi/kurashi/bochi/about/moushikomi.html,
31,34.28977556,133.97270611,高松市六ツ目公園,高松市国分寺町福家39-1,,,
